{"type":"FeatureCollection","features":[{"type":"Feature","properties":{"district":"37","centroid_lon":-80.912926,"centroid_lat":35.457246,"sf1_2000_vap_flow":11138.0,"charlotte_2000_share_pct":0.0,"north_towns_2000_share_pct":85.28,"south_suburbs_2000_share_pct":0.0,"remainder_2000_share_pct":14.72,"top_2000_places":"Cornelius:58.3%; Huntersville:27.0%; Remainder/unincorporated:14.7%","senate_2002_margin_pct":31.03,"senate_2002_winner":"REP","president_2004_margin_pct":36.4,"president_2004_winner":"REP","governor_2004_margin_pct":7.37,"governor_2004_winner":"REP"},"geometry":{"type":"GeometryCollection","geometries":[{"type":"Polygon","coordinates":[[[-80.874373,35.512524],[-80.874058,35.499846],[-80.869396,35.497042],[-80.874564,35.486624],[-80.874803,35.485743],[-80.875056,35.474622],[-80.875923,35.46373],[-80.875098,35.460083],[-80.871922,35.453911],[-80.870428,35.449961],[-80.86961,35.446066],[-80.869418,35.442486],[-80.875883,35.442956],[-80.877198,35.442698],[-80.878374,35.441922],[-80.878586,35.441307],[-80.879132,35.441182],[-80.879467,35.440467],[-80.880619,35.439893],[-80.885221,35.434425],[-80.885356,35.43035],[-80.888614,35.426646],[-80.889162,35.424769],[-80.889104,35.4237],[-80.886677,35.42064],[-80.886262,35.41983],[-80.886104,35.418783],[-80.888228,35.409175],[-80.889643,35.407817],[-80.890868,35.407014],[-80.892661,35.407086],[-80.896942,35.406522],[-80.899923,35.407009],[-80.900881,35.407614],[-80.901327,35.408716],[-80.903206,35.40944],[-80.904138,35.408878],[-80.90605,35.406032],[-80.906755,35.40538],[-80.90761,35.404953],[-80.911469,35.404672],[-80.913798,35.402103],[-80.924214,35.401151],[-80.92652,35.408016],[-80.926493,35.408628],[-80.925819,35.4103],[-80.928428,35.41142],[-80.929858,35.412368],[-80.930573,35.413556],[-80.932403,35.41523],[-80.934108,35.415413],[-80.936367,35.410487],[-80.937613,35.409735],[-80.938175,35.408486],[-80.939735,35.407514],[-80.940307,35.407418],[-80.940976,35.406771],[-80.941631,35.406692],[-80.941612,35.406405],[-80.942453,35.406118],[-80.943899,35.404972],[-80.944632,35.405061],[-80.945081,35.405374],[-80.945786,35.405294],[-80.945848,35.404366],[-80.946136,35.404127],[-80.945971,35.403733],[-80.947029,35.403177],[-80.9479,35.40184],[-80.948557,35.401613],[-80.949267,35.400683],[-80.949935,35.400535],[-80.95108,35.400802],[-80.951601,35.401384],[-80.953158,35.401932],[-80.95353,35.401722],[-80.9533,35.401166],[-80.953932,35.400722],[-80.954807,35.401681],[-80.955708,35.401623],[-80.956549,35.402882],[-80.957078,35.40422],[-80.958753,35.412247],[-80.958331,35.414114],[-80.95559,35.418923],[-80.955128,35.421023],[-80.955852,35.425751],[-80.957035,35.428785],[-80.95849,35.431264],[-80.958639,35.432901],[-80.957315,35.435992],[-80.956214,35.437824],[-80.953358,35.440714],[-80.952264,35.444408],[-80.95038,35.447302],[-80.94878,35.448613],[-80.946118,35.449718],[-80.943086,35.452916],[-80.94238,35.455147],[-80.942489,35.457728],[-80.943251,35.459373],[-80.944009,35.460138],[-80.948581,35.463412],[-80.950618,35.465289],[-80.951368,35.46671],[-80.951745,35.468224],[-80.951517,35.470453],[-80.948952,35.476149],[-80.948247,35.478714],[-80.948143,35.480044],[-80.947861,35.480698],[-80.945819,35.482798],[-80.945325,35.483617],[-80.945456,35.484502],[-80.947344,35.488473],[-80.906723,35.514785],[-80.874373,35.512524]]]},{"type":"LineString","coordinates":[[-80.784167,35.506017],[-80.784231,35.506018]]},{"type":"LineString","coordinates":[[-80.784231,35.506018],[-80.78427,35.50602]]},{"type":"LineString","coordinates":[[-80.78427,35.50602],[-80.784535,35.50604]]},{"type":"LineString","coordinates":[[-80.784535,35.50604],[-80.78501,35.506079]]},{"type":"LineString","coordinates":[[-80.78501,35.506079],[-80.785368,35.506103]]},{"type":"LineString","coordinates":[[-80.785368,35.506103],[-80.787266,35.506249]]},{"type":"LineString","coordinates":[[-80.787266,35.506249],[-80.794672,35.506821]]},{"type":"LineString","coordinates":[[-80.794672,35.506821],[-80.796164,35.506936]]},{"type":"LineString","coordinates":[[-80.796164,35.506936],[-80.796709,35.506979]]},{"type":"LineString","coordinates":[[-80.796709,35.506979],[-80.798108,35.507087]]},{"type":"LineString","coordinates":[[-80.798108,35.507087],[-80.799097,35.507161]]},{"type":"LineString","coordinates":[[-80.799097,35.507161],[-80.801125,35.507318]]},{"type":"LineString","coordinates":[[-80.801125,35.507318],[-80.803694,35.507503]]},{"type":"LineString","coordinates":[[-80.803694,35.507503],[-80.803935,35.50752]]},{"type":"LineString","coordinates":[[-80.803935,35.50752],[-80.810454,35.50799]]},{"type":"LineString","coordinates":[[-80.810454,35.50799],[-80.812248,35.508118]]},{"type":"LineString","coordinates":[[-80.812248,35.508118],[-80.81519,35.508349]]},{"type":"LineString","coordinates":[[-80.81519,35.508349],[-80.820345,35.508725]]},{"type":"LineString","coordinates":[[-80.820345,35.508725],[-80.824214,35.508979]]},{"type":"LineString","coordinates":[[-80.824214,35.508979],[-80.833348,35.509636]]},{"type":"LineString","coordinates":[[-80.833348,35.509636],[-80.833513,35.509648]]},{"type":"LineString","coordinates":[[-80.833513,35.509648],[-80.833655,35.509657]]},{"type":"LineString","coordinates":[[-80.833655,35.509657],[-80.83386,35.509682]]},{"type":"LineString","coordinates":[[-80.83386,35.509682],[-80.834308,35.509704]]},{"type":"LineString","coordinates":[[-80.834308,35.509704],[-80.834458,35.509715]]},{"type":"LineString","coordinates":[[-80.834458,35.509715],[-80.836897,35.50989]]},{"type":"LineString","coordinates":[[-80.836897,35.50989],[-80.839123,35.510046]]},{"type":"LineString","coordinates":[[-80.839123,35.510046],[-80.839274,35.51013]]},{"type":"LineString","coordinates":[[-80.839274,35.51013],[-80.839644,35.510153]]},{"type":"LineString","coordinates":[[-80.839644,35.510153],[-80.839885,35.510166]]},{"type":"LineString","coordinates":[[-80.839885,35.510166],[-80.840223,35.510185]]},{"type":"LineString","coordinates":[[-80.840223,35.510185],[-80.840288,35.510188]]},{"type":"LineString","coordinates":[[-80.840288,35.510188],[-80.840561,35.510204]]},{"type":"LineString","coordinates":[[-80.840561,35.510204],[-80.840901,35.510223]]},{"type":"LineString","coordinates":[[-80.840901,35.510223],[-80.845853,35.510524]]},{"type":"LineString","coordinates":[[-80.845853,35.510524],[-80.855861,35.511227]]},{"type":"LineString","coordinates":[[-80.855861,35.511227],[-80.859433,35.511477]]},{"type":"LineString","coordinates":[[-80.859433,35.511477],[-80.860441,35.511548]]},{"type":"LineString","coordinates":[[-80.860441,35.511548],[-80.860764,35.511569]]},{"type":"LineString","coordinates":[[-80.860764,35.511569],[-80.861703,35.511637]]},{"type":"LineString","coordinates":[[-80.861703,35.511637],[-80.862122,35.511666]]},{"type":"LineString","coordinates":[[-80.862122,35.511666],[-80.862459,35.511689]]},{"type":"LineString","coordinates":[[-80.862459,35.511689],[-80.862795,35.511713]]},{"type":"LineString","coordinates":[[-80.862795,35.511713],[-80.863131,35.511736]]},{"type":"LineString","coordinates":[[-80.863131,35.511736],[-80.863467,35.51176]]},{"type":"LineString","coordinates":[[-80.863467,35.51176],[-80.863804,35.511783]]},{"type":"LineString","coordinates":[[-80.863804,35.511783],[-80.86414,35.511807]]},{"type":"LineString","coordinates":[[-80.86414,35.511807],[-80.864476,35.511831]]},{"type":"LineString","coordinates":[[-80.864476,35.511831],[-80.864812,35.511854]]},{"type":"LineString","coordinates":[[-80.864812,35.511854],[-80.865148,35.511878]]},{"type":"LineString","coordinates":[[-80.865148,35.511878],[-80.865485,35.511901]]},{"type":"LineString","coordinates":[[-80.865485,35.511901],[-80.865518,35.511904]]},{"type":"LineString","coordinates":[[-80.865518,35.511904],[-80.865642,35.511911]]},{"type":"LineString","coordinates":[[-80.865642,35.511911],[-80.865874,35.511928]]},{"type":"LineString","coordinates":[[-80.865874,35.511928],[-80.866032,35.511939]]},{"type":"LineString","coordinates":[[-80.866032,35.511939],[-80.874373,35.512524]]}]}},{"type":"Feature","properties":{"district":"38","centroid_lon":-80.791727,"centroid_lat":35.294618,"sf1_2000_vap_flow":104535.0,"charlotte_2000_share_pct":94.46,"north_towns_2000_share_pct":0.0,"south_suburbs_2000_share_pct":0.0,"remainder_2000_share_pct":5.54,"top_2000_places":"Charlotte:94.5%; Remainder/unincorporated:5.5%","senate_2002_margin_pct":-31.87,"senate_2002_winner":"DEM","president_2004_margin_pct":-37.97,"president_2004_winner":"DEM","governor_2004_margin_pct":-47.55,"governor_2004_winner":"DEM"},"geometry":{"type":"Polygon","coordinates":[[[-80.868363,35.224691],[-80.867143,35.226845],[-80.866931,35.228978],[-80.866548,35.230291],[-80.861467,35.236523],[-80.861482,35.236923],[-80.858708,35.23709],[-80.858897,35.237741],[-80.85845,35.240265],[-80.858713,35.241733],[-80.85815,35.241392],[-80.853883,35.241339],[-80.853101,35.242796],[-80.852215,35.243275],[-80.854534,35.246728],[-80.854285,35.246961],[-80.85434,35.247253],[-80.856483,35.249544],[-80.855092,35.261003],[-80.853938,35.266766],[-80.854187,35.271141],[-80.844709,35.272941],[-80.844943,35.275292],[-80.850583,35.288021],[-80.851198,35.29015],[-80.851447,35.292162],[-80.851298,35.294863],[-80.848268,35.308201],[-80.84767,35.312522],[-80.848754,35.333844],[-80.844898,35.334468],[-80.839702,35.337453],[-80.833566,35.339022],[-80.824174,35.338887],[-80.824381,35.342281],[-80.822399,35.355769],[-80.822701,35.358388],[-80.821086,35.360301],[-80.819722,35.363869],[-80.816014,35.366239],[-80.815812,35.36682],[-80.815926,35.367751],[-80.813756,35.368533],[-80.803879,35.374004],[-80.794389,35.380414],[-80.789288,35.38218],[-80.78478,35.386228],[-80.77943,35.390429],[-80.774385,35.392752],[-80.769404,35.397349],[-80.764295,35.400203],[-80.755309,35.394823],[-80.751421,35.388997],[-80.74441,35.380667],[-80.732757,35.371931],[-80.708878,35.35535],[-80.693654,35.346734],[-80.70804,35.33709],[-80.709539,35.33659],[-80.716607,35.335134],[-80.719612,35.334185],[-80.721636,35.333139],[-80.748343,35.307691],[-80.75373,35.299704],[-80.756583,35.2908],[-80.75765,35.289514],[-80.763197,35.284302],[-80.764646,35.28236],[-80.765574,35.280623],[-80.768298,35.267727],[-80.769108,35.266],[-80.770179,35.264571],[-80.771497,35.263347],[-80.777328,35.259638],[-80.777246,35.258627],[-80.777496,35.257765],[-80.779739,35.254787],[-80.781073,35.249206],[-80.781212,35.247156],[-80.78094,35.245522],[-80.779562,35.241929],[-80.775653,35.236789],[-80.774624,35.234656],[-80.774516,35.233448],[-80.773984,35.233589],[-80.774134,35.233153],[-80.774057,35.232602],[-80.773744,35.232353],[-80.773998,35.231977],[-80.773869,35.231721],[-80.770894,35.23098],[-80.770342,35.228736],[-80.769386,35.226903],[-80.767386,35.225113],[-80.766918,35.224252],[-80.76404,35.226687],[-80.763431,35.226823],[-80.762491,35.226638],[-80.760644,35.225128],[-80.757094,35.223238],[-80.752878,35.21954],[-80.754496,35.217414],[-80.758174,35.206729],[-80.759765,35.204695],[-80.760584,35.201723],[-80.767972,35.199021],[-80.770147,35.198801],[-80.768759,35.197607],[-80.756477,35.183762],[-80.760373,35.184232],[-80.762231,35.183836],[-80.769655,35.177386],[-80.776402,35.182152],[-80.777288,35.180382],[-80.78127,35.177321],[-80.782043,35.176974],[-80.783426,35.177067],[-80.786025,35.178588],[-80.787984,35.17914],[-80.790135,35.179039],[-80.793105,35.185563],[-80.791773,35.186028],[-80.793344,35.189139],[-80.793822,35.19058],[-80.793677,35.191093],[-80.796519,35.19045],[-80.797101,35.190665],[-80.79836,35.190029],[-80.800989,35.189383],[-80.801596,35.191037],[-80.807097,35.190365],[-80.810874,35.190623],[-80.811054,35.192924],[-80.810607,35.19715],[-80.811227,35.19849],[-80.812514,35.199656],[-80.811551,35.202198],[-80.809331,35.204476],[-80.807992,35.205187],[-80.809975,35.207554],[-80.812159,35.208713],[-80.811266,35.209341],[-80.814493,35.213843],[-80.815093,35.215543],[-80.817883,35.212226],[-80.822099,35.215779],[-80.824264,35.214007],[-80.826478,35.215788],[-80.827533,35.216998],[-80.829624,35.218461],[-80.829776,35.218889],[-80.829606,35.21936],[-80.828976,35.219537],[-80.829431,35.219864],[-80.832205,35.218087],[-80.832479,35.216475],[-80.833939,35.213349],[-80.837451,35.213949],[-80.844629,35.219973],[-80.848798,35.218697],[-80.850552,35.217675],[-80.853379,35.220379],[-80.854252,35.221945],[-80.856126,35.223663],[-80.857053,35.224176],[-80.862241,35.224686],[-80.864559,35.224391],[-80.867291,35.224387],[-80.868296,35.223996],[-80.868363,35.224691]]]}},{"type":"Feature","properties":{"district":"39","centroid_lon":-80.926562,"centroid_lat":35.139335,"sf1_2000_vap_flow":101649.64,"charlotte_2000_share_pct":91.6,"north_towns_2000_share_pct":0.0,"south_suburbs_2000_share_pct":1.52,"remainder_2000_share_pct":6.88,"top_2000_places":"Charlotte:91.6%; Remainder/unincorporated:6.9%; Pineville:1.5%","senate_2002_margin_pct":1.78,"senate_2002_winner":"REP","president_2004_margin_pct":-2.44,"president_2004_winner":"DEM","governor_2004_margin_pct":-18.19,"governor_2004_winner":"DEM"},"geometry":{"type":"Polygon","coordinates":[[[-81.058199,35.065098],[-81.057669,35.070811],[-81.057581,35.075815],[-81.056349,35.081549],[-81.057055,35.084864],[-81.056984,35.086446],[-81.056032,35.088154],[-81.053462,35.091369],[-81.052245,35.095478],[-81.05155,35.096981],[-81.049539,35.099013],[-81.047044,35.100337],[-81.044355,35.101162],[-81.038645,35.101984],[-81.036069,35.103151],[-81.035196,35.103776],[-81.033605,35.105702],[-81.032854,35.107377],[-81.032367,35.109619],[-81.032415,35.112149],[-81.032792,35.113788],[-81.035329,35.117937],[-81.037066,35.122963],[-81.038765,35.125449],[-81.040542,35.127196],[-81.042125,35.128253],[-81.045715,35.12979],[-81.050456,35.131109],[-81.051399,35.131848],[-81.052029,35.132833],[-81.051884,35.134497],[-81.048803,35.141052],[-81.047792,35.144782],[-81.046332,35.146729],[-81.044688,35.147734],[-81.043586,35.148006],[-81.037278,35.1481],[-81.033909,35.14869],[-81.032238,35.148412],[-81.027146,35.148535],[-81.024721,35.148877],[-81.023037,35.149521],[-81.02115,35.150664],[-81.018284,35.153554],[-81.017112,35.154318],[-81.015372,35.154146],[-81.012698,35.152911],[-81.011839,35.152749],[-81.009804,35.153028],[-81.008733,35.153501],[-81.006898,35.155116],[-81.005806,35.157023],[-81.005836,35.160877],[-81.006765,35.162751],[-81.007306,35.165175],[-81.003915,35.170407],[-81.003185,35.173182],[-80.999798,35.173039],[-80.9983,35.173371],[-80.99603,35.173148],[-80.994726,35.17406],[-80.99323,35.174009],[-80.991877,35.174664],[-80.990913,35.174264],[-80.99068,35.174477],[-80.989813,35.174013],[-80.987635,35.173603],[-80.986347,35.172779],[-80.984998,35.172535],[-80.981087,35.173234],[-80.978957,35.173129],[-80.975469,35.172104],[-80.974511,35.171341],[-80.973189,35.171729],[-80.970741,35.171989],[-80.966841,35.171991],[-80.963908,35.172786],[-80.962888,35.172398],[-80.961532,35.171361],[-80.959144,35.173234],[-80.956859,35.179635],[-80.95644,35.182645],[-80.958253,35.184308],[-80.95921,35.18603],[-80.957967,35.189614],[-80.949613,35.191665],[-80.947192,35.19258],[-80.944904,35.192695],[-80.941819,35.193268],[-80.934524,35.193481],[-80.933317,35.193883],[-80.928887,35.189705],[-80.927953,35.189578],[-80.924103,35.190218],[-80.921576,35.189703],[-80.920958,35.190828],[-80.91716,35.195569],[-80.916118,35.194414],[-80.915466,35.194247],[-80.914977,35.193364],[-80.913903,35.193672],[-80.911854,35.19342],[-80.910384,35.19377],[-80.909914,35.193419],[-80.90836,35.194024],[-80.907994,35.195064],[-80.907462,35.195715],[-80.906356,35.196809],[-80.904255,35.19816],[-80.897706,35.200628],[-80.896395,35.202217],[-80.895274,35.20295],[-80.893963,35.204509],[-80.892399,35.205314],[-80.890473,35.207493],[-80.889295,35.208227],[-80.886878,35.207631],[-80.886467,35.207077],[-80.885346,35.206438],[-80.882246,35.206539],[-80.880972,35.205761],[-80.880742,35.203932],[-80.880183,35.202936],[-80.875924,35.208481],[-80.872411,35.215184],[-80.871782,35.217783],[-80.870973,35.219225],[-80.865533,35.224385],[-80.863044,35.224643],[-80.858322,35.224436],[-80.85665,35.223993],[-80.854252,35.221945],[-80.853379,35.220379],[-80.850552,35.217675],[-80.848798,35.218697],[-80.844629,35.219973],[-80.837451,35.213949],[-80.833939,35.213349],[-80.832479,35.216475],[-80.832205,35.218087],[-80.829431,35.219864],[-80.828976,35.219537],[-80.829606,35.21936],[-80.829776,35.218889],[-80.829624,35.218461],[-80.827533,35.216998],[-80.826478,35.215788],[-80.824264,35.214007],[-80.822099,35.215779],[-80.817883,35.212226],[-80.815093,35.215543],[-80.814493,35.213843],[-80.811266,35.209341],[-80.812159,35.208713],[-80.809975,35.207554],[-80.807992,35.205187],[-80.809331,35.204476],[-80.811551,35.202198],[-80.812514,35.199656],[-80.811227,35.19849],[-80.810607,35.19715],[-80.811054,35.192924],[-80.810874,35.190623],[-80.807097,35.190365],[-80.801596,35.191037],[-80.800989,35.189383],[-80.79836,35.190029],[-80.797101,35.190665],[-80.796519,35.19045],[-80.793677,35.191093],[-80.793822,35.19058],[-80.793344,35.189139],[-80.791773,35.186028],[-80.793105,35.185563],[-80.790135,35.179039],[-80.794054,35.177123],[-80.798232,35.175937],[-80.795943,35.170017],[-80.796959,35.169537],[-80.798965,35.169273],[-80.803807,35.16691],[-80.799045,35.158842],[-80.796239,35.156083],[-80.79497,35.154443],[-80.797349,35.151908],[-80.802371,35.148708],[-80.804472,35.148025],[-80.82267,35.146333],[-80.824524,35.146577],[-80.830893,35.148421],[-80.833735,35.142769],[-80.83597,35.140798],[-80.837013,35.140348],[-80.838489,35.138422],[-80.838945,35.137316],[-80.839156,35.133783],[-80.838123,35.130909],[-80.837385,35.129852],[-80.834043,35.126315],[-80.830955,35.120018],[-80.834487,35.118746],[-80.838444,35.118383],[-80.842836,35.119066],[-80.845519,35.119935],[-80.846694,35.120039],[-80.848074,35.119678],[-80.849911,35.118271],[-80.851423,35.117666],[-80.852875,35.117639],[-80.855558,35.118146],[-80.858393,35.109159],[-80.858381,35.10817],[-80.857405,35.105983],[-80.857343,35.105028],[-80.859687,35.097319],[-80.859963,35.097451],[-80.861062,35.097115],[-80.863288,35.097026],[-80.864693,35.097379],[-80.865327,35.096448],[-80.866828,35.096886],[-80.867147,35.096101],[-80.868527,35.095492],[-80.869976,35.096296],[-80.87339,35.096636],[-80.87637,35.096242],[-80.877444,35.098263],[-80.877662,35.096312],[-80.878242,35.095307],[-80.878652,35.093912],[-80.879531,35.092704],[-80.884001,35.094259],[-80.886505,35.088681],[-80.886684,35.087855],[-80.886782,35.085333],[-80.885245,35.079466],[-80.887079,35.078877],[-80.887424,35.078011],[-80.887136,35.077655],[-80.885441,35.077262],[-80.884881,35.076828],[-80.884785,35.076371],[-80.885523,35.075272],[-80.886663,35.074771],[-80.887017,35.074914],[-80.887345,35.075904],[-80.887696,35.076251],[-80.890764,35.076628],[-80.892227,35.075873],[-80.892152,35.074045],[-80.893262,35.073712],[-80.893642,35.073117],[-80.892896,35.072434],[-80.892329,35.072996],[-80.891813,35.073144],[-80.890044,35.072989],[-80.889954,35.071442],[-80.888501,35.069926],[-80.888002,35.068823],[-80.888138,35.068025],[-80.88877,35.067275],[-80.889794,35.067627],[-80.88992,35.068674],[-80.890209,35.068972],[-80.89192,35.069164],[-80.893046,35.068841],[-80.894003,35.070592],[-80.895263,35.070819],[-80.897214,35.070676],[-80.897414,35.069638],[-80.897257,35.068753],[-80.896364,35.067513],[-80.895624,35.067054],[-80.895648,35.066822],[-80.896521,35.06655],[-80.896853,35.067289],[-80.897634,35.067651],[-80.898167,35.067633],[-80.907836,35.077826],[-80.92717,35.100257],[-80.934739,35.107318],[-80.961935,35.090443],[-81.018976,35.057632],[-81.02486,35.054185],[-81.029272,35.051275],[-81.041496,35.044713],[-81.050923,35.056709],[-81.057672,35.061867],[-81.058137,35.06339],[-81.058199,35.065098]]]}},{"type":"Feature","properties":{"district":"40","centroid_lon":-80.683816,"centroid_lat":35.21833,"sf1_2000_vap_flow":108876.0,"charlotte_2000_share_pct":69.66,"north_towns_2000_share_pct":0.0,"south_suburbs_2000_share_pct":15.51,"remainder_2000_share_pct":14.82,"top_2000_places":"Charlotte:69.7%; Remainder/unincorporated:14.8%; Mint Hill:10.4%; Matthews:5.1%","senate_2002_margin_pct":-7.31,"senate_2002_winner":"DEM","president_2004_margin_pct":-13.56,"president_2004_winner":"DEM","governor_2004_margin_pct":-28.04,"governor_2004_winner":"DEM"},"geometry":{"type":"Polygon","coordinates":[[[-80.7812,35.247848],[-80.781027,35.249517],[-80.779822,35.254562],[-80.779324,35.255549],[-80.777496,35.257765],[-80.777246,35.258627],[-80.777328,35.259638],[-80.771497,35.263347],[-80.770179,35.264571],[-80.769108,35.266],[-80.768298,35.267727],[-80.765574,35.280623],[-80.764646,35.28236],[-80.763197,35.284302],[-80.75765,35.289514],[-80.756583,35.2908],[-80.753863,35.299429],[-80.748811,35.307167],[-80.721636,35.333139],[-80.719612,35.334185],[-80.716607,35.335134],[-80.709539,35.33659],[-80.70804,35.33709],[-80.693654,35.346734],[-80.693061,35.346379],[-80.683071,35.315796],[-80.681165,35.310837],[-80.678117,35.301195],[-80.670317,35.278231],[-80.670104,35.275746],[-80.668494,35.273854],[-80.667851,35.272117],[-80.66724,35.269119],[-80.66648,35.267934],[-80.627595,35.248508],[-80.550349,35.208412],[-80.648039,35.129846],[-80.681398,35.103409],[-80.707138,35.127608],[-80.731288,35.155032],[-80.740273,35.163452],[-80.745369,35.171301],[-80.768302,35.197104],[-80.770147,35.198801],[-80.767972,35.199021],[-80.760584,35.201723],[-80.759765,35.204695],[-80.758174,35.206729],[-80.754496,35.217414],[-80.752878,35.21954],[-80.757094,35.223238],[-80.760644,35.225128],[-80.762491,35.226638],[-80.763431,35.226823],[-80.76404,35.226687],[-80.766918,35.224252],[-80.767069,35.224377],[-80.767386,35.225113],[-80.769386,35.226903],[-80.770342,35.228736],[-80.770894,35.23098],[-80.771216,35.23121],[-80.772462,35.231275],[-80.773971,35.23188],[-80.773742,35.232306],[-80.774072,35.23267],[-80.773984,35.233589],[-80.774516,35.233448],[-80.774624,35.234656],[-80.775587,35.236676],[-80.77913,35.241279],[-80.780048,35.242848],[-80.781,35.245765],[-80.7812,35.247848]]]}},{"type":"Feature","properties":{"district":"41","centroid_lon":-80.893551,"centroid_lat":35.338477,"sf1_2000_vap_flow":85449.24,"charlotte_2000_share_pct":55.69,"north_towns_2000_share_pct":27.28,"south_suburbs_2000_share_pct":0.0,"remainder_2000_share_pct":17.03,"top_2000_places":"Charlotte:55.7%; Huntersville:17.4%; Remainder/unincorporated:17.0%; Davidson:6.6%","senate_2002_margin_pct":-13.26,"senate_2002_winner":"DEM","president_2004_margin_pct":-11.99,"president_2004_winner":"DEM","governor_2004_margin_pct":-27.27,"governor_2004_winner":"DEM"},"geometry":{"type":"Polygon","coordinates":[[[-81.015011,35.268939],[-81.014896,35.26979],[-81.013002,35.274657],[-81.011156,35.278053],[-81.008996,35.281043],[-81.007941,35.284164],[-81.006643,35.291326],[-81.005771,35.293454],[-81.004648,35.295327],[-81.003862,35.297916],[-81.001828,35.301235],[-81.001544,35.303928],[-81.001161,35.304928],[-80.999994,35.306209],[-80.997249,35.307757],[-80.995387,35.309472],[-80.994067,35.31152],[-80.992004,35.316643],[-80.990164,35.319551],[-80.988929,35.321006],[-80.985748,35.322923],[-80.984315,35.324085],[-80.981813,35.326969],[-80.980944,35.328822],[-80.980845,35.330549],[-80.981304,35.332273],[-80.982702,35.334722],[-80.984995,35.336605],[-80.985302,35.337217],[-80.985315,35.338938],[-80.984894,35.340059],[-80.984252,35.34091],[-80.981919,35.342485],[-80.976876,35.343896],[-80.975112,35.344709],[-80.973953,35.346152],[-80.973002,35.349879],[-80.971864,35.350843],[-80.970621,35.351323],[-80.968864,35.351372],[-80.967088,35.350794],[-80.966047,35.350031],[-80.963551,35.347399],[-80.962141,35.347046],[-80.961433,35.347298],[-80.958355,35.349526],[-80.954555,35.350676],[-80.952042,35.350971],[-80.944592,35.350508],[-80.942924,35.350748],[-80.942114,35.351123],[-80.937215,35.355081],[-80.934199,35.356934],[-80.931644,35.357757],[-80.92867,35.357504],[-80.926473,35.357879],[-80.924141,35.3588],[-80.923042,35.359917],[-80.923062,35.360648],[-80.923732,35.361287],[-80.926883,35.362521],[-80.929423,35.362993],[-80.931532,35.363108],[-80.935877,35.36211],[-80.9384,35.362948],[-80.942325,35.365169],[-80.947015,35.365846],[-80.951058,35.367004],[-80.954929,35.369808],[-80.955391,35.370438],[-80.956188,35.372769],[-80.957704,35.374587],[-80.958278,35.374984],[-80.960161,35.375413],[-80.962555,35.375284],[-80.964773,35.373523],[-80.965724,35.372042],[-80.96733,35.368553],[-80.968859,35.367065],[-80.9736,35.36402],[-80.975035,35.363922],[-80.976447,35.36416],[-80.979617,35.365219],[-80.98218,35.366639],[-80.9837,35.368351],[-80.984757,35.370104],[-80.986784,35.37569],[-80.986835,35.379014],[-80.986136,35.380582],[-80.98498,35.381469],[-80.983753,35.381846],[-80.979739,35.381614],[-80.977533,35.382098],[-80.975002,35.383313],[-80.967972,35.387566],[-80.965013,35.388699],[-80.959037,35.3904],[-80.95684,35.391458],[-80.954811,35.39381],[-80.954362,35.396185],[-80.954439,35.398805],[-80.955708,35.401623],[-80.954807,35.401681],[-80.953932,35.400722],[-80.9533,35.401166],[-80.95353,35.401722],[-80.953158,35.401932],[-80.951601,35.401384],[-80.95108,35.400802],[-80.949935,35.400535],[-80.949267,35.400683],[-80.948557,35.401613],[-80.9479,35.40184],[-80.947029,35.403177],[-80.945971,35.403733],[-80.946136,35.404127],[-80.945848,35.404366],[-80.945786,35.405294],[-80.945081,35.405374],[-80.944632,35.405061],[-80.943899,35.404972],[-80.942453,35.406118],[-80.941612,35.406405],[-80.941631,35.406692],[-80.940976,35.406771],[-80.940307,35.407418],[-80.939735,35.407514],[-80.938175,35.408486],[-80.937613,35.409735],[-80.936367,35.410487],[-80.934108,35.415413],[-80.932403,35.41523],[-80.930573,35.413556],[-80.929858,35.412368],[-80.928428,35.41142],[-80.925819,35.4103],[-80.926493,35.408628],[-80.92652,35.408016],[-80.924214,35.401151],[-80.913798,35.402103],[-80.911469,35.404672],[-80.90761,35.404953],[-80.906755,35.40538],[-80.90605,35.406032],[-80.904138,35.408878],[-80.903206,35.40944],[-80.901327,35.408716],[-80.900881,35.407614],[-80.899923,35.407009],[-80.896942,35.406522],[-80.892661,35.407086],[-80.890868,35.407014],[-80.889643,35.407817],[-80.888228,35.409175],[-80.886104,35.418783],[-80.886262,35.41983],[-80.886677,35.42064],[-80.889104,35.4237],[-80.889162,35.424769],[-80.888614,35.426646],[-80.885356,35.43035],[-80.885221,35.434425],[-80.880619,35.439893],[-80.879467,35.440467],[-80.879132,35.441182],[-80.878586,35.441307],[-80.878374,35.441922],[-80.877198,35.442698],[-80.875883,35.442956],[-80.869418,35.442486],[-80.86961,35.446066],[-80.870428,35.449961],[-80.871922,35.453911],[-80.875098,35.460083],[-80.875923,35.46373],[-80.875056,35.474622],[-80.874803,35.485743],[-80.874564,35.486624],[-80.869396,35.497042],[-80.874058,35.499846],[-80.874373,35.512524],[-80.784167,35.506017],[-80.785692,35.503085],[-80.787069,35.496875],[-80.786835,35.49307],[-80.785459,35.490837],[-80.783762,35.487574],[-80.783661,35.48695],[-80.781895,35.483819],[-80.781332,35.479658],[-80.779488,35.474922],[-80.779629,35.473218],[-80.779331,35.472012],[-80.775449,35.466699],[-80.775207,35.466285],[-80.775289,35.465929],[-80.774485,35.464399],[-80.773384,35.463148],[-80.773314,35.460958],[-80.77301,35.46044],[-80.773224,35.460036],[-80.772974,35.457679],[-80.752167,35.41405],[-80.763549,35.412099],[-80.766414,35.401478],[-80.764295,35.400203],[-80.769404,35.397349],[-80.774385,35.392752],[-80.77943,35.390429],[-80.78478,35.386228],[-80.789047,35.382334],[-80.794389,35.380414],[-80.803879,35.374004],[-80.813756,35.368533],[-80.815926,35.367751],[-80.815812,35.36682],[-80.816143,35.366066],[-80.818055,35.365082],[-80.819722,35.363869],[-80.821086,35.360301],[-80.822701,35.358388],[-80.822399,35.355769],[-80.824381,35.342281],[-80.824174,35.338887],[-80.833566,35.339022],[-80.839702,35.337453],[-80.844898,35.334468],[-80.848754,35.333844],[-80.84767,35.312522],[-80.848268,35.308201],[-80.851298,35.294863],[-80.851447,35.292162],[-80.851198,35.29015],[-80.850583,35.288021],[-80.844943,35.275292],[-80.844709,35.272941],[-80.854187,35.271141],[-80.853938,35.266766],[-80.855092,35.261003],[-80.856483,35.249544],[-80.85434,35.247253],[-80.854285,35.246961],[-80.854534,35.246728],[-80.852215,35.243275],[-80.853101,35.242796],[-80.853883,35.241339],[-80.85815,35.241392],[-80.858713,35.241733],[-80.85845,35.240265],[-80.858897,35.237741],[-80.858708,35.23709],[-80.861482,35.236923],[-80.861467,35.236523],[-80.866703,35.229973],[-80.867143,35.226845],[-80.868275,35.225024],[-80.868296,35.223996],[-80.867291,35.224387],[-80.865533,35.224385],[-80.871222,35.218889],[-80.871782,35.217783],[-80.872411,35.215184],[-80.875924,35.208481],[-80.880183,35.202936],[-80.880742,35.203932],[-80.880972,35.205761],[-80.882246,35.206539],[-80.885346,35.206438],[-80.886467,35.207077],[-80.886878,35.207631],[-80.889295,35.208227],[-80.890473,35.207493],[-80.892399,35.205314],[-80.893963,35.204509],[-80.895274,35.20295],[-80.896395,35.202217],[-80.897706,35.200628],[-80.904255,35.19816],[-80.906356,35.196809],[-80.907462,35.195715],[-80.907994,35.195064],[-80.90836,35.194024],[-80.909914,35.193419],[-80.910384,35.19377],[-80.911854,35.19342],[-80.913903,35.193672],[-80.914977,35.193364],[-80.915466,35.194247],[-80.916118,35.194414],[-80.91716,35.195569],[-80.920958,35.190828],[-80.921576,35.189703],[-80.924103,35.190218],[-80.927953,35.189578],[-80.928887,35.189705],[-80.933317,35.193883],[-80.934524,35.193481],[-80.941819,35.193268],[-80.944904,35.192695],[-80.947192,35.19258],[-80.949613,35.191665],[-80.957967,35.189614],[-80.95921,35.18603],[-80.958253,35.184308],[-80.95644,35.182645],[-80.956859,35.179635],[-80.959144,35.173234],[-80.961532,35.171361],[-80.962888,35.172398],[-80.963908,35.172786],[-80.966841,35.171991],[-80.970741,35.171989],[-80.973189,35.171729],[-80.974511,35.171341],[-80.975469,35.172104],[-80.978957,35.173129],[-80.981087,35.173234],[-80.984998,35.172535],[-80.986347,35.172779],[-80.987635,35.173603],[-80.989813,35.174013],[-80.99068,35.174477],[-80.990913,35.174264],[-80.991877,35.174664],[-80.99323,35.174009],[-80.994726,35.17406],[-80.99603,35.173148],[-80.9983,35.173371],[-80.999798,35.173039],[-81.003185,35.173182],[-81.002387,35.180817],[-81.00244,35.182065],[-81.003014,35.185069],[-81.0039,35.187033],[-81.00614,35.195082],[-81.006273,35.198349],[-81.005288,35.207236],[-81.005347,35.208286],[-81.005916,35.209655],[-81.007321,35.211799],[-81.010387,35.214983],[-81.013678,35.220948],[-81.014186,35.222366],[-81.014104,35.225219],[-81.012459,35.231474],[-81.011245,35.23429],[-81.010815,35.235964],[-81.010631,35.240647],[-81.010207,35.243198],[-81.008543,35.247198],[-81.008234,35.248473],[-81.008868,35.250706],[-81.011206,35.2523],[-81.011788,35.253928],[-81.01395,35.258002],[-81.014217,35.259189],[-81.015011,35.268939]]]}},{"type":"Feature","properties":{"district":"42","centroid_lon":-80.791899,"centroid_lat":35.093297,"sf1_2000_vap_flow":109557.13,"charlotte_2000_share_pct":83.88,"north_towns_2000_share_pct":0.0,"south_suburbs_2000_share_pct":10.35,"remainder_2000_share_pct":5.76,"top_2000_places":"Charlotte:83.9%; Matthews:9.2%; Remainder/unincorporated:5.8%; Pineville:1.2%","senate_2002_margin_pct":31.76,"senate_2002_winner":"REP","president_2004_margin_pct":25.1,"president_2004_winner":"REP","governor_2004_margin_pct":7.31,"governor_2004_winner":"REP"},"geometry":{"type":"Polygon","coordinates":[[[-80.898047,35.067657],[-80.896853,35.067289],[-80.896521,35.06655],[-80.895648,35.066822],[-80.895624,35.067054],[-80.896364,35.067513],[-80.897257,35.068753],[-80.897414,35.069638],[-80.897214,35.070676],[-80.895467,35.070812],[-80.89403,35.070614],[-80.893046,35.068841],[-80.89192,35.069164],[-80.890145,35.068936],[-80.889634,35.067516],[-80.88877,35.067275],[-80.888138,35.068025],[-80.888002,35.068823],[-80.888501,35.069926],[-80.889629,35.070929],[-80.89005,35.071663],[-80.890044,35.072989],[-80.891813,35.073144],[-80.892329,35.072996],[-80.892896,35.072434],[-80.893642,35.073117],[-80.893262,35.073712],[-80.892152,35.074045],[-80.892227,35.075873],[-80.890764,35.076628],[-80.887696,35.076251],[-80.887345,35.075904],[-80.887017,35.074914],[-80.886663,35.074771],[-80.885523,35.075272],[-80.884785,35.076371],[-80.884881,35.076828],[-80.885441,35.077262],[-80.887136,35.077655],[-80.887424,35.078011],[-80.887079,35.078877],[-80.885245,35.079466],[-80.886782,35.085333],[-80.886684,35.087855],[-80.886505,35.088681],[-80.884001,35.094259],[-80.879531,35.092704],[-80.878652,35.093912],[-80.878242,35.095307],[-80.877662,35.096312],[-80.877444,35.098263],[-80.87637,35.096242],[-80.87339,35.096636],[-80.869976,35.096296],[-80.868527,35.095492],[-80.867147,35.096101],[-80.866828,35.096886],[-80.865327,35.096448],[-80.864693,35.097379],[-80.863288,35.097026],[-80.861062,35.097115],[-80.859963,35.097451],[-80.859687,35.097319],[-80.857343,35.105028],[-80.857405,35.105983],[-80.858381,35.10817],[-80.858393,35.109159],[-80.855558,35.118146],[-80.852875,35.117639],[-80.851423,35.117666],[-80.849911,35.118271],[-80.848074,35.119678],[-80.846694,35.120039],[-80.845519,35.119935],[-80.842836,35.119066],[-80.838444,35.118383],[-80.834487,35.118746],[-80.830955,35.120018],[-80.834043,35.126315],[-80.837385,35.129852],[-80.838123,35.130909],[-80.839156,35.133783],[-80.838945,35.137316],[-80.838489,35.138422],[-80.837013,35.140348],[-80.83597,35.140798],[-80.833735,35.142769],[-80.830893,35.148421],[-80.824524,35.146577],[-80.82267,35.146333],[-80.804472,35.148025],[-80.801921,35.148963],[-80.797349,35.151908],[-80.79497,35.154443],[-80.796239,35.156083],[-80.799045,35.158842],[-80.803807,35.16691],[-80.798965,35.169273],[-80.796959,35.169537],[-80.795943,35.170017],[-80.798232,35.175937],[-80.794247,35.177052],[-80.790809,35.178794],[-80.789077,35.179197],[-80.787984,35.17914],[-80.786025,35.178588],[-80.783185,35.17699],[-80.781914,35.177006],[-80.777186,35.180476],[-80.776402,35.182152],[-80.769655,35.177386],[-80.762231,35.183836],[-80.760373,35.184232],[-80.756477,35.183762],[-80.745369,35.171301],[-80.740273,35.163452],[-80.731288,35.155032],[-80.707138,35.127608],[-80.681398,35.103409],[-80.700995,35.087602],[-80.714856,35.076816],[-80.747375,35.05159],[-80.769933,35.034531],[-80.773162,35.032949],[-80.776664,35.03307],[-80.778663,35.032362],[-80.780741,35.033258],[-80.782224,35.033072],[-80.78993,35.031177],[-80.790224,35.030726],[-80.791755,35.030056],[-80.796894,35.029831],[-80.800803,35.027842],[-80.8022,35.028001],[-80.804506,35.027749],[-80.805094,35.027364],[-80.805562,35.025985],[-80.806371,35.025061],[-80.808194,35.023791],[-80.80911,35.022796],[-80.810867,35.021999],[-80.81161,35.020928],[-80.812558,35.020559],[-80.814349,35.020614],[-80.815686,35.019465],[-80.817991,35.018712],[-80.818886,35.018135],[-80.82101,35.017326],[-80.821705,35.016419],[-80.82232,35.016139],[-80.822206,35.01465],[-80.822814,35.014539],[-80.822961,35.014017],[-80.825059,35.011972],[-80.830102,35.00946],[-80.830771,35.008795],[-80.830717,35.008311],[-80.831078,35.007827],[-80.833984,35.007486],[-80.835426,35.006524],[-80.836422,35.006149],[-80.83727,35.005105],[-80.838018,35.005027],[-80.839895,35.002801],[-80.840278,35.001692],[-80.854825,35.018937],[-80.864343,35.029634],[-80.88529,35.053957],[-80.893219,35.062737],[-80.898047,35.067657]]]}}],"county_boundary":{"type":"Polygon","coordinates":[[[-80.744436,35.380696],[-80.732757,35.371931],[-80.708878,35.35535],[-80.693061,35.346379],[-80.683071,35.315796],[-80.681165,35.310837],[-80.670317,35.278231],[-80.670104,35.275746],[-80.668494,35.273854],[-80.66724,35.269119],[-80.66648,35.267934],[-80.627595,35.248508],[-80.550349,35.208412],[-80.700995,35.087602],[-80.747375,35.05159],[-80.769933,35.034531],[-80.773162,35.032949],[-80.776664,35.03307],[-80.778663,35.032362],[-80.780741,35.033258],[-80.782224,35.033072],[-80.78993,35.031177],[-80.790224,35.030726],[-80.791755,35.030056],[-80.796894,35.029831],[-80.800803,35.027842],[-80.804506,35.027749],[-80.805094,35.027364],[-80.805562,35.025985],[-80.806371,35.025061],[-80.80911,35.022796],[-80.810867,35.021999],[-80.81161,35.020928],[-80.812558,35.020559],[-80.814349,35.020614],[-80.815686,35.019465],[-80.82101,35.017326],[-80.821705,35.016419],[-80.82232,35.016139],[-80.822206,35.01465],[-80.822814,35.014539],[-80.822961,35.014017],[-80.825059,35.011972],[-80.830102,35.00946],[-80.830771,35.008795],[-80.831078,35.007827],[-80.833984,35.007486],[-80.836422,35.006149],[-80.83727,35.005105],[-80.838018,35.005027],[-80.839895,35.002801],[-80.840278,35.001692],[-80.854825,35.018937],[-80.88529,35.053957],[-80.893219,35.062737],[-80.907836,35.077826],[-80.92717,35.100257],[-80.934739,35.107318],[-80.961935,35.090443],[-81.018976,35.057632],[-81.029272,35.051275],[-81.041496,35.044713],[-81.050923,35.056709],[-81.057672,35.061867],[-81.058207,35.064],[-81.057669,35.070811],[-81.057732,35.07411],[-81.056349,35.081549],[-81.057055,35.084864],[-81.056984,35.086446],[-81.056032,35.088154],[-81.053462,35.091369],[-81.051917,35.096279],[-81.05038,35.098372],[-81.047044,35.100337],[-81.044355,35.101162],[-81.038645,35.101984],[-81.036716,35.102735],[-81.035196,35.103776],[-81.033605,35.105702],[-81.032854,35.107377],[-81.032367,35.109619],[-81.032415,35.112149],[-81.033149,35.114595],[-81.035614,35.118584],[-81.037066,35.122963],[-81.038765,35.125449],[-81.040542,35.127196],[-81.043206,35.12882],[-81.050456,35.131109],[-81.052029,35.132833],[-81.051884,35.134497],[-81.048803,35.141052],[-81.047581,35.145196],[-81.046332,35.146729],[-81.044688,35.147734],[-81.042636,35.148126],[-81.037278,35.1481],[-81.033909,35.14869],[-81.032238,35.148412],[-81.025658,35.148667],[-81.023037,35.149521],[-81.021558,35.150378],[-81.018284,35.153554],[-81.017112,35.154318],[-81.015372,35.154146],[-81.011839,35.152749],[-81.009804,35.153028],[-81.008184,35.153858],[-81.006228,35.156089],[-81.005758,35.157545],[-81.005836,35.160877],[-81.006765,35.162751],[-81.007306,35.165175],[-81.003915,35.170407],[-81.003015,35.174106],[-81.00244,35.182065],[-81.003014,35.185069],[-81.0039,35.187033],[-81.00614,35.195082],[-81.006273,35.198349],[-81.005347,35.208286],[-81.007321,35.211799],[-81.010387,35.214983],[-81.014186,35.222366],[-81.014104,35.225219],[-81.012459,35.231474],[-81.010815,35.235964],[-81.010631,35.240647],[-81.010207,35.243198],[-81.008234,35.248473],[-81.008868,35.250706],[-81.011206,35.2523],[-81.014111,35.258513],[-81.01505,35.268655],[-81.013914,35.272519],[-81.011156,35.278053],[-81.008996,35.281043],[-81.007941,35.284164],[-81.006643,35.291326],[-81.004648,35.295327],[-81.003862,35.297916],[-81.001828,35.301235],[-81.001161,35.304928],[-80.999994,35.306209],[-80.997249,35.307757],[-80.995387,35.309472],[-80.994067,35.31152],[-80.992004,35.316643],[-80.990164,35.319551],[-80.988929,35.321006],[-80.984315,35.324085],[-80.981813,35.326969],[-80.980944,35.328822],[-80.980845,35.330549],[-80.981304,35.332273],[-80.982702,35.334722],[-80.984995,35.336605],[-80.985302,35.337217],[-80.985315,35.338938],[-80.984252,35.34091],[-80.981919,35.342485],[-80.976876,35.343896],[-80.975112,35.344709],[-80.973953,35.346152],[-80.973002,35.349879],[-80.971864,35.350843],[-80.970621,35.351323],[-80.968864,35.351372],[-80.967088,35.350794],[-80.963551,35.347399],[-80.962141,35.347046],[-80.958355,35.349526],[-80.954555,35.350676],[-80.952042,35.350971],[-80.944592,35.350508],[-80.942924,35.350748],[-80.937215,35.355081],[-80.934199,35.356934],[-80.931644,35.357757],[-80.92867,35.357504],[-80.926473,35.357879],[-80.924141,35.3588],[-80.923042,35.359917],[-80.923062,35.360648],[-80.923732,35.361287],[-80.926883,35.362521],[-80.931532,35.363108],[-80.935877,35.36211],[-80.9384,35.362948],[-80.942325,35.365169],[-80.947015,35.365846],[-80.951058,35.367004],[-80.954929,35.369808],[-80.956188,35.372769],[-80.957704,35.374587],[-80.960161,35.375413],[-80.962555,35.375284],[-80.964773,35.373523],[-80.96733,35.368553],[-80.968859,35.367065],[-80.9736,35.36402],[-80.976447,35.36416],[-80.9811,35.365909],[-80.98298,35.367469],[-80.985366,35.371387],[-80.986784,35.37569],[-80.986729,35.379481],[-80.986136,35.380582],[-80.98498,35.381469],[-80.983753,35.381846],[-80.979053,35.381686],[-80.976629,35.382452],[-80.967972,35.387566],[-80.957546,35.391024],[-80.956295,35.391895],[-80.954811,35.39381],[-80.954316,35.396608],[-80.954439,35.398805],[-80.954966,35.40031],[-80.956928,35.403721],[-80.958752,35.411945],[-80.958532,35.413611],[-80.95559,35.418923],[-80.955128,35.421023],[-80.955852,35.425751],[-80.957035,35.428785],[-80.95849,35.431264],[-80.958639,35.432901],[-80.956214,35.437824],[-80.953358,35.440714],[-80.952264,35.444408],[-80.95038,35.447302],[-80.94878,35.448613],[-80.946118,35.449718],[-80.943086,35.452916],[-80.94238,35.455147],[-80.942489,35.457728],[-80.943251,35.459373],[-80.950618,35.465289],[-80.951745,35.468224],[-80.951517,35.470453],[-80.948952,35.476149],[-80.948143,35.480044],[-80.945325,35.483617],[-80.945456,35.484502],[-80.947344,35.488473],[-80.906723,35.514785],[-80.784167,35.506017],[-80.785692,35.503085],[-80.787069,35.496875],[-80.786835,35.49307],[-80.781895,35.483819],[-80.781332,35.479658],[-80.779488,35.474922],[-80.779629,35.473218],[-80.779331,35.472012],[-80.775449,35.466699],[-80.774485,35.464399],[-80.773384,35.463148],[-80.772974,35.457679],[-80.752167,35.41405],[-80.763549,35.412099],[-80.766414,35.401478],[-80.755309,35.394823],[-80.751421,35.388997],[-80.744436,35.380696]]]}}