{"type":"FeatureCollection","features":[{"type":"Feature","properties":{"district":"37","centroid_lon":-80.872711,"centroid_lat":35.481944,"sf1_2000_vap_flow":13835.08,"charlotte_2000_share_pct":0.0,"north_towns_2000_share_pct":86.46,"south_suburbs_2000_share_pct":0.0,"remainder_2000_share_pct":13.54,"top_2000_places":"Cornelius:46.9%; Davidson:39.5%; Remainder/unincorporated:13.5%; Huntersville:0.1%","president_2000_margin_pct":30.38,"president_2000_winner":"REP","governor_2000_margin_pct":17.46,"governor_2000_winner":"REP","senate_2002_margin_pct":28.88,"senate_2002_winner":"REP","president_2004_margin_pct":34.21,"president_2004_winner":"REP","governor_2004_margin_pct":5.56,"governor_2004_winner":"REP"},"geometry":{"type":"Polygon","coordinates":[[[-80.784167,35.506017],[-80.785692,35.503085],[-80.787069,35.496875],[-80.786864,35.493156],[-80.785459,35.490837],[-80.783762,35.487574],[-80.783661,35.48695],[-80.781895,35.483819],[-80.781332,35.479658],[-80.779488,35.474922],[-80.779629,35.473218],[-80.779331,35.472012],[-80.775449,35.466699],[-80.775207,35.466285],[-80.775289,35.465929],[-80.774485,35.464399],[-80.773345,35.46305],[-80.773314,35.460958],[-80.77301,35.46044],[-80.773224,35.460036],[-80.773166,35.458712],[-80.77275,35.45732],[-80.775379,35.456931],[-80.778966,35.458362],[-80.780957,35.4609],[-80.78453,35.4633],[-80.786623,35.464139],[-80.787773,35.464893],[-80.790376,35.467898],[-80.791794,35.466677],[-80.795472,35.464663],[-80.796312,35.463772],[-80.797185,35.463282],[-80.798358,35.463056],[-80.800146,35.462021],[-80.802367,35.46249],[-80.804524,35.461681],[-80.805309,35.46172],[-80.808714,35.463668],[-80.808973,35.464146],[-80.809027,35.465172],[-80.810346,35.464809],[-80.811101,35.46421],[-80.813444,35.465838],[-80.814181,35.466667],[-80.816054,35.464877],[-80.817697,35.467214],[-80.816107,35.468391],[-80.82044,35.471624],[-80.821592,35.470395],[-80.826587,35.472217],[-80.828444,35.470883],[-80.830725,35.475127],[-80.83053,35.479265],[-80.832378,35.478981],[-80.8305,35.484435],[-80.835625,35.484779],[-80.835592,35.485948],[-80.837552,35.485698],[-80.836976,35.488798],[-80.841829,35.485276],[-80.841401,35.483405],[-80.84188,35.483028],[-80.842953,35.484177],[-80.84356,35.48385],[-80.845007,35.485605],[-80.846926,35.486403],[-80.846822,35.488674],[-80.848194,35.488006],[-80.848018,35.487465],[-80.848955,35.487032],[-80.849423,35.48746],[-80.850065,35.489041],[-80.850604,35.488978],[-80.850592,35.490054],[-80.851531,35.489995],[-80.851539,35.490546],[-80.857127,35.490074],[-80.855396,35.494],[-80.85906,35.495048],[-80.860078,35.494937],[-80.860083,35.494678],[-80.860332,35.494688],[-80.860267,35.494918],[-80.863758,35.494521],[-80.864098,35.495096],[-80.865821,35.494571],[-80.8658,35.494247],[-80.866759,35.495349],[-80.869396,35.497042],[-80.874564,35.486624],[-80.874918,35.485047],[-80.875029,35.475211],[-80.875917,35.465652],[-80.875851,35.463112],[-80.874892,35.459584],[-80.871922,35.453911],[-80.870652,35.450675],[-80.872909,35.448073],[-80.87778,35.448745],[-80.878134,35.450174],[-80.881338,35.4487],[-80.887304,35.446752],[-80.893099,35.445587],[-80.893325,35.445949],[-80.89428,35.445134],[-80.894428,35.444616],[-80.896284,35.443921],[-80.900345,35.440519],[-80.906681,35.432645],[-80.908514,35.433518],[-80.90936,35.434665],[-80.910484,35.435165],[-80.913171,35.45408],[-80.915296,35.451131],[-80.923528,35.448894],[-80.930437,35.44796],[-80.933944,35.445437],[-80.935817,35.444788],[-80.938232,35.444775],[-80.940119,35.445214],[-80.944623,35.44718],[-80.949015,35.448475],[-80.946118,35.449718],[-80.943086,35.452916],[-80.94238,35.455147],[-80.942489,35.457728],[-80.943251,35.459373],[-80.944009,35.460138],[-80.948581,35.463412],[-80.950618,35.465289],[-80.951368,35.46671],[-80.951745,35.468224],[-80.951517,35.470453],[-80.948952,35.476149],[-80.948247,35.478714],[-80.948143,35.480044],[-80.947861,35.480698],[-80.945819,35.482798],[-80.945325,35.483617],[-80.945456,35.484502],[-80.947344,35.488473],[-80.906723,35.514785],[-80.839274,35.51013],[-80.784167,35.506017]]]}},{"type":"Feature","properties":{"district":"38","centroid_lon":-80.844131,"centroid_lat":35.377664,"sf1_2000_vap_flow":67521.92,"charlotte_2000_share_pct":49.18,"north_towns_2000_share_pct":30.87,"south_suburbs_2000_share_pct":0.0,"remainder_2000_share_pct":19.96,"top_2000_places":"Charlotte:49.2%; Huntersville:26.5%; Remainder/unincorporated:20.0%; Cornelius:4.1%","president_2000_margin_pct":4.3,"president_2000_winner":"REP","governor_2000_margin_pct":1.78,"governor_2000_winner":"REP","senate_2002_margin_pct":7.69,"senate_2002_winner":"REP","president_2004_margin_pct":5.37,"president_2004_winner":"REP","governor_2004_margin_pct":-11.39,"governor_2004_winner":"DEM"},"geometry":{"type":"Polygon","coordinates":[[[-81.003854,35.297929],[-81.001828,35.301235],[-81.001544,35.303928],[-81.000873,35.305379],[-80.999994,35.306209],[-80.997249,35.307757],[-80.995387,35.309472],[-80.994067,35.31152],[-80.992004,35.316643],[-80.990164,35.319551],[-80.988929,35.321006],[-80.985748,35.322923],[-80.984315,35.324085],[-80.981813,35.326969],[-80.980944,35.328822],[-80.980845,35.330549],[-80.981304,35.332273],[-80.982702,35.334722],[-80.984995,35.336605],[-80.985302,35.337217],[-80.985315,35.338938],[-80.984894,35.340059],[-80.983481,35.341602],[-80.981919,35.342485],[-80.976876,35.343896],[-80.975112,35.344709],[-80.973953,35.346152],[-80.973173,35.349581],[-80.972238,35.350615],[-80.969937,35.351437],[-80.967568,35.35102],[-80.966047,35.350031],[-80.963551,35.347399],[-80.962141,35.347046],[-80.961433,35.347298],[-80.958355,35.349526],[-80.954555,35.350676],[-80.952042,35.350971],[-80.944592,35.350508],[-80.942924,35.350748],[-80.942114,35.351123],[-80.937215,35.355081],[-80.934199,35.356934],[-80.931644,35.357757],[-80.92867,35.357504],[-80.926473,35.357879],[-80.924141,35.3588],[-80.923042,35.359917],[-80.923062,35.360648],[-80.923732,35.361287],[-80.926883,35.362521],[-80.929423,35.362993],[-80.931532,35.363108],[-80.935877,35.36211],[-80.9384,35.362948],[-80.942325,35.365169],[-80.947015,35.365846],[-80.951058,35.367004],[-80.954929,35.369808],[-80.955391,35.370438],[-80.956188,35.372769],[-80.957704,35.374587],[-80.958278,35.374984],[-80.960502,35.37544],[-80.962749,35.375199],[-80.964773,35.373523],[-80.965724,35.372042],[-80.96733,35.368553],[-80.968859,35.367065],[-80.9736,35.36402],[-80.976002,35.364053],[-80.979617,35.365219],[-80.98218,35.366639],[-80.9837,35.368351],[-80.984757,35.370104],[-80.98625,35.37378],[-80.986784,35.37569],[-80.986835,35.379014],[-80.986484,35.38007],[-80.985586,35.381098],[-80.983753,35.381846],[-80.979739,35.381614],[-80.976629,35.382452],[-80.967972,35.387566],[-80.957546,35.391024],[-80.956295,35.391895],[-80.954811,35.39381],[-80.954316,35.396608],[-80.954439,35.398805],[-80.954966,35.40031],[-80.956928,35.403721],[-80.958752,35.411945],[-80.958532,35.413611],[-80.95559,35.418923],[-80.955128,35.421023],[-80.955906,35.425932],[-80.957093,35.428906],[-80.95849,35.431264],[-80.958691,35.432634],[-80.957748,35.43509],[-80.956568,35.43729],[-80.955686,35.438484],[-80.953358,35.440714],[-80.95211,35.444744],[-80.950254,35.447467],[-80.949015,35.448475],[-80.944623,35.44718],[-80.940119,35.445214],[-80.938232,35.444775],[-80.935817,35.444788],[-80.933944,35.445437],[-80.930437,35.44796],[-80.923528,35.448894],[-80.915296,35.451131],[-80.913171,35.45408],[-80.910484,35.435165],[-80.90936,35.434665],[-80.908514,35.433518],[-80.906681,35.432645],[-80.900345,35.440519],[-80.896284,35.443921],[-80.894428,35.444616],[-80.89428,35.445134],[-80.893325,35.445949],[-80.893099,35.445587],[-80.887304,35.446752],[-80.881338,35.4487],[-80.878134,35.450174],[-80.87778,35.448745],[-80.872909,35.448073],[-80.870652,35.450675],[-80.871922,35.453911],[-80.874892,35.459584],[-80.875851,35.463112],[-80.875917,35.465652],[-80.875029,35.475211],[-80.874918,35.485047],[-80.874564,35.486624],[-80.869396,35.497042],[-80.866759,35.495349],[-80.8658,35.494247],[-80.865821,35.494571],[-80.864098,35.495096],[-80.863758,35.494521],[-80.860267,35.494918],[-80.860332,35.494688],[-80.860083,35.494678],[-80.860078,35.494937],[-80.85906,35.495048],[-80.855396,35.494],[-80.857127,35.490074],[-80.851539,35.490546],[-80.851531,35.489995],[-80.850592,35.490054],[-80.850604,35.488978],[-80.850065,35.489041],[-80.849423,35.48746],[-80.848955,35.487032],[-80.848018,35.487465],[-80.848194,35.488006],[-80.846822,35.488674],[-80.846926,35.486403],[-80.845007,35.485605],[-80.84356,35.48385],[-80.842953,35.484177],[-80.84188,35.483028],[-80.841401,35.483405],[-80.841829,35.485276],[-80.836976,35.488798],[-80.837552,35.485698],[-80.835592,35.485948],[-80.835625,35.484779],[-80.8305,35.484435],[-80.832378,35.478981],[-80.83053,35.479265],[-80.830725,35.475127],[-80.828444,35.470883],[-80.826587,35.472217],[-80.821592,35.470395],[-80.82044,35.471624],[-80.816107,35.468391],[-80.817697,35.467214],[-80.816054,35.464877],[-80.814181,35.466667],[-80.813444,35.465838],[-80.811101,35.46421],[-80.810346,35.464809],[-80.809027,35.465172],[-80.808973,35.464146],[-80.808714,35.463668],[-80.805309,35.46172],[-80.804524,35.461681],[-80.802367,35.46249],[-80.800146,35.462021],[-80.798358,35.463056],[-80.797185,35.463282],[-80.796312,35.463772],[-80.795472,35.464663],[-80.791794,35.466677],[-80.790376,35.467898],[-80.787773,35.464893],[-80.786623,35.464139],[-80.78453,35.4633],[-80.780957,35.4609],[-80.778966,35.458362],[-80.775379,35.456931],[-80.77275,35.45732],[-80.752167,35.41405],[-80.763549,35.412099],[-80.766414,35.401478],[-80.755309,35.394823],[-80.751421,35.388997],[-80.74441,35.380667],[-80.732757,35.371931],[-80.708878,35.35535],[-80.693654,35.346734],[-80.70804,35.33709],[-80.709539,35.33659],[-80.715341,35.335467],[-80.719163,35.334354],[-80.721039,35.333508],[-80.722493,35.332438],[-80.748811,35.307167],[-80.753863,35.299429],[-80.756583,35.2908],[-80.75765,35.289514],[-80.762701,35.284957],[-80.764572,35.284449],[-80.771874,35.284237],[-80.774064,35.283945],[-80.802478,35.276363],[-80.804722,35.276215],[-80.811577,35.276952],[-80.813407,35.276926],[-80.833485,35.272766],[-80.835326,35.272652],[-80.842807,35.273077],[-80.844709,35.272941],[-80.844943,35.275292],[-80.850583,35.288021],[-80.851198,35.29015],[-80.851447,35.292162],[-80.851298,35.294863],[-80.848268,35.308201],[-80.84767,35.312522],[-80.848754,35.333844],[-80.851158,35.333404],[-80.852467,35.332319],[-80.854134,35.331814],[-80.857981,35.33003],[-80.861913,35.329541],[-80.866842,35.325366],[-80.868532,35.327156],[-80.873279,35.331187],[-80.8742,35.333366],[-80.880455,35.333801],[-80.88519,35.333649],[-80.891414,35.331515],[-80.893101,35.329913],[-80.897825,35.32749],[-80.899789,35.325451],[-80.901445,35.324489],[-80.901982,35.322707],[-80.905245,35.326245],[-80.9089,35.327834],[-80.910089,35.328848],[-80.910954,35.33005],[-80.912632,35.33418],[-80.913988,35.335995],[-80.917943,35.335351],[-80.922503,35.335938],[-80.928809,35.334779],[-80.933529,35.335156],[-80.936735,35.333929],[-80.946242,35.324598],[-80.949927,35.322997],[-80.954567,35.318842],[-80.956459,35.317524],[-80.960431,35.315954],[-80.963879,35.315366],[-80.966986,35.312865],[-80.978557,35.307569],[-80.979444,35.306836],[-80.980687,35.304885],[-80.986038,35.302073],[-80.987503,35.300366],[-80.989722,35.298856],[-80.991914,35.298276],[-80.999613,35.298578],[-81.003854,35.297929]]]}},{"type":"Feature","properties":{"district":"39","centroid_lon":-80.936376,"centroid_lat":35.139735,"sf1_2000_vap_flow":94301.48,"charlotte_2000_share_pct":82.87,"north_towns_2000_share_pct":0.0,"south_suburbs_2000_share_pct":3.01,"remainder_2000_share_pct":14.12,"top_2000_places":"Charlotte:82.9%; Remainder/unincorporated:14.1%; Pineville:3.0%","president_2000_margin_pct":2.79,"president_2000_winner":"REP","governor_2000_margin_pct":4.17,"governor_2000_winner":"REP","senate_2002_margin_pct":-2.22,"senate_2002_winner":"DEM","president_2004_margin_pct":-6.14,"president_2004_winner":"DEM","governor_2004_margin_pct":-21.06,"governor_2004_winner":"DEM"},"geometry":{"type":"Polygon","coordinates":[[[-81.058199,35.065098],[-81.057669,35.070811],[-81.057581,35.075815],[-81.056349,35.081549],[-81.057055,35.084864],[-81.056984,35.086446],[-81.056032,35.088154],[-81.053462,35.091369],[-81.052245,35.095478],[-81.05155,35.096981],[-81.049539,35.099013],[-81.047044,35.100337],[-81.044355,35.101162],[-81.038645,35.101984],[-81.036069,35.103151],[-81.035196,35.103776],[-81.033605,35.105702],[-81.032854,35.107377],[-81.032367,35.109619],[-81.032415,35.112149],[-81.032792,35.113788],[-81.035329,35.117937],[-81.037066,35.122963],[-81.038765,35.125449],[-81.040542,35.127196],[-81.042125,35.128253],[-81.045715,35.12979],[-81.050456,35.131109],[-81.051399,35.131848],[-81.052029,35.132833],[-81.051884,35.134497],[-81.048803,35.141052],[-81.048111,35.144102],[-81.047581,35.145196],[-81.046332,35.146729],[-81.044688,35.147734],[-81.043586,35.148006],[-81.037278,35.1481],[-81.033909,35.14869],[-81.032238,35.148412],[-81.027146,35.148535],[-81.024721,35.148877],[-81.023037,35.149521],[-81.02115,35.150664],[-81.018284,35.153554],[-81.017112,35.154318],[-81.015372,35.154146],[-81.0121,35.152776],[-81.009804,35.153028],[-81.008733,35.153501],[-81.007467,35.154506],[-81.006228,35.156089],[-81.005806,35.157023],[-81.005836,35.160877],[-81.006765,35.162751],[-81.007306,35.165175],[-81.003915,35.170407],[-81.003412,35.171951],[-81.002387,35.180817],[-81.003014,35.185069],[-81.0039,35.187033],[-81.00614,35.195082],[-81.006273,35.198349],[-81.005274,35.207796],[-81.005916,35.209655],[-81.007321,35.211799],[-81.010387,35.214983],[-81.013959,35.221498],[-81.014286,35.223532],[-81.014165,35.224966],[-81.012459,35.231474],[-81.011245,35.23429],[-81.010815,35.235964],[-81.010383,35.242327],[-81.009142,35.245772],[-81.004877,35.244713],[-81.003104,35.243824],[-81.00086,35.242251],[-80.998603,35.241545],[-80.98508,35.241845],[-80.960642,35.238054],[-80.959305,35.237603],[-80.959007,35.233499],[-80.959322,35.232909],[-80.958691,35.233244],[-80.956243,35.233692],[-80.952755,35.233181],[-80.945799,35.228354],[-80.926044,35.225034],[-80.923499,35.225057],[-80.915894,35.225841],[-80.908794,35.222741],[-80.899661,35.222341],[-80.900238,35.221833],[-80.903036,35.220584],[-80.903624,35.220027],[-80.905696,35.21601],[-80.905905,35.214428],[-80.907987,35.210832],[-80.908152,35.210192],[-80.901294,35.211407],[-80.89759,35.211575],[-80.896998,35.207048],[-80.893625,35.207325],[-80.893713,35.205726],[-80.893499,35.204738],[-80.892399,35.205314],[-80.890473,35.207493],[-80.889295,35.208227],[-80.886878,35.207631],[-80.886467,35.207077],[-80.885346,35.206438],[-80.882246,35.206539],[-80.880972,35.205761],[-80.880742,35.203932],[-80.880183,35.202936],[-80.882631,35.19781],[-80.873238,35.194438],[-80.870319,35.196624],[-80.867725,35.198995],[-80.864937,35.202897],[-80.860506,35.207497],[-80.859788,35.209858],[-80.855071,35.214158],[-80.849634,35.218285],[-80.844629,35.219973],[-80.837451,35.213949],[-80.833939,35.213349],[-80.834338,35.2122],[-80.835663,35.211082],[-80.836052,35.210302],[-80.835795,35.208184],[-80.836138,35.206133],[-80.835843,35.204478],[-80.836915,35.194899],[-80.837754,35.195635],[-80.838598,35.194997],[-80.838552,35.192723],[-80.841444,35.187793],[-80.841875,35.185404],[-80.841349,35.183093],[-80.844286,35.182232],[-80.844842,35.18155],[-80.843258,35.180744],[-80.84122,35.180877],[-80.839681,35.179921],[-80.836974,35.179377],[-80.836478,35.18119],[-80.834724,35.18112],[-80.833852,35.18133],[-80.832775,35.182217],[-80.830018,35.180186],[-80.82925,35.180205],[-80.828113,35.177995],[-80.827715,35.176107],[-80.822944,35.171885],[-80.822438,35.169969],[-80.822473,35.168205],[-80.827711,35.167201],[-80.82999,35.166316],[-80.830706,35.168615],[-80.832148,35.168359],[-80.833943,35.169257],[-80.836425,35.169086],[-80.835713,35.167878],[-80.836554,35.166773],[-80.836256,35.166198],[-80.835626,35.165701],[-80.836046,35.165199],[-80.836714,35.162863],[-80.838635,35.160474],[-80.838856,35.158862],[-80.838645,35.158019],[-80.840865,35.157893],[-80.842888,35.156688],[-80.846865,35.15567],[-80.84829,35.155521],[-80.848407,35.154496],[-80.848144,35.153673],[-80.847452,35.152951],[-80.84628,35.152422],[-80.840203,35.151214],[-80.837221,35.150909],[-80.831953,35.14873],[-80.823297,35.146361],[-80.804472,35.148025],[-80.802069,35.148874],[-80.801384,35.1441],[-80.801822,35.140843],[-80.803283,35.138429],[-80.805314,35.136774],[-80.806815,35.133955],[-80.809177,35.132571],[-80.809696,35.13321],[-80.812573,35.135267],[-80.818453,35.137742],[-80.81907,35.138757],[-80.819164,35.140857],[-80.820044,35.140988],[-80.820669,35.13977],[-80.820402,35.139411],[-80.820596,35.138708],[-80.820064,35.137799],[-80.820882,35.137269],[-80.821317,35.136195],[-80.820799,35.135241],[-80.821405,35.134969],[-80.822339,35.135359],[-80.82303,35.135359],[-80.823864,35.134445],[-80.823354,35.133519],[-80.82334,35.131557],[-80.823033,35.131295],[-80.822323,35.131432],[-80.821065,35.130955],[-80.820776,35.130317],[-80.823292,35.127167],[-80.826052,35.125852],[-80.827557,35.124184],[-80.827559,35.123321],[-80.827223,35.122753],[-80.828241,35.119528],[-80.828879,35.11851],[-80.828721,35.117201],[-80.830452,35.119011],[-80.834226,35.12659],[-80.837908,35.13055],[-80.839061,35.133119],[-80.83913,35.134415],[-80.840632,35.134674],[-80.844508,35.136799],[-80.846018,35.137184],[-80.845864,35.138007],[-80.847191,35.138067],[-80.846994,35.139282],[-80.848228,35.140028],[-80.847354,35.140641],[-80.845498,35.144112],[-80.848058,35.144953],[-80.852424,35.145775],[-80.855718,35.148216],[-80.857795,35.148011],[-80.857628,35.14708],[-80.859135,35.146585],[-80.859607,35.143926],[-80.860158,35.142872],[-80.860317,35.141091],[-80.861023,35.139663],[-80.862828,35.138267],[-80.86447,35.135844],[-80.864604,35.132611],[-80.865102,35.131737],[-80.864851,35.131216],[-80.864907,35.130493],[-80.864283,35.129237],[-80.864141,35.127589],[-80.864972,35.126733],[-80.866378,35.123881],[-80.86698,35.12327],[-80.867061,35.121623],[-80.867477,35.12085],[-80.867593,35.119512],[-80.868585,35.117068],[-80.868586,35.115179],[-80.870062,35.112122],[-80.870546,35.11006],[-80.872722,35.108282],[-80.87554,35.10443],[-80.875896,35.103335],[-80.875611,35.102954],[-80.87581,35.102247],[-80.877415,35.098463],[-80.87637,35.096242],[-80.87339,35.096636],[-80.869976,35.096296],[-80.868527,35.095492],[-80.867147,35.096101],[-80.866828,35.096886],[-80.865327,35.096448],[-80.864693,35.097379],[-80.863288,35.097026],[-80.861062,35.097115],[-80.859963,35.097451],[-80.859687,35.097319],[-80.859454,35.096352],[-80.858069,35.093777],[-80.856692,35.092224],[-80.855023,35.091189],[-80.85311,35.088677],[-80.852923,35.087661],[-80.842234,35.087611],[-80.836366,35.086718],[-80.83521,35.08622],[-80.834085,35.085355],[-80.839189,35.080216],[-80.839398,35.079264],[-80.838958,35.077404],[-80.840668,35.074442],[-80.843446,35.073884],[-80.84825,35.071445],[-80.848614,35.069863],[-80.849676,35.069479],[-80.852543,35.069067],[-80.855168,35.066425],[-80.856606,35.066429],[-80.857839,35.065832],[-80.859255,35.064141],[-80.859361,35.063194],[-80.860123,35.062972],[-80.860813,35.06237],[-80.860918,35.062066],[-80.860653,35.061676],[-80.861183,35.061103],[-80.861789,35.061041],[-80.862355,35.060572],[-80.863252,35.060729],[-80.863562,35.060291],[-80.863886,35.060509],[-80.86363,35.06117],[-80.864304,35.062014],[-80.866447,35.062756],[-80.868327,35.062401],[-80.868513,35.062644],[-80.868428,35.063448],[-80.867587,35.064407],[-80.867663,35.06542],[-80.867377,35.065745],[-80.869018,35.066313],[-80.870302,35.066415],[-80.871323,35.06565],[-80.872219,35.065702],[-80.871817,35.064906],[-80.870435,35.063863],[-80.869672,35.062627],[-80.870314,35.061382],[-80.870348,35.060764],[-80.870946,35.060374],[-80.872998,35.060631],[-80.876531,35.059977],[-80.876063,35.058986],[-80.867221,35.049069],[-80.864819,35.043981],[-80.861545,35.040534],[-80.859084,35.040716],[-80.85594,35.041915],[-80.85179,35.04156],[-80.847833,35.042007],[-80.842205,35.040879],[-80.836161,35.036997],[-80.835151,35.036613],[-80.834205,35.036618],[-80.830492,35.03767],[-80.829481,35.037692],[-80.827657,35.037294],[-80.824575,35.034893],[-80.822578,35.031781],[-80.818653,35.028909],[-80.817949,35.027561],[-80.816725,35.02683],[-80.816883,35.026683],[-80.811156,35.02148],[-80.812171,35.020658],[-80.814349,35.020614],[-80.815686,35.019465],[-80.817991,35.018712],[-80.818886,35.018135],[-80.82101,35.017326],[-80.821705,35.016419],[-80.82232,35.016139],[-80.822206,35.01465],[-80.822814,35.014539],[-80.822961,35.014017],[-80.825059,35.011972],[-80.830102,35.00946],[-80.830771,35.008795],[-80.830717,35.008311],[-80.831078,35.007827],[-80.833984,35.007486],[-80.835426,35.006524],[-80.836422,35.006149],[-80.836989,35.005325],[-80.838018,35.005027],[-80.839173,35.003862],[-80.839895,35.002801],[-80.840278,35.001692],[-80.854825,35.018937],[-80.864343,35.029634],[-80.88529,35.053957],[-80.893219,35.062737],[-80.901334,35.070885],[-80.907836,35.077826],[-80.92717,35.100257],[-80.934739,35.107318],[-80.961935,35.090443],[-81.018976,35.057632],[-81.02486,35.054185],[-81.029272,35.051275],[-81.041496,35.044713],[-81.050923,35.056709],[-81.057672,35.061867],[-81.058137,35.06339],[-81.058199,35.065098]]]}},{"type":"Feature","properties":{"district":"40","centroid_lon":-80.719051,"centroid_lat":35.234453,"sf1_2000_vap_flow":118611.73,"charlotte_2000_share_pct":90.42,"north_towns_2000_share_pct":0.0,"south_suburbs_2000_share_pct":0.04,"remainder_2000_share_pct":9.55,"top_2000_places":"Charlotte:90.4%; Remainder/unincorporated:9.5%; Mint Hill:0.0%; Matthews:0.0%","president_2000_margin_pct":-3.39,"president_2000_winner":"DEM","governor_2000_margin_pct":-2.98,"governor_2000_winner":"DEM","senate_2002_margin_pct":-17.62,"senate_2002_winner":"DEM","president_2004_margin_pct":-26.13,"president_2004_winner":"DEM","governor_2004_margin_pct":-38.52,"governor_2004_winner":"DEM"},"geometry":{"type":"Polygon","coordinates":[[[-80.798792,35.146933],[-80.798705,35.148091],[-80.79818,35.149516],[-80.798358,35.15124],[-80.796298,35.152827],[-80.79497,35.154443],[-80.793975,35.153112],[-80.792969,35.15088],[-80.790472,35.147584],[-80.786092,35.142723],[-80.784907,35.140559],[-80.77811,35.143822],[-80.777621,35.144697],[-80.7785,35.147175],[-80.778039,35.150369],[-80.777516,35.150668],[-80.775513,35.150451],[-80.775204,35.151054],[-80.775394,35.151903],[-80.774105,35.152773],[-80.776723,35.158921],[-80.778698,35.16035],[-80.779175,35.161253],[-80.778387,35.161717],[-80.777193,35.163027],[-80.774698,35.164787],[-80.772623,35.167636],[-80.770232,35.169947],[-80.769912,35.170687],[-80.769643,35.173326],[-80.770602,35.175919],[-80.77038,35.17667],[-80.769655,35.177386],[-80.776402,35.182152],[-80.780492,35.185744],[-80.784592,35.191044],[-80.790598,35.194289],[-80.789967,35.195902],[-80.79127,35.196716],[-80.789262,35.198801],[-80.787436,35.200113],[-80.786263,35.201892],[-80.782593,35.209684],[-80.780967,35.213884],[-80.780415,35.220702],[-80.774987,35.228593],[-80.774578,35.229578],[-80.774517,35.233936],[-80.774707,35.234896],[-80.775801,35.237024],[-80.779737,35.242231],[-80.780691,35.244679],[-80.781193,35.246901],[-80.781027,35.249517],[-80.779822,35.254562],[-80.779324,35.255549],[-80.777496,35.257765],[-80.777246,35.258627],[-80.777328,35.259638],[-80.771497,35.263347],[-80.770179,35.264571],[-80.769108,35.266],[-80.768298,35.267727],[-80.765574,35.280623],[-80.764646,35.28236],[-80.763197,35.284302],[-80.75765,35.289514],[-80.756583,35.2908],[-80.75373,35.299704],[-80.748343,35.307691],[-80.721636,35.333139],[-80.719612,35.334185],[-80.716607,35.335134],[-80.709539,35.33659],[-80.70804,35.33709],[-80.693654,35.346734],[-80.693061,35.346379],[-80.683071,35.315796],[-80.681165,35.310837],[-80.678117,35.301195],[-80.670317,35.278231],[-80.670104,35.275746],[-80.668494,35.273854],[-80.667851,35.272117],[-80.66724,35.269119],[-80.66648,35.267934],[-80.627595,35.248508],[-80.599733,35.234105],[-80.605369,35.231528],[-80.610766,35.227371],[-80.615049,35.225266],[-80.616971,35.224595],[-80.624879,35.223147],[-80.636343,35.223714],[-80.641728,35.22292],[-80.643291,35.222465],[-80.656292,35.216573],[-80.661291,35.212902],[-80.663009,35.209882],[-80.663747,35.209295],[-80.664855,35.208984],[-80.670104,35.208392],[-80.670115,35.207994],[-80.671266,35.206994],[-80.670634,35.205849],[-80.671778,35.205324],[-80.671417,35.204836],[-80.672747,35.204235],[-80.677073,35.206498],[-80.677557,35.207494],[-80.681831,35.206736],[-80.683033,35.206145],[-80.683245,35.205527],[-80.683845,35.204959],[-80.686444,35.203165],[-80.682966,35.19988],[-80.688384,35.198935],[-80.692255,35.201252],[-80.692442,35.202117],[-80.694795,35.201122],[-80.694588,35.200578],[-80.696027,35.198761],[-80.698162,35.197656],[-80.698777,35.197673],[-80.698828,35.196808],[-80.699373,35.196172],[-80.703467,35.1935],[-80.704939,35.192922],[-80.708809,35.187078],[-80.710079,35.186643],[-80.710272,35.185813],[-80.711496,35.185256],[-80.711577,35.18496],[-80.712716,35.184102],[-80.712907,35.183595],[-80.713976,35.183466],[-80.707095,35.177195],[-80.706975,35.175245],[-80.708115,35.174551],[-80.706841,35.173344],[-80.710427,35.168329],[-80.715936,35.162911],[-80.717593,35.162017],[-80.716035,35.159704],[-80.716532,35.159457],[-80.715869,35.158186],[-80.720286,35.154757],[-80.71911,35.153849],[-80.719409,35.151083],[-80.716117,35.148035],[-80.719887,35.146808],[-80.719545,35.146381],[-80.722372,35.146024],[-80.721974,35.145378],[-80.72252,35.145089],[-80.720322,35.142582],[-80.722061,35.142639],[-80.723319,35.141671],[-80.727866,35.142004],[-80.727292,35.141094],[-80.731051,35.139034],[-80.72934,35.136657],[-80.736499,35.13399],[-80.736672,35.134327],[-80.740259,35.13282],[-80.740603,35.133478],[-80.742421,35.132734],[-80.743662,35.131548],[-80.743434,35.129591],[-80.742091,35.129088],[-80.742225,35.128857],[-80.74177,35.128595],[-80.742073,35.127266],[-80.743067,35.12748],[-80.742813,35.128059],[-80.743202,35.128239],[-80.744163,35.12769],[-80.748072,35.128482],[-80.748163,35.126107],[-80.749306,35.126219],[-80.749389,35.126035],[-80.751273,35.126988],[-80.754121,35.127304],[-80.76805,35.137351],[-80.774564,35.131464],[-80.778113,35.130571],[-80.77949,35.129233],[-80.782029,35.128008],[-80.782989,35.127091],[-80.783239,35.126169],[-80.78383,35.125305],[-80.784798,35.124667],[-80.78542,35.124572],[-80.787182,35.125561],[-80.788704,35.125062],[-80.78979,35.124422],[-80.790981,35.122207],[-80.791286,35.12256],[-80.791072,35.122967],[-80.792034,35.123567],[-80.792076,35.124473],[-80.792432,35.125407],[-80.791849,35.128033],[-80.791058,35.130124],[-80.791006,35.130968],[-80.790823,35.131435],[-80.79018,35.131922],[-80.790427,35.132895],[-80.789482,35.136541],[-80.789874,35.137958],[-80.789726,35.139043],[-80.789939,35.140368],[-80.791826,35.141447],[-80.7924,35.142143],[-80.79434,35.143615],[-80.795989,35.144085],[-80.797211,35.145875],[-80.798792,35.146933]]]}},{"type":"Feature","properties":{"district":"41","centroid_lon":-80.883646,"centroid_lat":35.258398,"sf1_2000_vap_flow":118196.0,"charlotte_2000_share_pct":95.99,"north_towns_2000_share_pct":0.0,"south_suburbs_2000_share_pct":0.0,"remainder_2000_share_pct":4.01,"top_2000_places":"Charlotte:96.0%; Remainder/unincorporated:4.0%","president_2000_margin_pct":-30.07,"president_2000_winner":"DEM","governor_2000_margin_pct":-30.27,"governor_2000_winner":"DEM","senate_2002_margin_pct":-38.81,"senate_2002_winner":"DEM","president_2004_margin_pct":-41.63,"president_2004_winner":"DEM","governor_2004_margin_pct":-51.73,"governor_2004_winner":"DEM"},"geometry":{"type":"Polygon","coordinates":[[[-81.015011,35.268939],[-81.014896,35.26979],[-81.013002,35.274657],[-81.011156,35.278053],[-81.008996,35.281043],[-81.007941,35.284164],[-81.006643,35.291326],[-81.005771,35.293454],[-81.004648,35.295327],[-81.003854,35.297929],[-80.999613,35.298578],[-80.991914,35.298276],[-80.989722,35.298856],[-80.987503,35.300366],[-80.986038,35.302073],[-80.980687,35.304885],[-80.979444,35.306836],[-80.978557,35.307569],[-80.966986,35.312865],[-80.963879,35.315366],[-80.960431,35.315954],[-80.956303,35.317626],[-80.954567,35.318842],[-80.949927,35.322997],[-80.946242,35.324598],[-80.937071,35.333651],[-80.935713,35.334432],[-80.932996,35.335215],[-80.928809,35.334779],[-80.922503,35.335938],[-80.917943,35.335351],[-80.913988,35.335995],[-80.912632,35.33418],[-80.910954,35.33005],[-80.910089,35.328848],[-80.9089,35.327834],[-80.905245,35.326245],[-80.901982,35.322707],[-80.901445,35.324489],[-80.899789,35.325451],[-80.897825,35.32749],[-80.893101,35.329913],[-80.891414,35.331515],[-80.88519,35.333649],[-80.880455,35.333801],[-80.8742,35.333366],[-80.873279,35.331187],[-80.868532,35.327156],[-80.866842,35.325366],[-80.861913,35.329541],[-80.857981,35.33003],[-80.854134,35.331814],[-80.852467,35.332319],[-80.851158,35.333404],[-80.848754,35.333844],[-80.84767,35.312522],[-80.848268,35.308201],[-80.851298,35.294863],[-80.851447,35.292162],[-80.851198,35.29015],[-80.850583,35.288021],[-80.844943,35.275292],[-80.844709,35.272941],[-80.842807,35.273077],[-80.835326,35.272652],[-80.833485,35.272766],[-80.813407,35.276926],[-80.811577,35.276952],[-80.804722,35.276215],[-80.802775,35.276317],[-80.774064,35.283945],[-80.772239,35.284217],[-80.764112,35.284493],[-80.762297,35.285244],[-80.763999,35.283306],[-80.765574,35.280623],[-80.768298,35.267727],[-80.769108,35.266],[-80.770179,35.264571],[-80.771497,35.263347],[-80.777328,35.259638],[-80.777246,35.258627],[-80.777496,35.257765],[-80.779324,35.255549],[-80.779822,35.254562],[-80.781073,35.249206],[-80.781063,35.246042],[-80.779737,35.242231],[-80.775801,35.237024],[-80.774707,35.234896],[-80.774517,35.233936],[-80.774578,35.229578],[-80.774987,35.228593],[-80.780415,35.220702],[-80.780967,35.213884],[-80.782593,35.209684],[-80.786263,35.201892],[-80.787436,35.200113],[-80.789262,35.198801],[-80.79127,35.196716],[-80.789967,35.195902],[-80.790598,35.194289],[-80.784592,35.191044],[-80.780492,35.185744],[-80.776402,35.182152],[-80.769655,35.177386],[-80.770307,35.17677],[-80.770592,35.176112],[-80.769618,35.173079],[-80.770146,35.170055],[-80.772623,35.167636],[-80.77486,35.164625],[-80.777193,35.163027],[-80.778387,35.161717],[-80.779175,35.161253],[-80.778698,35.16035],[-80.776723,35.158921],[-80.774105,35.152773],[-80.775394,35.151903],[-80.775204,35.151054],[-80.775513,35.150451],[-80.777516,35.150668],[-80.778039,35.150369],[-80.7785,35.147175],[-80.777637,35.145028],[-80.77772,35.144315],[-80.77811,35.143822],[-80.779235,35.143188],[-80.784907,35.140559],[-80.786092,35.142723],[-80.790472,35.147584],[-80.792969,35.15088],[-80.793975,35.153112],[-80.796239,35.156083],[-80.798933,35.158684],[-80.804687,35.168319],[-80.808304,35.171303],[-80.817302,35.177172],[-80.817967,35.177917],[-80.82007,35.182795],[-80.819618,35.182929],[-80.81614,35.186251],[-80.81527,35.188063],[-80.813672,35.192436],[-80.814437,35.192681],[-80.814062,35.194102],[-80.814985,35.194694],[-80.814337,35.196722],[-80.814344,35.197846],[-80.817171,35.197513],[-80.819431,35.198345],[-80.820509,35.19889],[-80.820809,35.200309],[-80.822309,35.201957],[-80.823311,35.20241],[-80.824856,35.202472],[-80.825322,35.200484],[-80.827216,35.195922],[-80.827843,35.196223],[-80.828775,35.198007],[-80.830018,35.198797],[-80.833068,35.20254],[-80.835902,35.20489],[-80.836138,35.206133],[-80.835795,35.208184],[-80.836052,35.210302],[-80.835663,35.211082],[-80.834338,35.2122],[-80.833939,35.213349],[-80.837451,35.213949],[-80.844629,35.219973],[-80.849634,35.218285],[-80.855071,35.214158],[-80.859788,35.209858],[-80.860506,35.207497],[-80.864937,35.202897],[-80.867725,35.198995],[-80.870319,35.196624],[-80.872174,35.195377],[-80.872548,35.194804],[-80.87281,35.194891],[-80.873301,35.194449],[-80.882631,35.19781],[-80.880183,35.202936],[-80.880742,35.203932],[-80.880972,35.205761],[-80.882246,35.206539],[-80.885346,35.206438],[-80.886467,35.207077],[-80.886878,35.207631],[-80.889295,35.208227],[-80.890473,35.207493],[-80.892399,35.205314],[-80.893499,35.204738],[-80.893713,35.205726],[-80.893625,35.207325],[-80.896998,35.207048],[-80.89759,35.211575],[-80.901294,35.211407],[-80.908152,35.210192],[-80.907987,35.210832],[-80.905905,35.214428],[-80.905696,35.21601],[-80.903624,35.220027],[-80.903036,35.220584],[-80.900238,35.221833],[-80.899661,35.222341],[-80.908794,35.222741],[-80.915894,35.225841],[-80.923499,35.225057],[-80.926044,35.225034],[-80.945799,35.228354],[-80.952755,35.233181],[-80.956243,35.233692],[-80.958691,35.233244],[-80.959322,35.232909],[-80.959007,35.233499],[-80.959305,35.237603],[-80.960642,35.238054],[-80.98508,35.241845],[-80.998603,35.241545],[-81.00086,35.242251],[-81.003104,35.243824],[-81.004877,35.244713],[-81.009142,35.245772],[-81.008234,35.248473],[-81.008868,35.250706],[-81.011206,35.2523],[-81.011788,35.253928],[-81.013361,35.256605],[-81.014111,35.258513],[-81.015011,35.268939]]]}},{"type":"Feature","properties":{"district":"42","centroid_lon":-80.732233,"centroid_lat":35.128538,"sf1_2000_vap_flow":108738.79,"charlotte_2000_share_pct":69.1,"north_towns_2000_share_pct":0.0,"south_suburbs_2000_share_pct":24.74,"remainder_2000_share_pct":6.16,"top_2000_places":"Charlotte:69.1%; Matthews:14.4%; Mint Hill:10.4%; Remainder/unincorporated:6.2%","president_2000_margin_pct":30.48,"president_2000_winner":"REP","governor_2000_margin_pct":31.11,"governor_2000_winner":"REP","senate_2002_margin_pct":36.45,"senate_2002_winner":"REP","president_2004_margin_pct":32.88,"president_2004_winner":"REP","governor_2004_margin_pct":13.22,"governor_2004_winner":"REP"},"geometry":{"type":"Polygon","coordinates":[[[-80.877415,35.098463],[-80.87581,35.102247],[-80.875611,35.102954],[-80.875896,35.103335],[-80.87554,35.10443],[-80.872722,35.108282],[-80.870546,35.11006],[-80.870062,35.112122],[-80.868586,35.115179],[-80.868585,35.117068],[-80.867593,35.119512],[-80.867477,35.12085],[-80.867061,35.121623],[-80.86698,35.12327],[-80.866378,35.123881],[-80.864972,35.126733],[-80.864141,35.127589],[-80.864283,35.129237],[-80.864907,35.130493],[-80.864851,35.131216],[-80.865102,35.131737],[-80.864604,35.132611],[-80.86447,35.135844],[-80.862828,35.138267],[-80.861023,35.139663],[-80.860317,35.141091],[-80.860158,35.142872],[-80.859607,35.143926],[-80.859135,35.146585],[-80.857628,35.14708],[-80.857795,35.148011],[-80.855718,35.148216],[-80.852424,35.145775],[-80.848058,35.144953],[-80.845498,35.144112],[-80.847354,35.140641],[-80.848228,35.140028],[-80.846994,35.139282],[-80.847191,35.138067],[-80.845864,35.138007],[-80.846018,35.137184],[-80.844508,35.136799],[-80.840632,35.134674],[-80.83913,35.134415],[-80.839061,35.133119],[-80.837908,35.13055],[-80.834226,35.12659],[-80.830452,35.119011],[-80.828721,35.117201],[-80.828879,35.11851],[-80.828241,35.119528],[-80.827223,35.122753],[-80.827559,35.123321],[-80.827557,35.124184],[-80.826052,35.125852],[-80.823292,35.127167],[-80.820776,35.130317],[-80.821065,35.130955],[-80.822323,35.131432],[-80.823033,35.131295],[-80.82334,35.131557],[-80.823354,35.133519],[-80.823864,35.134445],[-80.82303,35.135359],[-80.822339,35.135359],[-80.821405,35.134969],[-80.820799,35.135241],[-80.821317,35.136195],[-80.820882,35.137269],[-80.820064,35.137799],[-80.820596,35.138708],[-80.820402,35.139411],[-80.820669,35.13977],[-80.819996,35.141032],[-80.819164,35.140857],[-80.81907,35.138757],[-80.818453,35.137742],[-80.812573,35.135267],[-80.809696,35.13321],[-80.809177,35.132571],[-80.806815,35.133955],[-80.805314,35.136774],[-80.803283,35.138429],[-80.801822,35.140843],[-80.801384,35.1441],[-80.802069,35.148874],[-80.804472,35.148025],[-80.823297,35.146361],[-80.831953,35.14873],[-80.837221,35.150909],[-80.840203,35.151214],[-80.84628,35.152422],[-80.847452,35.152951],[-80.848144,35.153673],[-80.848407,35.154496],[-80.84829,35.155521],[-80.846865,35.15567],[-80.842888,35.156688],[-80.840865,35.157893],[-80.838645,35.158019],[-80.838856,35.158862],[-80.838635,35.160474],[-80.836714,35.162863],[-80.836046,35.165199],[-80.835626,35.165701],[-80.836256,35.166198],[-80.836554,35.166773],[-80.835713,35.167878],[-80.836425,35.169086],[-80.833943,35.169257],[-80.832148,35.168359],[-80.830706,35.168615],[-80.82999,35.166316],[-80.827711,35.167201],[-80.822473,35.168205],[-80.822438,35.169969],[-80.822944,35.171885],[-80.827715,35.176107],[-80.828113,35.177995],[-80.82925,35.180205],[-80.830018,35.180186],[-80.832775,35.182217],[-80.833852,35.18133],[-80.834724,35.18112],[-80.836478,35.18119],[-80.836974,35.179377],[-80.839681,35.179921],[-80.84122,35.180877],[-80.843258,35.180744],[-80.844842,35.18155],[-80.844286,35.182232],[-80.841349,35.183093],[-80.841875,35.185404],[-80.841444,35.187793],[-80.838552,35.192723],[-80.838598,35.194997],[-80.837754,35.195635],[-80.836915,35.194899],[-80.835902,35.20489],[-80.833068,35.20254],[-80.830018,35.198797],[-80.828675,35.197895],[-80.828116,35.196489],[-80.827216,35.195922],[-80.825322,35.200484],[-80.824856,35.202472],[-80.823311,35.20241],[-80.822309,35.201957],[-80.820809,35.200309],[-80.820509,35.19889],[-80.819431,35.198345],[-80.817171,35.197513],[-80.814344,35.197846],[-80.814337,35.196722],[-80.814985,35.194694],[-80.814062,35.194102],[-80.814437,35.192681],[-80.813672,35.192436],[-80.81527,35.188063],[-80.81614,35.186251],[-80.819618,35.182929],[-80.82007,35.182795],[-80.8183,35.178497],[-80.817302,35.177172],[-80.808304,35.171303],[-80.804687,35.168319],[-80.799045,35.158842],[-80.796239,35.156083],[-80.79497,35.154443],[-80.796298,35.152827],[-80.798358,35.15124],[-80.79818,35.149516],[-80.798705,35.148091],[-80.798859,35.146871],[-80.797476,35.146144],[-80.795989,35.144085],[-80.79434,35.143615],[-80.7924,35.142143],[-80.791826,35.141447],[-80.789939,35.140368],[-80.789726,35.139043],[-80.789874,35.137958],[-80.789482,35.136541],[-80.790427,35.132895],[-80.79018,35.131922],[-80.790823,35.131435],[-80.791006,35.130968],[-80.791058,35.130124],[-80.791849,35.128033],[-80.792432,35.125407],[-80.792076,35.124473],[-80.792034,35.123567],[-80.791072,35.122967],[-80.791286,35.12256],[-80.790981,35.122207],[-80.78979,35.124422],[-80.788704,35.125062],[-80.787182,35.125561],[-80.78542,35.124572],[-80.784798,35.124667],[-80.78383,35.125305],[-80.783239,35.126169],[-80.782989,35.127091],[-80.782029,35.128008],[-80.77949,35.129233],[-80.778113,35.130571],[-80.774564,35.131464],[-80.76805,35.137351],[-80.754121,35.127304],[-80.751273,35.126988],[-80.749389,35.126035],[-80.749306,35.126219],[-80.748163,35.126107],[-80.748072,35.128482],[-80.744163,35.12769],[-80.743202,35.128239],[-80.742813,35.128059],[-80.743067,35.12748],[-80.742073,35.127266],[-80.74177,35.128595],[-80.742225,35.128857],[-80.742091,35.129088],[-80.743434,35.129591],[-80.743662,35.131548],[-80.742421,35.132734],[-80.740603,35.133478],[-80.740259,35.13282],[-80.736672,35.134327],[-80.736499,35.13399],[-80.72934,35.136657],[-80.731051,35.139034],[-80.727292,35.141094],[-80.727866,35.142004],[-80.723319,35.141671],[-80.722061,35.142639],[-80.720322,35.142582],[-80.72252,35.145089],[-80.721974,35.145378],[-80.722372,35.146024],[-80.719545,35.146381],[-80.719887,35.146808],[-80.716117,35.148035],[-80.719409,35.151083],[-80.71911,35.153849],[-80.720286,35.154757],[-80.715869,35.158186],[-80.716532,35.159457],[-80.716035,35.159704],[-80.717593,35.162017],[-80.715936,35.162911],[-80.710427,35.168329],[-80.706841,35.173344],[-80.708115,35.174551],[-80.706975,35.175245],[-80.707095,35.177195],[-80.713976,35.183466],[-80.712907,35.183595],[-80.712716,35.184102],[-80.711577,35.18496],[-80.711496,35.185256],[-80.710272,35.185813],[-80.710079,35.186643],[-80.708809,35.187078],[-80.704939,35.192922],[-80.703467,35.1935],[-80.699373,35.196172],[-80.698828,35.196808],[-80.698794,35.197661],[-80.698162,35.197656],[-80.696027,35.198761],[-80.694588,35.200578],[-80.694795,35.201122],[-80.692442,35.202117],[-80.692255,35.201252],[-80.688384,35.198935],[-80.682966,35.19988],[-80.686444,35.203165],[-80.683845,35.204959],[-80.683245,35.205527],[-80.683033,35.206145],[-80.681831,35.206736],[-80.677557,35.207494],[-80.677073,35.206498],[-80.672747,35.204235],[-80.671417,35.204836],[-80.671778,35.205324],[-80.670634,35.205849],[-80.671266,35.206994],[-80.670115,35.207994],[-80.670104,35.208392],[-80.664855,35.208984],[-80.663747,35.209295],[-80.663009,35.209882],[-80.661291,35.212902],[-80.656292,35.216573],[-80.642837,35.222631],[-80.636343,35.223714],[-80.624879,35.223147],[-80.616971,35.224595],[-80.615049,35.225266],[-80.610766,35.227371],[-80.605369,35.231528],[-80.599733,35.234105],[-80.550349,35.208412],[-80.648039,35.129846],[-80.700995,35.087602],[-80.749318,35.050105],[-80.769933,35.034531],[-80.772754,35.033047],[-80.776664,35.03307],[-80.778663,35.032362],[-80.780741,35.033258],[-80.782224,35.033072],[-80.78993,35.031177],[-80.790224,35.030726],[-80.791755,35.030056],[-80.796894,35.029831],[-80.800803,35.027842],[-80.8022,35.028001],[-80.804506,35.027749],[-80.805094,35.027364],[-80.805562,35.025985],[-80.806371,35.025061],[-80.808194,35.023791],[-80.80911,35.022796],[-80.810867,35.021999],[-80.811156,35.02148],[-80.816883,35.026683],[-80.816725,35.02683],[-80.817949,35.027561],[-80.818653,35.028909],[-80.822578,35.031781],[-80.824575,35.034893],[-80.827657,35.037294],[-80.829481,35.037692],[-80.830492,35.03767],[-80.834205,35.036618],[-80.835151,35.036613],[-80.836161,35.036997],[-80.842205,35.040879],[-80.847833,35.042007],[-80.85179,35.04156],[-80.85594,35.041915],[-80.859084,35.040716],[-80.861545,35.040534],[-80.864819,35.043981],[-80.867221,35.049069],[-80.876063,35.058986],[-80.876531,35.059977],[-80.872998,35.060631],[-80.870946,35.060374],[-80.870348,35.060764],[-80.870314,35.061382],[-80.869672,35.062627],[-80.870435,35.063863],[-80.871817,35.064906],[-80.872219,35.065702],[-80.871323,35.06565],[-80.870302,35.066415],[-80.869018,35.066313],[-80.867377,35.065745],[-80.867663,35.06542],[-80.867587,35.064407],[-80.868428,35.063448],[-80.868513,35.062644],[-80.868327,35.062401],[-80.866447,35.062756],[-80.864304,35.062014],[-80.86363,35.06117],[-80.863886,35.060509],[-80.863562,35.060291],[-80.863252,35.060729],[-80.862355,35.060572],[-80.861789,35.061041],[-80.861183,35.061103],[-80.860653,35.061676],[-80.860918,35.062066],[-80.860813,35.06237],[-80.860123,35.062972],[-80.859361,35.063194],[-80.859255,35.064141],[-80.857839,35.065832],[-80.856606,35.066429],[-80.855168,35.066425],[-80.852543,35.069067],[-80.849676,35.069479],[-80.848614,35.069863],[-80.84825,35.071445],[-80.843446,35.073884],[-80.840668,35.074442],[-80.838958,35.077404],[-80.839398,35.079264],[-80.839189,35.080216],[-80.834085,35.085355],[-80.83521,35.08622],[-80.836366,35.086718],[-80.842234,35.087611],[-80.852923,35.087661],[-80.85311,35.088677],[-80.855023,35.091189],[-80.856692,35.092224],[-80.858069,35.093777],[-80.859454,35.096352],[-80.859687,35.097319],[-80.859963,35.097451],[-80.861062,35.097115],[-80.863288,35.097026],[-80.864693,35.097379],[-80.865327,35.096448],[-80.866828,35.096886],[-80.867147,35.096101],[-80.868527,35.095492],[-80.869976,35.096296],[-80.87339,35.096636],[-80.87637,35.096242],[-80.877415,35.098463]]]}}],"county_boundary":{"type":"Polygon","coordinates":[[[-80.744436,35.380696],[-80.732757,35.371931],[-80.708878,35.35535],[-80.693061,35.346379],[-80.683071,35.315796],[-80.681165,35.310837],[-80.670317,35.278231],[-80.670104,35.275746],[-80.668494,35.273854],[-80.66724,35.269119],[-80.66648,35.267934],[-80.627595,35.248508],[-80.550349,35.208412],[-80.700995,35.087602],[-80.747375,35.05159],[-80.769933,35.034531],[-80.773162,35.032949],[-80.776664,35.03307],[-80.778663,35.032362],[-80.780741,35.033258],[-80.782224,35.033072],[-80.78993,35.031177],[-80.790224,35.030726],[-80.791755,35.030056],[-80.796894,35.029831],[-80.800803,35.027842],[-80.804506,35.027749],[-80.805094,35.027364],[-80.805562,35.025985],[-80.806371,35.025061],[-80.80911,35.022796],[-80.810867,35.021999],[-80.81161,35.020928],[-80.812558,35.020559],[-80.814349,35.020614],[-80.815686,35.019465],[-80.82101,35.017326],[-80.821705,35.016419],[-80.82232,35.016139],[-80.822206,35.01465],[-80.822814,35.014539],[-80.822961,35.014017],[-80.825059,35.011972],[-80.830102,35.00946],[-80.830771,35.008795],[-80.831078,35.007827],[-80.833984,35.007486],[-80.836422,35.006149],[-80.83727,35.005105],[-80.838018,35.005027],[-80.839895,35.002801],[-80.840278,35.001692],[-80.854825,35.018937],[-80.88529,35.053957],[-80.893219,35.062737],[-80.907836,35.077826],[-80.92717,35.100257],[-80.934739,35.107318],[-80.961935,35.090443],[-81.018976,35.057632],[-81.029272,35.051275],[-81.041496,35.044713],[-81.050923,35.056709],[-81.057672,35.061867],[-81.058207,35.064],[-81.057669,35.070811],[-81.057732,35.07411],[-81.056349,35.081549],[-81.057055,35.084864],[-81.056984,35.086446],[-81.056032,35.088154],[-81.053462,35.091369],[-81.051917,35.096279],[-81.05038,35.098372],[-81.047044,35.100337],[-81.044355,35.101162],[-81.038645,35.101984],[-81.036716,35.102735],[-81.035196,35.103776],[-81.033605,35.105702],[-81.032854,35.107377],[-81.032367,35.109619],[-81.032415,35.112149],[-81.033149,35.114595],[-81.035614,35.118584],[-81.037066,35.122963],[-81.038765,35.125449],[-81.040542,35.127196],[-81.043206,35.12882],[-81.050456,35.131109],[-81.052029,35.132833],[-81.051884,35.134497],[-81.048803,35.141052],[-81.047581,35.145196],[-81.046332,35.146729],[-81.044688,35.147734],[-81.042636,35.148126],[-81.037278,35.1481],[-81.033909,35.14869],[-81.032238,35.148412],[-81.025658,35.148667],[-81.023037,35.149521],[-81.021558,35.150378],[-81.018284,35.153554],[-81.017112,35.154318],[-81.015372,35.154146],[-81.011839,35.152749],[-81.009804,35.153028],[-81.008184,35.153858],[-81.006228,35.156089],[-81.005758,35.157545],[-81.005836,35.160877],[-81.006765,35.162751],[-81.007306,35.165175],[-81.003915,35.170407],[-81.003015,35.174106],[-81.00244,35.182065],[-81.003014,35.185069],[-81.0039,35.187033],[-81.00614,35.195082],[-81.006273,35.198349],[-81.005347,35.208286],[-81.007321,35.211799],[-81.010387,35.214983],[-81.014186,35.222366],[-81.014104,35.225219],[-81.012459,35.231474],[-81.010815,35.235964],[-81.010631,35.240647],[-81.010207,35.243198],[-81.008234,35.248473],[-81.008868,35.250706],[-81.011206,35.2523],[-81.014111,35.258513],[-81.01505,35.268655],[-81.013914,35.272519],[-81.011156,35.278053],[-81.008996,35.281043],[-81.007941,35.284164],[-81.006643,35.291326],[-81.004648,35.295327],[-81.003862,35.297916],[-81.001828,35.301235],[-81.001161,35.304928],[-80.999994,35.306209],[-80.997249,35.307757],[-80.995387,35.309472],[-80.994067,35.31152],[-80.992004,35.316643],[-80.990164,35.319551],[-80.988929,35.321006],[-80.984315,35.324085],[-80.981813,35.326969],[-80.980944,35.328822],[-80.980845,35.330549],[-80.981304,35.332273],[-80.982702,35.334722],[-80.984995,35.336605],[-80.985302,35.337217],[-80.985315,35.338938],[-80.984252,35.34091],[-80.981919,35.342485],[-80.976876,35.343896],[-80.975112,35.344709],[-80.973953,35.346152],[-80.973002,35.349879],[-80.971864,35.350843],[-80.970621,35.351323],[-80.968864,35.351372],[-80.967088,35.350794],[-80.963551,35.347399],[-80.962141,35.347046],[-80.958355,35.349526],[-80.954555,35.350676],[-80.952042,35.350971],[-80.944592,35.350508],[-80.942924,35.350748],[-80.937215,35.355081],[-80.934199,35.356934],[-80.931644,35.357757],[-80.92867,35.357504],[-80.926473,35.357879],[-80.924141,35.3588],[-80.923042,35.359917],[-80.923062,35.360648],[-80.923732,35.361287],[-80.926883,35.362521],[-80.931532,35.363108],[-80.935877,35.36211],[-80.9384,35.362948],[-80.942325,35.365169],[-80.947015,35.365846],[-80.951058,35.367004],[-80.954929,35.369808],[-80.956188,35.372769],[-80.957704,35.374587],[-80.960161,35.375413],[-80.962555,35.375284],[-80.964773,35.373523],[-80.96733,35.368553],[-80.968859,35.367065],[-80.9736,35.36402],[-80.976447,35.36416],[-80.9811,35.365909],[-80.98298,35.367469],[-80.985366,35.371387],[-80.986784,35.37569],[-80.986729,35.379481],[-80.986136,35.380582],[-80.98498,35.381469],[-80.983753,35.381846],[-80.979053,35.381686],[-80.976629,35.382452],[-80.967972,35.387566],[-80.957546,35.391024],[-80.956295,35.391895],[-80.954811,35.39381],[-80.954316,35.396608],[-80.954439,35.398805],[-80.954966,35.40031],[-80.956928,35.403721],[-80.958752,35.411945],[-80.958532,35.413611],[-80.95559,35.418923],[-80.955128,35.421023],[-80.955852,35.425751],[-80.957035,35.428785],[-80.95849,35.431264],[-80.958639,35.432901],[-80.956214,35.437824],[-80.953358,35.440714],[-80.952264,35.444408],[-80.95038,35.447302],[-80.94878,35.448613],[-80.946118,35.449718],[-80.943086,35.452916],[-80.94238,35.455147],[-80.942489,35.457728],[-80.943251,35.459373],[-80.950618,35.465289],[-80.951745,35.468224],[-80.951517,35.470453],[-80.948952,35.476149],[-80.948143,35.480044],[-80.945325,35.483617],[-80.945456,35.484502],[-80.947344,35.488473],[-80.906723,35.514785],[-80.784167,35.506017],[-80.785692,35.503085],[-80.787069,35.496875],[-80.786835,35.49307],[-80.781895,35.483819],[-80.781332,35.479658],[-80.779488,35.474922],[-80.779629,35.473218],[-80.779331,35.472012],[-80.775449,35.466699],[-80.774485,35.464399],[-80.773384,35.463148],[-80.772974,35.457679],[-80.752167,35.41405],[-80.763549,35.412099],[-80.766414,35.401478],[-80.755309,35.394823],[-80.751421,35.388997],[-80.744436,35.380696]]]}}