{"type":"FeatureCollection","features":[{"type":"Feature","properties":{"district":"88","centroid_lon":-80.881351,"centroid_lat":35.162732,"sf1_2000_vap_flow":51707.0,"charlotte_2000_share_pct":99.96,"north_towns_2000_share_pct":0.0,"south_suburbs_2000_share_pct":0.0,"remainder_2000_share_pct":0.04,"top_2000_places":"Charlotte:100.0%; Remainder/unincorporated:0.0%","senate_2002_margin_pct":-17.16,"senate_2002_winner":"DEM","president_2004_margin_pct":-20.29,"president_2004_winner":"DEM","governor_2004_margin_pct":-33.54,"governor_2004_winner":"DEM"},"geometry":{"type":"Polygon","coordinates":[[[-80.9326,35.186963],[-80.932139,35.187731],[-80.929171,35.189837],[-80.927953,35.189578],[-80.923921,35.190217],[-80.921576,35.189703],[-80.920958,35.190828],[-80.91716,35.195569],[-80.916118,35.194414],[-80.915466,35.194247],[-80.914977,35.193364],[-80.913903,35.193672],[-80.911854,35.19342],[-80.910384,35.19377],[-80.909914,35.193419],[-80.90836,35.194024],[-80.907994,35.195064],[-80.907462,35.195715],[-80.906356,35.196809],[-80.904255,35.19816],[-80.897706,35.200628],[-80.896395,35.202217],[-80.895274,35.20295],[-80.893963,35.204509],[-80.892399,35.205314],[-80.890473,35.207493],[-80.889295,35.208227],[-80.886878,35.207631],[-80.886467,35.207077],[-80.885346,35.206438],[-80.882668,35.206613],[-80.880972,35.205761],[-80.880742,35.203932],[-80.880183,35.202936],[-80.882631,35.19781],[-80.873238,35.194438],[-80.870319,35.196624],[-80.867482,35.199263],[-80.864937,35.202897],[-80.860506,35.207497],[-80.859761,35.20989],[-80.854568,35.21457],[-80.849096,35.218564],[-80.844629,35.219973],[-80.837451,35.213949],[-80.833939,35.213349],[-80.834338,35.2122],[-80.835663,35.211082],[-80.836052,35.210302],[-80.835795,35.208184],[-80.836138,35.206133],[-80.835843,35.204478],[-80.836915,35.194899],[-80.837754,35.195635],[-80.838598,35.194997],[-80.838552,35.192723],[-80.841444,35.187793],[-80.841875,35.185404],[-80.841349,35.183093],[-80.844286,35.182232],[-80.844842,35.18155],[-80.843258,35.180744],[-80.84122,35.180877],[-80.839681,35.179921],[-80.836974,35.179377],[-80.837806,35.176326],[-80.840134,35.174042],[-80.842402,35.16688],[-80.847961,35.15958],[-80.8487,35.159327],[-80.848782,35.16004],[-80.850618,35.159627],[-80.851428,35.157043],[-80.85508,35.153249],[-80.855228,35.152209],[-80.857352,35.151118],[-80.857912,35.149365],[-80.857795,35.148011],[-80.855718,35.148216],[-80.852424,35.145775],[-80.848058,35.144953],[-80.845498,35.144112],[-80.847518,35.140459],[-80.852052,35.137957],[-80.852971,35.13705],[-80.854651,35.125719],[-80.8545,35.121675],[-80.855558,35.118146],[-80.861517,35.117066],[-80.864639,35.118012],[-80.868109,35.118317],[-80.868585,35.117068],[-80.868663,35.114913],[-80.870062,35.112122],[-80.870546,35.11006],[-80.872722,35.108282],[-80.875588,35.104348],[-80.875896,35.103335],[-80.875611,35.102954],[-80.87581,35.102247],[-80.877444,35.098263],[-80.878917,35.09995],[-80.88094,35.101468],[-80.890949,35.105675],[-80.89342,35.10718],[-80.895908,35.109364],[-80.894856,35.110023],[-80.896908,35.113807],[-80.897028,35.114522],[-80.896475,35.115713],[-80.894822,35.117964],[-80.892879,35.122838],[-80.894019,35.1224],[-80.897965,35.123904],[-80.902054,35.121778],[-80.902665,35.121847],[-80.903961,35.119284],[-80.904713,35.118423],[-80.90698,35.120318],[-80.909011,35.121544],[-80.914743,35.123864],[-80.917517,35.125263],[-80.911414,35.133925],[-80.907404,35.137776],[-80.917569,35.14243],[-80.926163,35.147036],[-80.922492,35.156469],[-80.921761,35.158037],[-80.920592,35.159507],[-80.921071,35.160303],[-80.920621,35.162256],[-80.921296,35.163907],[-80.924226,35.167178],[-80.932443,35.186051],[-80.9326,35.186963]]]}},{"type":"Feature","properties":{"district":"92","centroid_lon":-80.975643,"centroid_lat":35.152811,"sf1_2000_vap_flow":25797.0,"charlotte_2000_share_pct":66.04,"north_towns_2000_share_pct":0.0,"south_suburbs_2000_share_pct":0.0,"remainder_2000_share_pct":33.96,"top_2000_places":"Charlotte:66.0%; Remainder/unincorporated:34.0%","senate_2002_margin_pct":-0.72,"senate_2002_winner":"DEM","president_2004_margin_pct":-6.32,"president_2004_winner":"DEM","governor_2004_margin_pct":-22.07,"governor_2004_winner":"DEM"},"geometry":{"type":"Polygon","coordinates":[[[-81.058199,35.065098],[-81.057669,35.070811],[-81.057581,35.075815],[-81.056349,35.081549],[-81.057055,35.084864],[-81.056984,35.086446],[-81.056032,35.088154],[-81.053462,35.091369],[-81.052245,35.095478],[-81.05155,35.096981],[-81.049539,35.099013],[-81.047044,35.100337],[-81.044355,35.101162],[-81.038645,35.101984],[-81.036069,35.103151],[-81.035196,35.103776],[-81.033605,35.105702],[-81.032854,35.107377],[-81.032367,35.109619],[-81.032415,35.112149],[-81.032792,35.113788],[-81.035329,35.117937],[-81.037066,35.122963],[-81.038765,35.125449],[-81.040542,35.127196],[-81.042125,35.128253],[-81.045715,35.12979],[-81.050456,35.131109],[-81.051399,35.131848],[-81.052029,35.132833],[-81.051884,35.134497],[-81.048803,35.141052],[-81.048111,35.144102],[-81.047581,35.145196],[-81.046332,35.146729],[-81.044688,35.147734],[-81.043586,35.148006],[-81.037278,35.1481],[-81.033909,35.14869],[-81.032238,35.148412],[-81.027146,35.148535],[-81.024721,35.148877],[-81.023037,35.149521],[-81.02115,35.150664],[-81.018284,35.153554],[-81.017112,35.154318],[-81.015372,35.154146],[-81.0121,35.152776],[-81.009804,35.153028],[-81.008733,35.153501],[-81.007467,35.154506],[-81.006228,35.156089],[-81.005806,35.157023],[-81.005836,35.160877],[-81.006765,35.162751],[-81.007306,35.165175],[-81.003915,35.170407],[-81.003412,35.171951],[-81.002387,35.180817],[-81.003014,35.185069],[-81.0039,35.187033],[-81.00614,35.195082],[-81.006273,35.198349],[-81.005274,35.207796],[-81.005916,35.209655],[-81.007321,35.211799],[-81.010387,35.214983],[-81.013959,35.221498],[-81.014286,35.223532],[-81.014165,35.224966],[-81.012459,35.231474],[-81.011245,35.23429],[-81.010815,35.235964],[-81.010383,35.242327],[-81.009142,35.245772],[-81.004877,35.244713],[-81.003104,35.243824],[-81.00086,35.242251],[-80.998917,35.241595],[-80.997262,35.241459],[-80.98726,35.241939],[-80.984141,35.241748],[-80.961332,35.23822],[-80.956856,35.236658],[-80.953844,35.235881],[-80.94806,35.235446],[-80.947054,35.241189],[-80.941631,35.240889],[-80.935162,35.241515],[-80.932118,35.241568],[-80.919792,35.238365],[-80.919445,35.240365],[-80.920935,35.240378],[-80.921102,35.242218],[-80.920801,35.243207],[-80.921182,35.244658],[-80.919495,35.244678],[-80.917659,35.245152],[-80.91531,35.246527],[-80.909947,35.248637],[-80.898099,35.246008],[-80.896476,35.245184],[-80.895795,35.244071],[-80.896577,35.2438],[-80.897073,35.243131],[-80.89714,35.2383],[-80.897411,35.236199],[-80.891928,35.227812],[-80.890583,35.226719],[-80.890432,35.225749],[-80.891097,35.224287],[-80.897883,35.224496],[-80.90001,35.221986],[-80.903301,35.220383],[-80.90556,35.216314],[-80.905905,35.214428],[-80.907987,35.210832],[-80.908152,35.210192],[-80.901294,35.211407],[-80.89759,35.211575],[-80.896998,35.207048],[-80.893625,35.207325],[-80.893713,35.205726],[-80.893499,35.204738],[-80.893963,35.204509],[-80.895523,35.202726],[-80.896395,35.202217],[-80.897706,35.200628],[-80.904255,35.19816],[-80.906356,35.196809],[-80.907937,35.19517],[-80.90836,35.194024],[-80.909914,35.193419],[-80.910384,35.19377],[-80.911854,35.19342],[-80.913903,35.193672],[-80.914977,35.193364],[-80.915466,35.194247],[-80.916118,35.194414],[-80.91716,35.195569],[-80.920958,35.190828],[-80.921576,35.189703],[-80.923921,35.190217],[-80.927953,35.189578],[-80.929171,35.189837],[-80.932139,35.187731],[-80.9326,35.186963],[-80.932443,35.186051],[-80.924226,35.167178],[-80.921296,35.163907],[-80.920621,35.162256],[-80.921071,35.160303],[-80.920592,35.159507],[-80.921761,35.158037],[-80.922492,35.156469],[-80.926163,35.147036],[-80.917569,35.14243],[-80.907404,35.137776],[-80.911414,35.133925],[-80.917517,35.125263],[-80.914743,35.123864],[-80.909011,35.121544],[-80.90698,35.120318],[-80.904713,35.118423],[-80.908863,35.116311],[-80.912909,35.113818],[-80.915904,35.110626],[-80.916032,35.109816],[-80.9154,35.105661],[-80.919818,35.091691],[-80.92717,35.100257],[-80.934739,35.107318],[-80.961935,35.090443],[-81.018976,35.057632],[-81.02486,35.054185],[-81.029272,35.051275],[-81.041496,35.044713],[-81.050923,35.056709],[-81.057672,35.061867],[-81.058137,35.06339],[-81.058199,35.065098]]]}},{"type":"Feature","properties":{"district":"98","centroid_lon":-80.864441,"centroid_lat":35.457695,"sf1_2000_vap_flow":29327.45,"charlotte_2000_share_pct":0.0,"north_towns_2000_share_pct":90.33,"south_suburbs_2000_share_pct":0.0,"remainder_2000_share_pct":9.67,"top_2000_places":"Huntersville:39.5%; Cornelius:31.7%; Davidson:19.2%; Remainder/unincorporated:9.7%","senate_2002_margin_pct":31.56,"senate_2002_winner":"REP","president_2004_margin_pct":28.69,"president_2004_winner":"REP","governor_2004_margin_pct":9.71,"governor_2004_winner":"REP"},"geometry":{"type":"Polygon","coordinates":[[[-80.958728,35.412505],[-80.957987,35.414834],[-80.95559,35.418923],[-80.955128,35.421023],[-80.955906,35.425932],[-80.957035,35.428785],[-80.958636,35.431697],[-80.958691,35.432634],[-80.958447,35.433496],[-80.956214,35.437824],[-80.953358,35.440714],[-80.952264,35.444408],[-80.95038,35.447302],[-80.94878,35.448613],[-80.946118,35.449718],[-80.943086,35.452916],[-80.94238,35.455147],[-80.942489,35.457728],[-80.943251,35.459373],[-80.944009,35.460138],[-80.948581,35.463412],[-80.950618,35.465289],[-80.951368,35.46671],[-80.951745,35.468224],[-80.951517,35.470453],[-80.948952,35.476149],[-80.948247,35.478714],[-80.948143,35.480044],[-80.947861,35.480698],[-80.945819,35.482798],[-80.945325,35.483617],[-80.945456,35.484502],[-80.947344,35.488473],[-80.906723,35.514785],[-80.839274,35.51013],[-80.784167,35.506017],[-80.785692,35.503085],[-80.787069,35.496875],[-80.786864,35.493156],[-80.785459,35.490837],[-80.783762,35.487574],[-80.783661,35.48695],[-80.781895,35.483819],[-80.781332,35.479658],[-80.779488,35.474922],[-80.779629,35.473218],[-80.779331,35.472012],[-80.775449,35.466699],[-80.775207,35.466285],[-80.775289,35.465929],[-80.774485,35.464399],[-80.773384,35.463148],[-80.773314,35.460958],[-80.77301,35.46044],[-80.773224,35.460036],[-80.772974,35.457679],[-80.756739,35.423657],[-80.758,35.423536],[-80.760155,35.424211],[-80.764274,35.424776],[-80.767918,35.422373],[-80.772281,35.420762],[-80.773638,35.420625],[-80.775905,35.420952],[-80.777357,35.421729],[-80.77822,35.42269],[-80.781172,35.423469],[-80.787905,35.423244],[-80.792475,35.42554],[-80.798627,35.419612],[-80.800987,35.415032],[-80.801986,35.414329],[-80.804839,35.413612],[-80.814111,35.412491],[-80.817914,35.413362],[-80.823592,35.413183],[-80.823833,35.412441],[-80.82437,35.41257],[-80.825024,35.412381],[-80.82625,35.411212],[-80.8277,35.410286],[-80.829282,35.410834],[-80.829594,35.411227],[-80.829415,35.411689],[-80.833504,35.414394],[-80.833756,35.414136],[-80.833879,35.414451],[-80.834227,35.414318],[-80.834167,35.413847],[-80.834669,35.413387],[-80.834977,35.41362],[-80.834726,35.413835],[-80.835489,35.414437],[-80.835762,35.414233],[-80.83657,35.414805],[-80.837828,35.413649],[-80.837976,35.411459],[-80.838253,35.411162],[-80.852645,35.410412],[-80.858041,35.408939],[-80.859017,35.414281],[-80.862427,35.414108],[-80.864757,35.413148],[-80.866083,35.412197],[-80.867156,35.410232],[-80.869391,35.407216],[-80.87266,35.406232],[-80.873995,35.405156],[-80.874817,35.406128],[-80.875387,35.406243],[-80.879014,35.404221],[-80.879635,35.404076],[-80.881808,35.40436],[-80.88658,35.40688],[-80.892345,35.407098],[-80.897484,35.406574],[-80.90006,35.407073],[-80.900881,35.407614],[-80.901327,35.408716],[-80.903206,35.40944],[-80.904138,35.408878],[-80.90605,35.406032],[-80.906755,35.40538],[-80.90761,35.404953],[-80.911469,35.404672],[-80.913798,35.402103],[-80.924214,35.401151],[-80.92652,35.408016],[-80.926493,35.408628],[-80.925819,35.4103],[-80.928345,35.411378],[-80.929672,35.41223],[-80.930573,35.413556],[-80.93262,35.41532],[-80.934108,35.415413],[-80.936367,35.410487],[-80.937613,35.409735],[-80.938309,35.408367],[-80.939735,35.407514],[-80.940307,35.407418],[-80.940976,35.406771],[-80.941631,35.406692],[-80.941612,35.406405],[-80.942453,35.406118],[-80.943899,35.404972],[-80.944632,35.405061],[-80.945081,35.405374],[-80.945786,35.405294],[-80.945848,35.404366],[-80.946136,35.404127],[-80.945971,35.403733],[-80.947029,35.403177],[-80.9479,35.40184],[-80.948557,35.401613],[-80.949267,35.400683],[-80.949935,35.400535],[-80.95115,35.400831],[-80.951601,35.401384],[-80.953158,35.401932],[-80.95353,35.401722],[-80.9533,35.401166],[-80.953932,35.400722],[-80.954807,35.401681],[-80.955708,35.401623],[-80.956812,35.403386],[-80.957186,35.404604],[-80.958648,35.41111],[-80.958728,35.412505]]]}},{"type":"Feature","properties":{"district":"99","centroid_lon":-80.732282,"centroid_lat":35.311564,"sf1_2000_vap_flow":32755.28,"charlotte_2000_share_pct":84.96,"north_towns_2000_share_pct":0.0,"south_suburbs_2000_share_pct":0.0,"remainder_2000_share_pct":15.04,"top_2000_places":"Charlotte:85.0%; Remainder/unincorporated:15.0%","senate_2002_margin_pct":-37.16,"senate_2002_winner":"DEM","president_2004_margin_pct":-38.96,"president_2004_winner":"DEM","governor_2004_margin_pct":-48.02,"governor_2004_winner":"DEM"},"geometry":{"type":"Polygon","coordinates":[[[-80.79516,35.261398],[-80.794831,35.267465],[-80.793522,35.273669],[-80.793526,35.278725],[-80.77367,35.28403],[-80.764572,35.284449],[-80.762701,35.284957],[-80.75765,35.289514],[-80.756583,35.2908],[-80.753863,35.299429],[-80.749784,35.305661],[-80.75744,35.311099],[-80.76004,35.312521],[-80.763158,35.31363],[-80.776315,35.317441],[-80.775352,35.320287],[-80.775694,35.32099],[-80.774647,35.322302],[-80.772251,35.329009],[-80.77225,35.329886],[-80.773179,35.332244],[-80.773068,35.334011],[-80.770542,35.339465],[-80.769327,35.340879],[-80.764057,35.343087],[-80.759739,35.346252],[-80.759294,35.347213],[-80.759007,35.350852],[-80.75658,35.355978],[-80.755835,35.35695],[-80.75284,35.359254],[-80.746639,35.359893],[-80.743933,35.359784],[-80.743705,35.360572],[-80.741856,35.363326],[-80.74182,35.364326],[-80.742149,35.365196],[-80.736584,35.367341],[-80.735148,35.36847],[-80.732757,35.371931],[-80.708878,35.35535],[-80.693061,35.346379],[-80.678117,35.301195],[-80.680129,35.29936],[-80.685135,35.293529],[-80.69115,35.285455],[-80.696292,35.283312],[-80.697845,35.28198],[-80.69951,35.281094],[-80.699028,35.278846],[-80.699039,35.277024],[-80.699574,35.275974],[-80.699198,35.274902],[-80.702671,35.274646],[-80.705133,35.274929],[-80.705765,35.27523],[-80.709365,35.278426],[-80.712613,35.278417],[-80.717982,35.276189],[-80.720622,35.274708],[-80.724035,35.271748],[-80.725767,35.268691],[-80.726985,35.267546],[-80.735203,35.265164],[-80.736325,35.265237],[-80.740521,35.267012],[-80.744104,35.26696],[-80.74242,35.267911],[-80.741698,35.26874],[-80.739942,35.271612],[-80.740729,35.272064],[-80.742621,35.269809],[-80.748452,35.266264],[-80.759365,35.263376],[-80.772708,35.262301],[-80.778255,35.25911],[-80.780988,35.258217],[-80.78277,35.258034],[-80.793253,35.258493],[-80.794765,35.258342],[-80.79516,35.261398]]]}},{"type":"Feature","properties":{"district":"100","centroid_lon":-80.732582,"centroid_lat":35.153411,"sf1_2000_vap_flow":51858.0,"charlotte_2000_share_pct":81.69,"north_towns_2000_share_pct":0.0,"south_suburbs_2000_share_pct":15.0,"remainder_2000_share_pct":3.31,"top_2000_places":"Charlotte:81.7%; Matthews:11.1%; Mint Hill:3.9%; Remainder/unincorporated:3.3%","senate_2002_margin_pct":9.56,"senate_2002_winner":"REP","president_2004_margin_pct":1.72,"president_2004_winner":"REP","governor_2004_margin_pct":-15.08,"governor_2004_winner":"DEM"},"geometry":{"type":"Polygon","coordinates":[[[-80.808563,35.101723],[-80.807928,35.105146],[-80.80667,35.105567],[-80.802447,35.108902],[-80.787915,35.11198],[-80.78309,35.115362],[-80.779444,35.117352],[-80.78082,35.12429],[-80.78123,35.128417],[-80.77949,35.129233],[-80.778113,35.130571],[-80.774564,35.131464],[-80.76805,35.137351],[-80.769819,35.1391],[-80.771233,35.142019],[-80.772535,35.148346],[-80.768933,35.147462],[-80.766267,35.148397],[-80.76147,35.148981],[-80.76156,35.149898],[-80.760377,35.150821],[-80.761152,35.152069],[-80.760667,35.154449],[-80.759761,35.155256],[-80.757094,35.155734],[-80.755881,35.156501],[-80.755465,35.157532],[-80.755723,35.161165],[-80.753216,35.163341],[-80.749406,35.157559],[-80.748124,35.158093],[-80.747542,35.158631],[-80.747055,35.16055],[-80.746303,35.161324],[-80.745397,35.161573],[-80.742359,35.161567],[-80.740856,35.161913],[-80.739407,35.162614],[-80.740777,35.164093],[-80.745369,35.171301],[-80.768302,35.197104],[-80.770147,35.198801],[-80.767972,35.199021],[-80.760584,35.201723],[-80.759765,35.204695],[-80.758255,35.206542],[-80.757143,35.20987],[-80.748354,35.204138],[-80.74626,35.20341],[-80.727969,35.202355],[-80.72528,35.202681],[-80.712414,35.207163],[-80.708197,35.208154],[-80.706296,35.208871],[-80.697918,35.210766],[-80.692493,35.211517],[-80.68698,35.211529],[-80.682244,35.210882],[-80.670104,35.208392],[-80.670115,35.207994],[-80.671266,35.206994],[-80.670634,35.205849],[-80.671778,35.205324],[-80.671417,35.204836],[-80.672747,35.204235],[-80.677073,35.206498],[-80.677557,35.207494],[-80.681831,35.206736],[-80.68299,35.206177],[-80.683245,35.205527],[-80.683845,35.204959],[-80.686444,35.203165],[-80.682966,35.19988],[-80.688384,35.198935],[-80.692255,35.201252],[-80.692442,35.202117],[-80.694795,35.201122],[-80.694588,35.200578],[-80.696027,35.198761],[-80.698162,35.197656],[-80.698777,35.197673],[-80.698828,35.196808],[-80.699373,35.196172],[-80.703467,35.1935],[-80.704825,35.192993],[-80.705177,35.192641],[-80.701602,35.190338],[-80.696182,35.189333],[-80.690027,35.18764],[-80.686896,35.185393],[-80.683919,35.182139],[-80.682453,35.181011],[-80.680633,35.180244],[-80.675917,35.179256],[-80.673539,35.178108],[-80.672126,35.177749],[-80.671949,35.174719],[-80.672288,35.17339],[-80.673199,35.173475],[-80.675775,35.172089],[-80.677108,35.172046],[-80.678088,35.171464],[-80.679399,35.1701],[-80.680581,35.170395],[-80.68217,35.169653],[-80.682756,35.169702],[-80.684208,35.169011],[-80.685275,35.16886],[-80.689682,35.166247],[-80.691262,35.166322],[-80.691223,35.165901],[-80.691456,35.165695],[-80.694365,35.164715],[-80.696082,35.163849],[-80.697511,35.162849],[-80.69732,35.162657],[-80.697377,35.161628],[-80.697709,35.160983],[-80.69964,35.16101],[-80.701459,35.157822],[-80.701736,35.154685],[-80.699441,35.151137],[-80.697548,35.144607],[-80.697205,35.144035],[-80.686397,35.137645],[-80.685563,35.137442],[-80.683274,35.13746],[-80.684458,35.132271],[-80.685508,35.129387],[-80.690916,35.123611],[-80.693391,35.120624],[-80.694936,35.119847],[-80.702268,35.11786],[-80.706562,35.117594],[-80.709922,35.117831],[-80.718177,35.117206],[-80.72021,35.118283],[-80.722405,35.115969],[-80.727408,35.11922],[-80.728386,35.119099],[-80.73234,35.120106],[-80.733478,35.120932],[-80.740003,35.117905],[-80.744843,35.115096],[-80.746459,35.114757],[-80.752939,35.114504],[-80.757371,35.112874],[-80.760185,35.111223],[-80.768463,35.105159],[-80.773594,35.102761],[-80.777391,35.100443],[-80.778741,35.100013],[-80.772546,35.081588],[-80.7749,35.081552],[-80.775936,35.081991],[-80.776946,35.080641],[-80.77756,35.078688],[-80.778389,35.078277],[-80.779835,35.078297],[-80.779413,35.076859],[-80.779818,35.076942],[-80.780329,35.076623],[-80.780798,35.076948],[-80.782599,35.076045],[-80.783191,35.076219],[-80.784217,35.075991],[-80.787277,35.076842],[-80.788327,35.076734],[-80.788656,35.076475],[-80.789411,35.07681],[-80.790444,35.07669],[-80.790483,35.076932],[-80.791141,35.076984],[-80.79335,35.07813],[-80.7936,35.07918],[-80.790975,35.079178],[-80.789895,35.080486],[-80.789209,35.080883],[-80.788099,35.082064],[-80.787514,35.082245],[-80.788144,35.082868],[-80.787822,35.083497],[-80.78838,35.083975],[-80.788477,35.084376],[-80.787839,35.084944],[-80.787632,35.085493],[-80.788334,35.086907],[-80.789548,35.08818],[-80.789737,35.088741],[-80.788947,35.090913],[-80.791766,35.09081],[-80.792367,35.090444],[-80.792664,35.08975],[-80.795268,35.090298],[-80.797376,35.090434],[-80.797638,35.092588],[-80.79537,35.093031],[-80.792194,35.094095],[-80.784124,35.098088],[-80.789418,35.101307],[-80.790219,35.102107],[-80.796576,35.100234],[-80.798393,35.100765],[-80.799089,35.102434],[-80.797621,35.10342],[-80.796088,35.103636],[-80.795636,35.103556],[-80.795006,35.103018],[-80.794254,35.102899],[-80.794144,35.103577],[-80.794409,35.104271],[-80.796216,35.104285],[-80.797095,35.103965],[-80.797289,35.104273],[-80.799421,35.10491],[-80.802653,35.104422],[-80.806343,35.102394],[-80.808563,35.101723]]]}},{"type":"Feature","properties":{"district":"101","centroid_lon":-80.928019,"centroid_lat":35.327038,"sf1_2000_vap_flow":27808.0,"charlotte_2000_share_pct":53.01,"north_towns_2000_share_pct":16.58,"south_suburbs_2000_share_pct":0.0,"remainder_2000_share_pct":30.41,"top_2000_places":"Charlotte:53.0%; Remainder/unincorporated:30.4%; Huntersville:16.6%","senate_2002_margin_pct":5.84,"senate_2002_winner":"REP","president_2004_margin_pct":4.71,"president_2004_winner":"REP","governor_2004_margin_pct":-15.18,"governor_2004_winner":"DEM"},"geometry":{"type":"Polygon","coordinates":[[[-81.015011,35.268939],[-81.014896,35.26979],[-81.013002,35.274657],[-81.011156,35.278053],[-81.008996,35.281043],[-81.007941,35.284164],[-81.006643,35.291326],[-81.005771,35.293454],[-81.004648,35.295327],[-81.003862,35.297916],[-81.001828,35.301235],[-81.001544,35.303928],[-81.001161,35.304928],[-80.999994,35.306209],[-80.997249,35.307757],[-80.995387,35.309472],[-80.994067,35.31152],[-80.992004,35.316643],[-80.990164,35.319551],[-80.988929,35.321006],[-80.985748,35.322923],[-80.984315,35.324085],[-80.981813,35.326969],[-80.980944,35.328822],[-80.980845,35.330549],[-80.981304,35.332273],[-80.982702,35.334722],[-80.984995,35.336605],[-80.985302,35.337217],[-80.985315,35.338938],[-80.984894,35.340059],[-80.984252,35.34091],[-80.981919,35.342485],[-80.976876,35.343896],[-80.975112,35.344709],[-80.973953,35.346152],[-80.973002,35.349879],[-80.971864,35.350843],[-80.970621,35.351323],[-80.968864,35.351372],[-80.967088,35.350794],[-80.966047,35.350031],[-80.963551,35.347399],[-80.962141,35.347046],[-80.961433,35.347298],[-80.958355,35.349526],[-80.954555,35.350676],[-80.952042,35.350971],[-80.944592,35.350508],[-80.942924,35.350748],[-80.942114,35.351123],[-80.937215,35.355081],[-80.933504,35.357246],[-80.930907,35.357811],[-80.92867,35.357504],[-80.927209,35.357694],[-80.924747,35.358461],[-80.923214,35.359536],[-80.923007,35.360489],[-80.923732,35.361287],[-80.926883,35.362521],[-80.929423,35.362993],[-80.931532,35.363108],[-80.935877,35.36211],[-80.9384,35.362948],[-80.942325,35.365169],[-80.947015,35.365846],[-80.951058,35.367004],[-80.954929,35.369808],[-80.955391,35.370438],[-80.956188,35.372769],[-80.957704,35.374587],[-80.958278,35.374984],[-80.960161,35.375413],[-80.962555,35.375284],[-80.964773,35.373523],[-80.965724,35.372042],[-80.96733,35.368553],[-80.968859,35.367065],[-80.9736,35.36402],[-80.975035,35.363922],[-80.976447,35.36416],[-80.9811,35.365909],[-80.98298,35.367469],[-80.9837,35.368351],[-80.985366,35.371387],[-80.986784,35.37569],[-80.986729,35.379481],[-80.986136,35.380582],[-80.98498,35.381469],[-80.983753,35.381846],[-80.979739,35.381614],[-80.977533,35.382098],[-80.975002,35.383313],[-80.967972,35.387566],[-80.965013,35.388699],[-80.959037,35.3904],[-80.95684,35.391458],[-80.954811,35.39381],[-80.954362,35.396185],[-80.954439,35.398805],[-80.955708,35.401623],[-80.954807,35.401681],[-80.953932,35.400722],[-80.9533,35.401166],[-80.95353,35.401722],[-80.953158,35.401932],[-80.951601,35.401384],[-80.95108,35.400802],[-80.949935,35.400535],[-80.949267,35.400683],[-80.948557,35.401613],[-80.9479,35.40184],[-80.947029,35.403177],[-80.945971,35.403733],[-80.946136,35.404127],[-80.945848,35.404366],[-80.945786,35.405294],[-80.945081,35.405374],[-80.944632,35.405061],[-80.943899,35.404972],[-80.942453,35.406118],[-80.941612,35.406405],[-80.941631,35.406692],[-80.940976,35.406771],[-80.940307,35.407418],[-80.939735,35.407514],[-80.938175,35.408486],[-80.937613,35.409735],[-80.936367,35.410487],[-80.934108,35.415413],[-80.932403,35.41523],[-80.930573,35.413556],[-80.929858,35.412368],[-80.928428,35.41142],[-80.925819,35.4103],[-80.926493,35.408628],[-80.92652,35.408016],[-80.924214,35.401151],[-80.913798,35.402103],[-80.911469,35.404672],[-80.90761,35.404953],[-80.906755,35.40538],[-80.90605,35.406032],[-80.904138,35.408878],[-80.903206,35.40944],[-80.901327,35.408716],[-80.900881,35.407614],[-80.90006,35.407073],[-80.897484,35.406574],[-80.892345,35.407098],[-80.88658,35.40688],[-80.881808,35.40436],[-80.879635,35.404076],[-80.879014,35.404221],[-80.875387,35.406243],[-80.874817,35.406128],[-80.873995,35.405156],[-80.87266,35.406232],[-80.869391,35.407216],[-80.867156,35.410232],[-80.866455,35.411754],[-80.864757,35.413148],[-80.862653,35.414068],[-80.859017,35.414281],[-80.856875,35.401935],[-80.856205,35.399378],[-80.85487,35.396376],[-80.851952,35.391687],[-80.850801,35.389126],[-80.850172,35.386203],[-80.84991,35.38208],[-80.848958,35.378888],[-80.844097,35.37047],[-80.843089,35.367949],[-80.838346,35.370247],[-80.833212,35.370313],[-80.828299,35.369686],[-80.823083,35.36715],[-80.820966,35.366951],[-80.819722,35.363869],[-80.821086,35.360301],[-80.822701,35.358388],[-80.822399,35.355769],[-80.824381,35.342281],[-80.824174,35.338887],[-80.833151,35.339089],[-80.839329,35.337588],[-80.844898,35.334468],[-80.850721,35.333559],[-80.851537,35.333195],[-80.852467,35.332319],[-80.854134,35.331814],[-80.857745,35.330113],[-80.861913,35.329541],[-80.866842,35.325366],[-80.868532,35.327156],[-80.873279,35.331187],[-80.8742,35.333366],[-80.880217,35.333792],[-80.884406,35.333756],[-80.886102,35.333388],[-80.891668,35.331381],[-80.893101,35.329913],[-80.89768,35.327584],[-80.899789,35.325451],[-80.901285,35.324641],[-80.901756,35.323907],[-80.901982,35.322707],[-80.905245,35.326245],[-80.9089,35.327834],[-80.909693,35.328458],[-80.910736,35.327578],[-80.913142,35.326891],[-80.915641,35.327326],[-80.920566,35.326904],[-80.922025,35.326386],[-80.923972,35.326159],[-80.924245,35.325435],[-80.924873,35.325109],[-80.927092,35.322909],[-80.926688,35.322653],[-80.925735,35.319943],[-80.924751,35.319695],[-80.920238,35.31949],[-80.919767,35.319759],[-80.919603,35.320183],[-80.918827,35.32058],[-80.915943,35.319938],[-80.915351,35.320702],[-80.914272,35.320727],[-80.913713,35.320425],[-80.912961,35.319509],[-80.912791,35.318503],[-80.911909,35.317241],[-80.911204,35.316714],[-80.91252,35.31658],[-80.913886,35.316069],[-80.914978,35.315261],[-80.915862,35.314229],[-80.9163,35.312125],[-80.916037,35.31026],[-80.919383,35.311627],[-80.922328,35.311783],[-80.92035,35.30654],[-80.920592,35.304321],[-80.922444,35.303181],[-80.922623,35.302564],[-80.923352,35.30174],[-80.923389,35.301244],[-80.925309,35.299517],[-80.921194,35.297532],[-80.91992,35.297382],[-80.919323,35.296096],[-80.918349,35.294942],[-80.906308,35.285588],[-80.903525,35.283654],[-80.895486,35.279225],[-80.895654,35.279015],[-80.895336,35.27841],[-80.895499,35.277832],[-80.896875,35.276785],[-80.900236,35.279724],[-80.903879,35.281815],[-80.905149,35.282077],[-80.914251,35.282221],[-80.914876,35.279047],[-80.914707,35.27708],[-80.913566,35.274045],[-80.904294,35.27344],[-80.901094,35.27254],[-80.900794,35.27214],[-80.900195,35.269325],[-80.901071,35.266624],[-80.89843,35.266383],[-80.898369,35.264763],[-80.904193,35.265062],[-80.905004,35.264121],[-80.905651,35.26395],[-80.905831,35.263284],[-80.904074,35.26317],[-80.904076,35.261835],[-80.904521,35.260861],[-80.906745,35.261942],[-80.910409,35.25724],[-80.901302,35.252426],[-80.900258,35.251671],[-80.896181,35.247801],[-80.897191,35.245678],[-80.909243,35.248627],[-80.910179,35.248573],[-80.91531,35.246527],[-80.917659,35.245152],[-80.919495,35.244678],[-80.921182,35.244658],[-80.920801,35.243207],[-80.921102,35.242218],[-80.920935,35.240378],[-80.919445,35.240365],[-80.919792,35.238365],[-80.932118,35.241568],[-80.935162,35.241515],[-80.941631,35.240889],[-80.947054,35.241189],[-80.94806,35.235446],[-80.953844,35.235881],[-80.956856,35.236658],[-80.961332,35.23822],[-80.984141,35.241748],[-80.98726,35.241939],[-80.997262,35.241459],[-80.998917,35.241595],[-81.00086,35.242251],[-81.003104,35.243824],[-81.004877,35.244713],[-81.009142,35.245772],[-81.008234,35.248473],[-81.008868,35.250706],[-81.011206,35.2523],[-81.011788,35.253928],[-81.013361,35.256605],[-81.014111,35.258513],[-81.015011,35.268939]]]}},{"type":"Feature","properties":{"district":"102","centroid_lon":-80.808896,"centroid_lat":35.224837,"sf1_2000_vap_flow":50363.0,"charlotte_2000_share_pct":100.0,"north_towns_2000_share_pct":0.0,"south_suburbs_2000_share_pct":0.0,"remainder_2000_share_pct":0.0,"top_2000_places":"Charlotte:100.0%","senate_2002_margin_pct":-28.63,"senate_2002_winner":"DEM","president_2004_margin_pct":-34.76,"president_2004_winner":"DEM","governor_2004_margin_pct":-44.92,"governor_2004_winner":"DEM"},"geometry":{"type":"Polygon","coordinates":[[[-80.868363,35.224691],[-80.867143,35.226845],[-80.866931,35.228978],[-80.866548,35.230291],[-80.861467,35.236523],[-80.861482,35.236923],[-80.858708,35.23709],[-80.858897,35.237741],[-80.85845,35.240265],[-80.858713,35.241733],[-80.85815,35.241392],[-80.853883,35.241339],[-80.853101,35.242796],[-80.852215,35.243275],[-80.851093,35.241642],[-80.848393,35.239442],[-80.838431,35.236752],[-80.836149,35.239207],[-80.821367,35.258915],[-80.818035,35.262977],[-80.813937,35.270166],[-80.808826,35.276634],[-80.804722,35.276215],[-80.802775,35.276317],[-80.793526,35.278725],[-80.793522,35.273669],[-80.794871,35.267162],[-80.795176,35.260891],[-80.794765,35.258342],[-80.793253,35.258493],[-80.782186,35.258055],[-80.779426,35.258627],[-80.777328,35.259638],[-80.777246,35.258627],[-80.777496,35.257765],[-80.779324,35.255549],[-80.779881,35.254356],[-80.781116,35.248867],[-80.781212,35.247156],[-80.78094,35.245522],[-80.779562,35.241929],[-80.775653,35.236789],[-80.774624,35.234656],[-80.774516,35.233448],[-80.773984,35.233589],[-80.774134,35.233153],[-80.774057,35.232602],[-80.773744,35.232353],[-80.773998,35.231977],[-80.773869,35.231721],[-80.770894,35.23098],[-80.770342,35.228736],[-80.769386,35.226903],[-80.767386,35.225113],[-80.766918,35.224252],[-80.7677,35.223333],[-80.76933,35.219915],[-80.770575,35.219418],[-80.77033,35.218335],[-80.77062,35.215191],[-80.771281,35.213992],[-80.761116,35.211746],[-80.757143,35.20987],[-80.758255,35.206542],[-80.759765,35.204695],[-80.760584,35.201723],[-80.767972,35.199021],[-80.770147,35.198801],[-80.772107,35.19998],[-80.774765,35.200793],[-80.786247,35.201927],[-80.787436,35.200113],[-80.789262,35.198801],[-80.79127,35.196716],[-80.789967,35.195902],[-80.790505,35.194477],[-80.791432,35.192973],[-80.79381,35.190879],[-80.793344,35.189139],[-80.791773,35.186028],[-80.793105,35.185563],[-80.790135,35.179039],[-80.794054,35.177123],[-80.798232,35.175937],[-80.799422,35.177087],[-80.804753,35.18081],[-80.808493,35.185268],[-80.809149,35.186132],[-80.81075,35.189482],[-80.81106,35.192654],[-80.810562,35.196268],[-80.810651,35.197337],[-80.811227,35.19849],[-80.812522,35.19951],[-80.812026,35.197028],[-80.8158,35.186751],[-80.819618,35.182929],[-80.82007,35.182795],[-80.823685,35.191303],[-80.827216,35.195922],[-80.830312,35.189244],[-80.835486,35.184799],[-80.836974,35.179377],[-80.839681,35.179921],[-80.84122,35.180877],[-80.843258,35.180744],[-80.844842,35.18155],[-80.844286,35.182232],[-80.841349,35.183093],[-80.841875,35.185404],[-80.841444,35.187793],[-80.838552,35.192723],[-80.838598,35.194997],[-80.837754,35.195635],[-80.836915,35.194899],[-80.835843,35.204478],[-80.836138,35.206133],[-80.835795,35.208184],[-80.836052,35.210302],[-80.835663,35.211082],[-80.834338,35.2122],[-80.833939,35.213349],[-80.837451,35.213949],[-80.844629,35.219973],[-80.848798,35.218697],[-80.850552,35.217675],[-80.853379,35.220379],[-80.854252,35.221945],[-80.856126,35.223663],[-80.857115,35.2242],[-80.862241,35.224686],[-80.864559,35.224391],[-80.867291,35.224387],[-80.868296,35.223996],[-80.868363,35.224691]]]}},{"type":"Feature","properties":{"district":"103","centroid_lon":-80.835725,"centroid_lat":35.060584,"sf1_2000_vap_flow":29967.13,"charlotte_2000_share_pct":70.87,"north_towns_2000_share_pct":0.0,"south_suburbs_2000_share_pct":9.46,"remainder_2000_share_pct":19.67,"top_2000_places":"Charlotte:70.9%; Remainder/unincorporated:19.7%; Pineville:9.5%; Other place:0.0%","senate_2002_margin_pct":33.17,"senate_2002_winner":"REP","president_2004_margin_pct":25.3,"president_2004_winner":"REP","governor_2004_margin_pct":8.33,"governor_2004_winner":"REP"},"geometry":{"type":"Polygon","coordinates":[[[-80.919818,35.091691],[-80.91536,35.105862],[-80.916046,35.110021],[-80.915701,35.110967],[-80.912909,35.113818],[-80.908863,35.116311],[-80.904713,35.118423],[-80.903961,35.119284],[-80.902665,35.121847],[-80.902054,35.121778],[-80.897965,35.123904],[-80.894019,35.1224],[-80.892879,35.122838],[-80.894822,35.117964],[-80.896475,35.115713],[-80.897028,35.114522],[-80.896908,35.113807],[-80.894856,35.110023],[-80.895908,35.109364],[-80.89342,35.10718],[-80.890949,35.105675],[-80.88094,35.101468],[-80.878068,35.099064],[-80.87637,35.096242],[-80.87339,35.096636],[-80.869976,35.096296],[-80.868527,35.095492],[-80.867147,35.096101],[-80.866828,35.096886],[-80.865327,35.096448],[-80.864693,35.097379],[-80.863288,35.097026],[-80.861062,35.097115],[-80.859963,35.097451],[-80.859687,35.097319],[-80.859454,35.096352],[-80.858069,35.093777],[-80.856692,35.092224],[-80.855023,35.091189],[-80.85311,35.088677],[-80.852923,35.087661],[-80.843491,35.087743],[-80.836611,35.086785],[-80.834996,35.08609],[-80.831906,35.083784],[-80.829349,35.08287],[-80.827246,35.082829],[-80.825839,35.083114],[-80.815767,35.086531],[-80.81188,35.087489],[-80.811999,35.08627],[-80.81158,35.084618],[-80.811856,35.083327],[-80.812996,35.082225],[-80.815082,35.08135],[-80.816052,35.08056],[-80.81651,35.079696],[-80.816965,35.076329],[-80.817896,35.076796],[-80.818443,35.077439],[-80.819757,35.077397],[-80.821934,35.076795],[-80.82231,35.076926],[-80.823314,35.075887],[-80.824556,35.072132],[-80.824484,35.07141],[-80.822363,35.065346],[-80.818095,35.060251],[-80.814191,35.053433],[-80.814877,35.04998],[-80.815907,35.047273],[-80.815744,35.046013],[-80.816454,35.045361],[-80.817023,35.044173],[-80.81798,35.043461],[-80.814456,35.042416],[-80.800302,35.039618],[-80.799088,35.042646],[-80.799399,35.044706],[-80.799165,35.045689],[-80.799295,35.046105],[-80.798725,35.046807],[-80.798874,35.047555],[-80.798336,35.048664],[-80.796775,35.050492],[-80.796794,35.053033],[-80.796168,35.053432],[-80.79505,35.053639],[-80.794852,35.054011],[-80.792412,35.055025],[-80.792787,35.056445],[-80.790484,35.058736],[-80.789395,35.060298],[-80.787763,35.062914],[-80.787898,35.063759],[-80.784607,35.064418],[-80.777724,35.063571],[-80.775557,35.063671],[-80.773191,35.06454],[-80.77134,35.064736],[-80.762046,35.06444],[-80.756948,35.068386],[-80.752462,35.070237],[-80.745644,35.075801],[-80.740285,35.077406],[-80.737753,35.079311],[-80.733001,35.080253],[-80.730261,35.081194],[-80.724181,35.082458],[-80.72249,35.082534],[-80.719822,35.081863],[-80.718447,35.082016],[-80.716702,35.082702],[-80.71161,35.085874],[-80.706986,35.084506],[-80.705195,35.084402],[-80.747375,35.05159],[-80.769933,35.034531],[-80.773162,35.032949],[-80.776664,35.03307],[-80.778663,35.032362],[-80.780741,35.033258],[-80.782224,35.033072],[-80.78993,35.031177],[-80.790224,35.030726],[-80.791755,35.030056],[-80.796894,35.029831],[-80.800803,35.027842],[-80.8022,35.028001],[-80.804506,35.027749],[-80.805094,35.027364],[-80.805562,35.025985],[-80.806371,35.025061],[-80.808194,35.023791],[-80.80911,35.022796],[-80.810867,35.021999],[-80.81161,35.020928],[-80.812558,35.020559],[-80.814349,35.020614],[-80.815686,35.019465],[-80.817991,35.018712],[-80.818886,35.018135],[-80.82101,35.017326],[-80.821705,35.016419],[-80.82232,35.016139],[-80.822206,35.01465],[-80.822814,35.014539],[-80.822961,35.014017],[-80.825059,35.011972],[-80.830102,35.00946],[-80.830771,35.008795],[-80.830717,35.008311],[-80.831078,35.007827],[-80.833984,35.007486],[-80.835426,35.006524],[-80.836422,35.006149],[-80.83727,35.005105],[-80.838018,35.005027],[-80.839895,35.002801],[-80.840278,35.001692],[-80.854825,35.018937],[-80.864343,35.029634],[-80.88529,35.053957],[-80.893219,35.062737],[-80.901334,35.070885],[-80.907836,35.077826],[-80.919818,35.091691]]]}},{"type":"Feature","properties":{"district":"104","centroid_lon":-80.810191,"centroid_lat":35.14958,"sf1_2000_vap_flow":56705.87,"charlotte_2000_share_pct":99.98,"north_towns_2000_share_pct":0.0,"south_suburbs_2000_share_pct":0.02,"remainder_2000_share_pct":0.0,"top_2000_places":"Charlotte:100.0%; Pineville:0.0%; Remainder/unincorporated:0.0%","senate_2002_margin_pct":22.91,"senate_2002_winner":"REP","president_2004_margin_pct":18.63,"president_2004_winner":"REP","governor_2004_margin_pct":0.93,"governor_2004_winner":"REP"},"geometry":{"type":"Polygon","coordinates":[[[-80.877415,35.098463],[-80.87581,35.102247],[-80.875611,35.102954],[-80.875896,35.103335],[-80.87554,35.10443],[-80.872722,35.108282],[-80.870546,35.11006],[-80.870062,35.112122],[-80.868663,35.114913],[-80.868585,35.117068],[-80.868109,35.118317],[-80.864639,35.118012],[-80.861517,35.117066],[-80.855558,35.118146],[-80.8545,35.121675],[-80.854651,35.125719],[-80.852971,35.13705],[-80.852052,35.137957],[-80.847518,35.140459],[-80.845498,35.144112],[-80.848058,35.144953],[-80.852424,35.145775],[-80.855718,35.148216],[-80.857795,35.148011],[-80.857932,35.149219],[-80.857455,35.150924],[-80.857161,35.151268],[-80.855228,35.152209],[-80.85508,35.153249],[-80.851615,35.156791],[-80.850618,35.159627],[-80.848782,35.16004],[-80.8487,35.159327],[-80.847961,35.15958],[-80.842402,35.16688],[-80.840134,35.174042],[-80.837806,35.176326],[-80.835486,35.184799],[-80.830312,35.189244],[-80.827216,35.195922],[-80.823685,35.191303],[-80.82007,35.182795],[-80.819791,35.182843],[-80.8158,35.186751],[-80.812026,35.197028],[-80.812522,35.19951],[-80.811865,35.199091],[-80.811043,35.198226],[-80.810575,35.196962],[-80.811054,35.192924],[-80.81075,35.189482],[-80.809149,35.186132],[-80.804833,35.180883],[-80.799422,35.177087],[-80.798232,35.175937],[-80.794054,35.177123],[-80.790135,35.179039],[-80.793105,35.185563],[-80.791773,35.186028],[-80.793344,35.189139],[-80.793826,35.19081],[-80.791369,35.193042],[-80.790505,35.194477],[-80.789967,35.195902],[-80.79127,35.196716],[-80.789262,35.198801],[-80.787436,35.200113],[-80.786247,35.201927],[-80.775094,35.200845],[-80.772704,35.200229],[-80.77059,35.199127],[-80.768759,35.197607],[-80.749314,35.175774],[-80.744715,35.170472],[-80.740777,35.164093],[-80.739407,35.162614],[-80.740856,35.161913],[-80.742359,35.161567],[-80.745397,35.161573],[-80.746303,35.161324],[-80.747055,35.16055],[-80.747542,35.158631],[-80.748124,35.158093],[-80.749406,35.157559],[-80.753216,35.163341],[-80.755723,35.161165],[-80.755465,35.157532],[-80.755881,35.156501],[-80.757094,35.155734],[-80.759761,35.155256],[-80.760667,35.154449],[-80.761152,35.152069],[-80.760377,35.150821],[-80.76156,35.149898],[-80.76147,35.148981],[-80.766267,35.148397],[-80.768933,35.147462],[-80.772535,35.148346],[-80.771233,35.142019],[-80.769819,35.1391],[-80.76805,35.137351],[-80.774564,35.131464],[-80.778113,35.130571],[-80.77949,35.129233],[-80.781897,35.128108],[-80.782989,35.127091],[-80.783756,35.125366],[-80.784798,35.124667],[-80.785614,35.124582],[-80.787182,35.125561],[-80.788704,35.125062],[-80.78979,35.124422],[-80.791248,35.121675],[-80.791775,35.119956],[-80.792495,35.11953],[-80.793691,35.119145],[-80.795603,35.11952],[-80.798013,35.12089],[-80.798709,35.120868],[-80.801707,35.118047],[-80.802824,35.118197],[-80.80361,35.118778],[-80.802518,35.119539],[-80.8025,35.120707],[-80.80278,35.121509],[-80.803259,35.121849],[-80.803233,35.122401],[-80.803833,35.122681],[-80.804542,35.123739],[-80.805431,35.123308],[-80.806307,35.123979],[-80.806466,35.125208],[-80.806915,35.126082],[-80.806771,35.128522],[-80.804976,35.129879],[-80.806569,35.132558],[-80.807622,35.133363],[-80.810447,35.131856],[-80.815125,35.127747],[-80.815952,35.126578],[-80.818166,35.122091],[-80.823817,35.115948],[-80.826405,35.110399],[-80.826765,35.10698],[-80.827194,35.10603],[-80.828047,35.105282],[-80.830133,35.104382],[-80.83331,35.104139],[-80.83478,35.103353],[-80.836905,35.100877],[-80.837889,35.099191],[-80.839455,35.097511],[-80.841734,35.09424],[-80.844056,35.092182],[-80.844358,35.091494],[-80.844778,35.088615],[-80.8452,35.087753],[-80.852923,35.087661],[-80.85311,35.088677],[-80.855023,35.091189],[-80.856692,35.092224],[-80.858069,35.093777],[-80.859454,35.096352],[-80.859687,35.097319],[-80.859963,35.097451],[-80.861062,35.097115],[-80.863288,35.097026],[-80.864693,35.097379],[-80.865327,35.096448],[-80.866828,35.096886],[-80.867147,35.096101],[-80.868527,35.095492],[-80.869976,35.096296],[-80.87339,35.096636],[-80.87637,35.096242],[-80.877415,35.098463]]]}},{"type":"Feature","properties":{"district":"105","centroid_lon":-80.690236,"centroid_lat":35.144129,"sf1_2000_vap_flow":44550.0,"charlotte_2000_share_pct":48.87,"north_towns_2000_share_pct":0.0,"south_suburbs_2000_share_pct":42.99,"remainder_2000_share_pct":8.14,"top_2000_places":"Charlotte:48.9%; Matthews:22.2%; Mint Hill:20.8%; Remainder/unincorporated:8.1%","senate_2002_margin_pct":41.2,"senate_2002_winner":"REP","president_2004_margin_pct":36.65,"president_2004_winner":"REP","governor_2004_margin_pct":16.29,"governor_2004_winner":"REP"},"geometry":{"type":"Polygon","coordinates":[[[-80.844866,35.088381],[-80.844358,35.091494],[-80.844056,35.092182],[-80.841734,35.09424],[-80.839455,35.097511],[-80.837889,35.099191],[-80.836905,35.100877],[-80.83478,35.103353],[-80.83331,35.104139],[-80.830133,35.104382],[-80.828047,35.105282],[-80.827194,35.10603],[-80.826765,35.10698],[-80.826405,35.110399],[-80.823757,35.116035],[-80.818166,35.122091],[-80.815952,35.126578],[-80.814889,35.128007],[-80.810447,35.131856],[-80.807622,35.133363],[-80.806569,35.132558],[-80.804976,35.129879],[-80.806786,35.12849],[-80.806915,35.126082],[-80.806466,35.125208],[-80.806421,35.124186],[-80.805431,35.123308],[-80.804542,35.123739],[-80.803833,35.122681],[-80.80325,35.122427],[-80.803259,35.121849],[-80.80278,35.121509],[-80.8025,35.120707],[-80.802518,35.119539],[-80.80361,35.118778],[-80.80237,35.118011],[-80.801457,35.118234],[-80.798709,35.120868],[-80.798013,35.12089],[-80.795603,35.11952],[-80.793691,35.119145],[-80.792495,35.11953],[-80.791775,35.119956],[-80.791248,35.121675],[-80.78979,35.124422],[-80.788704,35.125062],[-80.787182,35.125561],[-80.785614,35.124582],[-80.784798,35.124667],[-80.783756,35.125366],[-80.782989,35.127091],[-80.781897,35.128108],[-80.78123,35.128417],[-80.78082,35.12429],[-80.779444,35.117352],[-80.78309,35.115362],[-80.787915,35.11198],[-80.802556,35.108844],[-80.80667,35.105567],[-80.807928,35.105146],[-80.808563,35.101723],[-80.806343,35.102394],[-80.802653,35.104422],[-80.799421,35.10491],[-80.797289,35.104273],[-80.797095,35.103965],[-80.796216,35.104285],[-80.794409,35.104271],[-80.794144,35.103577],[-80.794254,35.102899],[-80.795006,35.103018],[-80.795636,35.103556],[-80.796088,35.103636],[-80.797621,35.10342],[-80.799089,35.102434],[-80.798393,35.100765],[-80.796576,35.100234],[-80.790219,35.102107],[-80.789418,35.101307],[-80.784124,35.098088],[-80.792194,35.094095],[-80.79537,35.093031],[-80.797638,35.092588],[-80.797376,35.090434],[-80.795268,35.090298],[-80.792664,35.08975],[-80.792367,35.090444],[-80.791766,35.09081],[-80.788947,35.090913],[-80.789737,35.088741],[-80.789548,35.08818],[-80.788334,35.086907],[-80.787632,35.085493],[-80.787839,35.084944],[-80.788477,35.084376],[-80.78838,35.083975],[-80.787822,35.083497],[-80.788144,35.082868],[-80.787514,35.082245],[-80.788099,35.082064],[-80.789209,35.080883],[-80.789895,35.080486],[-80.790975,35.079178],[-80.7936,35.07918],[-80.793575,35.078467],[-80.793313,35.078096],[-80.791141,35.076984],[-80.790483,35.076932],[-80.790489,35.076702],[-80.789411,35.07681],[-80.788748,35.076476],[-80.787277,35.076842],[-80.784217,35.075991],[-80.783191,35.076219],[-80.782599,35.076045],[-80.780798,35.076948],[-80.780329,35.076623],[-80.779818,35.076942],[-80.779441,35.076846],[-80.779835,35.078297],[-80.778389,35.078277],[-80.77756,35.078688],[-80.776946,35.080641],[-80.775936,35.081991],[-80.7749,35.081552],[-80.772546,35.081588],[-80.778741,35.100013],[-80.777391,35.100443],[-80.773594,35.102761],[-80.768463,35.105159],[-80.759575,35.111638],[-80.756542,35.113267],[-80.752614,35.11456],[-80.746946,35.114722],[-80.744843,35.115096],[-80.740003,35.117905],[-80.733478,35.120932],[-80.73234,35.120106],[-80.728386,35.119099],[-80.727408,35.11922],[-80.722405,35.115969],[-80.72021,35.118283],[-80.718177,35.117206],[-80.709922,35.117831],[-80.706562,35.117594],[-80.702268,35.11786],[-80.694936,35.119847],[-80.693656,35.120425],[-80.685594,35.129245],[-80.684458,35.132271],[-80.683274,35.13746],[-80.685563,35.137442],[-80.686397,35.137645],[-80.697205,35.144035],[-80.697548,35.144607],[-80.699441,35.151137],[-80.701736,35.154685],[-80.701459,35.157822],[-80.69964,35.16101],[-80.697709,35.160983],[-80.697377,35.161628],[-80.69732,35.162657],[-80.697511,35.162849],[-80.696082,35.163849],[-80.694365,35.164715],[-80.691456,35.165695],[-80.691223,35.165901],[-80.691262,35.166322],[-80.689682,35.166247],[-80.685275,35.16886],[-80.684208,35.169011],[-80.682756,35.169702],[-80.68217,35.169653],[-80.680581,35.170395],[-80.679399,35.1701],[-80.678088,35.171464],[-80.677108,35.172046],[-80.675775,35.172089],[-80.673199,35.173475],[-80.672288,35.17339],[-80.671949,35.174719],[-80.672126,35.177749],[-80.673539,35.178108],[-80.675917,35.179256],[-80.680633,35.180244],[-80.682453,35.181011],[-80.683919,35.182139],[-80.686896,35.185393],[-80.690027,35.18764],[-80.696182,35.189333],[-80.701602,35.190338],[-80.705177,35.192641],[-80.704825,35.192993],[-80.703467,35.1935],[-80.699373,35.196172],[-80.698828,35.196808],[-80.698794,35.197661],[-80.698162,35.197656],[-80.696027,35.198761],[-80.694588,35.200578],[-80.694795,35.201122],[-80.692442,35.202117],[-80.692255,35.201252],[-80.688384,35.198935],[-80.682966,35.19988],[-80.686444,35.203165],[-80.683845,35.204959],[-80.683245,35.205527],[-80.683033,35.206145],[-80.681831,35.206736],[-80.677557,35.207494],[-80.677073,35.206498],[-80.672747,35.204235],[-80.671417,35.204836],[-80.671778,35.205324],[-80.670634,35.205849],[-80.671266,35.206994],[-80.670115,35.207994],[-80.670104,35.208392],[-80.664855,35.208984],[-80.663747,35.209295],[-80.663009,35.209882],[-80.661291,35.212902],[-80.656292,35.216573],[-80.643291,35.222465],[-80.641728,35.22292],[-80.636343,35.223714],[-80.624879,35.223147],[-80.616971,35.224595],[-80.615049,35.225266],[-80.610766,35.227371],[-80.605369,35.231528],[-80.599733,35.234105],[-80.550349,35.208412],[-80.648039,35.129846],[-80.705195,35.084402],[-80.706986,35.084506],[-80.71161,35.085874],[-80.716702,35.082702],[-80.718447,35.082016],[-80.719822,35.081863],[-80.72249,35.082534],[-80.724181,35.082458],[-80.730261,35.081194],[-80.733001,35.080253],[-80.737753,35.079311],[-80.740285,35.077406],[-80.745644,35.075801],[-80.752462,35.070237],[-80.756948,35.068386],[-80.762046,35.06444],[-80.77134,35.064736],[-80.773191,35.06454],[-80.775557,35.063671],[-80.777724,35.063571],[-80.784607,35.064418],[-80.787898,35.063759],[-80.787763,35.062914],[-80.789395,35.060298],[-80.790484,35.058736],[-80.792787,35.056445],[-80.792412,35.055025],[-80.794852,35.054011],[-80.79505,35.053639],[-80.796168,35.053432],[-80.796794,35.053033],[-80.796775,35.050492],[-80.798336,35.048664],[-80.798874,35.047555],[-80.798725,35.046807],[-80.799295,35.046105],[-80.799165,35.045689],[-80.799399,35.044706],[-80.799088,35.042646],[-80.800302,35.039618],[-80.814456,35.042416],[-80.81798,35.043461],[-80.817023,35.044173],[-80.816454,35.045361],[-80.815744,35.046013],[-80.815907,35.047273],[-80.814877,35.04998],[-80.814191,35.053433],[-80.818095,35.060251],[-80.822363,35.065346],[-80.824484,35.07141],[-80.824556,35.072132],[-80.823314,35.075887],[-80.82231,35.076926],[-80.821934,35.076795],[-80.819757,35.077397],[-80.818443,35.077439],[-80.817896,35.076796],[-80.816965,35.076329],[-80.81651,35.079696],[-80.816052,35.08056],[-80.815082,35.08135],[-80.812996,35.082225],[-80.811856,35.083327],[-80.81158,35.084618],[-80.811999,35.08627],[-80.81188,35.087489],[-80.815767,35.086531],[-80.825839,35.083114],[-80.828066,35.082773],[-80.82997,35.082977],[-80.831906,35.083784],[-80.834996,35.08609],[-80.83616,35.08665],[-80.842234,35.087611],[-80.8452,35.087753],[-80.844866,35.088381]]]}},{"type":"Feature","properties":{"district":"106","centroid_lon":-80.796421,"centroid_lat":35.358728,"sf1_2000_vap_flow":30725.27,"charlotte_2000_share_pct":80.12,"north_towns_2000_share_pct":5.55,"south_suburbs_2000_share_pct":0.0,"remainder_2000_share_pct":14.33,"top_2000_places":"Charlotte:80.1%; Remainder/unincorporated:14.3%; Huntersville:5.5%","senate_2002_margin_pct":2.43,"senate_2002_winner":"REP","president_2004_margin_pct":-5.62,"president_2004_winner":"DEM","governor_2004_margin_pct":-20.41,"governor_2004_winner":"DEM"},"geometry":{"type":"Polygon","coordinates":[[[-80.858041,35.408939],[-80.852645,35.410412],[-80.838253,35.411162],[-80.837976,35.411459],[-80.837828,35.413649],[-80.83657,35.414805],[-80.835762,35.414233],[-80.835489,35.414437],[-80.834726,35.413835],[-80.834977,35.41362],[-80.834669,35.413387],[-80.834167,35.413847],[-80.834227,35.414318],[-80.833879,35.414451],[-80.833756,35.414136],[-80.833504,35.414394],[-80.829415,35.411689],[-80.829594,35.411227],[-80.829282,35.410834],[-80.8277,35.410286],[-80.82625,35.411212],[-80.825024,35.412381],[-80.82437,35.41257],[-80.823833,35.412441],[-80.823592,35.413183],[-80.817914,35.413362],[-80.814111,35.412491],[-80.803592,35.413887],[-80.801865,35.414384],[-80.800894,35.415122],[-80.798627,35.419612],[-80.792475,35.42554],[-80.787905,35.423244],[-80.781172,35.423469],[-80.77822,35.42269],[-80.777357,35.421729],[-80.775905,35.420952],[-80.773638,35.420625],[-80.772281,35.420762],[-80.767918,35.422373],[-80.764274,35.424776],[-80.760155,35.424211],[-80.758,35.423536],[-80.756739,35.423657],[-80.752167,35.41405],[-80.763549,35.412099],[-80.766414,35.401478],[-80.755309,35.394823],[-80.751421,35.388997],[-80.74441,35.380667],[-80.732757,35.371931],[-80.735148,35.36847],[-80.736584,35.367341],[-80.742149,35.365196],[-80.74182,35.364326],[-80.741856,35.363326],[-80.743705,35.360572],[-80.743933,35.359784],[-80.746639,35.359893],[-80.75284,35.359254],[-80.755835,35.35695],[-80.75658,35.355978],[-80.759007,35.350852],[-80.759273,35.347354],[-80.759634,35.346389],[-80.764057,35.343087],[-80.768459,35.341326],[-80.76974,35.340558],[-80.770542,35.339465],[-80.772981,35.33427],[-80.773179,35.332244],[-80.77225,35.329886],[-80.772251,35.329009],[-80.774647,35.322302],[-80.775694,35.32099],[-80.775352,35.320287],[-80.776315,35.317441],[-80.763158,35.31363],[-80.76004,35.312521],[-80.75744,35.311099],[-80.749784,35.305661],[-80.753863,35.299429],[-80.756583,35.2908],[-80.75765,35.289514],[-80.762454,35.285123],[-80.764112,35.284493],[-80.77367,35.28403],[-80.793526,35.278725],[-80.793579,35.284341],[-80.793846,35.285664],[-80.797877,35.295447],[-80.802793,35.302122],[-80.806806,35.300673],[-80.813377,35.302815],[-80.819649,35.305906],[-80.832234,35.314559],[-80.833674,35.315202],[-80.838077,35.310656],[-80.840315,35.308932],[-80.84483,35.307814],[-80.848476,35.307324],[-80.8478,35.311001],[-80.847632,35.314326],[-80.848754,35.333844],[-80.844898,35.334468],[-80.839702,35.337453],[-80.833566,35.339022],[-80.824174,35.338887],[-80.824381,35.342281],[-80.822399,35.355769],[-80.822701,35.358388],[-80.821086,35.360301],[-80.819722,35.363869],[-80.820966,35.366951],[-80.823083,35.36715],[-80.826852,35.369147],[-80.829324,35.369911],[-80.833212,35.370313],[-80.83801,35.370317],[-80.841257,35.368983],[-80.843089,35.367949],[-80.844097,35.37047],[-80.848958,35.378888],[-80.84991,35.38208],[-80.850172,35.386203],[-80.850801,35.389126],[-80.851952,35.391687],[-80.85487,35.396376],[-80.856205,35.399378],[-80.856875,35.401935],[-80.858041,35.408939]]]}},{"type":"Feature","properties":{"district":"107","centroid_lon":-80.866031,"centroid_lat":35.275647,"sf1_2000_vap_flow":43794.0,"charlotte_2000_share_pct":94.98,"north_towns_2000_share_pct":0.0,"south_suburbs_2000_share_pct":0.0,"remainder_2000_share_pct":5.02,"top_2000_places":"Charlotte:95.0%; Remainder/unincorporated:5.0%","senate_2002_margin_pct":-69.29,"senate_2002_winner":"DEM","president_2004_margin_pct":-68.56,"president_2004_winner":"DEM","governor_2004_margin_pct":-74.41,"governor_2004_winner":"DEM"},"geometry":{"type":"Polygon","coordinates":[[[-80.926979,35.323017],[-80.924873,35.325109],[-80.924245,35.325435],[-80.923972,35.326159],[-80.922025,35.326386],[-80.920566,35.326904],[-80.915641,35.327326],[-80.913142,35.326891],[-80.910736,35.327578],[-80.909693,35.328458],[-80.9089,35.327834],[-80.905245,35.326245],[-80.901982,35.322707],[-80.901756,35.323907],[-80.901285,35.324641],[-80.899789,35.325451],[-80.89768,35.327584],[-80.893101,35.329913],[-80.891668,35.331381],[-80.886102,35.333388],[-80.884406,35.333756],[-80.880217,35.333792],[-80.8742,35.333366],[-80.873279,35.331187],[-80.868532,35.327156],[-80.866842,35.325366],[-80.861913,35.329541],[-80.857981,35.33003],[-80.854134,35.331814],[-80.852467,35.332319],[-80.851158,35.333404],[-80.848754,35.333844],[-80.847632,35.314326],[-80.8478,35.311001],[-80.848476,35.307324],[-80.84483,35.307814],[-80.840315,35.308932],[-80.838077,35.310656],[-80.833674,35.315202],[-80.832234,35.314559],[-80.819649,35.305906],[-80.813377,35.302815],[-80.806806,35.300673],[-80.802793,35.302122],[-80.797877,35.295447],[-80.793846,35.285664],[-80.793579,35.284341],[-80.793526,35.278725],[-80.802775,35.276317],[-80.804722,35.276215],[-80.808826,35.276634],[-80.813937,35.270166],[-80.818035,35.262977],[-80.821367,35.258915],[-80.836149,35.239207],[-80.838431,35.236752],[-80.848393,35.239442],[-80.851093,35.241642],[-80.852215,35.243275],[-80.853101,35.242796],[-80.853883,35.241339],[-80.85815,35.241392],[-80.858713,35.241733],[-80.85845,35.240265],[-80.858897,35.237741],[-80.858708,35.23709],[-80.861482,35.236923],[-80.861467,35.236523],[-80.866406,35.230509],[-80.866785,35.22972],[-80.867143,35.226845],[-80.868275,35.225024],[-80.868296,35.223996],[-80.867291,35.224387],[-80.864559,35.224391],[-80.862241,35.224686],[-80.857115,35.2242],[-80.856126,35.223663],[-80.854252,35.221945],[-80.853379,35.220379],[-80.850552,35.217675],[-80.855071,35.214158],[-80.859761,35.20989],[-80.860506,35.207497],[-80.864937,35.202897],[-80.867482,35.199263],[-80.870319,35.196624],[-80.872174,35.195377],[-80.872548,35.194804],[-80.87281,35.194891],[-80.873301,35.194449],[-80.882631,35.19781],[-80.880183,35.202936],[-80.880742,35.203932],[-80.880972,35.205761],[-80.882246,35.206539],[-80.885346,35.206438],[-80.886467,35.207077],[-80.886878,35.207631],[-80.889295,35.208227],[-80.890473,35.207493],[-80.892399,35.205314],[-80.893499,35.204738],[-80.893713,35.205726],[-80.893625,35.207325],[-80.896998,35.207048],[-80.89759,35.211575],[-80.901294,35.211407],[-80.908152,35.210192],[-80.907987,35.210832],[-80.905905,35.214428],[-80.90556,35.216314],[-80.903301,35.220383],[-80.90001,35.221986],[-80.897883,35.224496],[-80.891097,35.224287],[-80.890383,35.226204],[-80.890677,35.226832],[-80.891928,35.227812],[-80.897411,35.236199],[-80.89714,35.2383],[-80.897073,35.243131],[-80.896577,35.2438],[-80.895795,35.244071],[-80.896269,35.244965],[-80.897191,35.245678],[-80.896181,35.247801],[-80.900911,35.252189],[-80.910409,35.25724],[-80.906745,35.261942],[-80.904521,35.260861],[-80.904076,35.261835],[-80.904074,35.26317],[-80.905831,35.263284],[-80.905651,35.26395],[-80.905004,35.264121],[-80.904193,35.265062],[-80.898369,35.264763],[-80.89843,35.266383],[-80.901071,35.266624],[-80.900195,35.269325],[-80.900794,35.27214],[-80.901094,35.27254],[-80.904294,35.27344],[-80.913566,35.274045],[-80.914741,35.27722],[-80.914802,35.27952],[-80.914264,35.281402],[-80.914251,35.282221],[-80.905149,35.282077],[-80.903685,35.281732],[-80.900384,35.279824],[-80.896875,35.276785],[-80.895499,35.277832],[-80.895336,35.27841],[-80.895639,35.2789],[-80.895486,35.279225],[-80.904264,35.284105],[-80.917279,35.29402],[-80.918934,35.295562],[-80.91992,35.297382],[-80.921194,35.297532],[-80.925309,35.299517],[-80.923389,35.301244],[-80.923352,35.30174],[-80.922623,35.302564],[-80.922444,35.303181],[-80.920592,35.304321],[-80.92035,35.30654],[-80.922328,35.311783],[-80.919383,35.311627],[-80.916037,35.31026],[-80.9163,35.312125],[-80.915862,35.314229],[-80.914978,35.315261],[-80.913886,35.316069],[-80.91252,35.31658],[-80.911204,35.316714],[-80.911909,35.317241],[-80.912791,35.318503],[-80.912961,35.319509],[-80.913713,35.320425],[-80.914272,35.320727],[-80.915351,35.320702],[-80.915943,35.319938],[-80.918827,35.32058],[-80.919603,35.320183],[-80.919767,35.319759],[-80.920238,35.31949],[-80.924751,35.319695],[-80.925735,35.319943],[-80.926979,35.323017]]]}},{"type":"Feature","properties":{"district":"112","centroid_lon":-80.70127,"centroid_lat":35.241486,"sf1_2000_vap_flow":45847.0,"charlotte_2000_share_pct":81.27,"north_towns_2000_share_pct":0.0,"south_suburbs_2000_share_pct":0.0,"remainder_2000_share_pct":18.73,"top_2000_places":"Charlotte:81.3%; Remainder/unincorporated:18.7%","senate_2002_margin_pct":-31.22,"senate_2002_winner":"DEM","president_2004_margin_pct":-36.39,"president_2004_winner":"DEM","governor_2004_margin_pct":-47.85,"governor_2004_winner":"DEM"},"geometry":{"type":"Polygon","coordinates":[[[-80.7812,35.247848],[-80.781027,35.249517],[-80.779822,35.254562],[-80.779324,35.255549],[-80.777496,35.257765],[-80.777246,35.258627],[-80.777328,35.259638],[-80.773264,35.262138],[-80.771957,35.262445],[-80.759365,35.263376],[-80.74862,35.266207],[-80.747315,35.266791],[-80.742621,35.269809],[-80.740729,35.272064],[-80.739942,35.271612],[-80.741698,35.26874],[-80.74242,35.267911],[-80.744104,35.26696],[-80.740521,35.267012],[-80.736062,35.265171],[-80.733914,35.265494],[-80.726985,35.267546],[-80.725767,35.268691],[-80.724035,35.271748],[-80.720622,35.274708],[-80.717982,35.276189],[-80.712613,35.278417],[-80.709365,35.278426],[-80.705765,35.27523],[-80.705133,35.274929],[-80.702671,35.274646],[-80.699198,35.274902],[-80.699574,35.275974],[-80.699039,35.277024],[-80.699028,35.278846],[-80.69951,35.281094],[-80.697845,35.28198],[-80.696292,35.283312],[-80.69115,35.285455],[-80.685135,35.293529],[-80.680129,35.29936],[-80.678117,35.301195],[-80.670317,35.278231],[-80.670104,35.275746],[-80.668494,35.273854],[-80.667851,35.272117],[-80.66724,35.269119],[-80.66648,35.267934],[-80.627595,35.248508],[-80.599733,35.234105],[-80.605369,35.231528],[-80.610766,35.227371],[-80.615049,35.225266],[-80.616971,35.224595],[-80.624879,35.223147],[-80.636343,35.223714],[-80.641728,35.22292],[-80.643291,35.222465],[-80.656292,35.216573],[-80.661291,35.212902],[-80.663009,35.209882],[-80.664409,35.209065],[-80.670257,35.208402],[-80.682244,35.210882],[-80.68698,35.211529],[-80.691186,35.211633],[-80.697918,35.210766],[-80.706296,35.208871],[-80.708197,35.208154],[-80.712414,35.207163],[-80.725949,35.202503],[-80.728314,35.202364],[-80.745327,35.20329],[-80.748354,35.204138],[-80.755293,35.208827],[-80.76028,35.211464],[-80.771281,35.213992],[-80.77062,35.215191],[-80.77033,35.218335],[-80.770575,35.219418],[-80.76933,35.219915],[-80.7677,35.223333],[-80.766918,35.224252],[-80.767386,35.225113],[-80.769386,35.226903],[-80.770342,35.228736],[-80.770894,35.23098],[-80.771216,35.23121],[-80.772462,35.231275],[-80.773971,35.23188],[-80.773742,35.232306],[-80.774072,35.23267],[-80.773984,35.233589],[-80.774516,35.233448],[-80.774624,35.234656],[-80.775587,35.236676],[-80.77913,35.241279],[-80.780048,35.242848],[-80.781,35.245765],[-80.7812,35.247848]]]}}],"county_boundary":{"type":"Polygon","coordinates":[[[-80.744436,35.380696],[-80.732757,35.371931],[-80.708878,35.35535],[-80.693061,35.346379],[-80.683071,35.315796],[-80.681165,35.310837],[-80.670317,35.278231],[-80.670104,35.275746],[-80.668494,35.273854],[-80.66724,35.269119],[-80.66648,35.267934],[-80.627595,35.248508],[-80.550349,35.208412],[-80.700995,35.087602],[-80.747375,35.05159],[-80.769933,35.034531],[-80.773162,35.032949],[-80.776664,35.03307],[-80.778663,35.032362],[-80.780741,35.033258],[-80.782224,35.033072],[-80.78993,35.031177],[-80.790224,35.030726],[-80.791755,35.030056],[-80.796894,35.029831],[-80.800803,35.027842],[-80.804506,35.027749],[-80.805094,35.027364],[-80.805562,35.025985],[-80.806371,35.025061],[-80.80911,35.022796],[-80.810867,35.021999],[-80.81161,35.020928],[-80.812558,35.020559],[-80.814349,35.020614],[-80.815686,35.019465],[-80.82101,35.017326],[-80.821705,35.016419],[-80.82232,35.016139],[-80.822206,35.01465],[-80.822814,35.014539],[-80.822961,35.014017],[-80.825059,35.011972],[-80.830102,35.00946],[-80.830771,35.008795],[-80.831078,35.007827],[-80.833984,35.007486],[-80.836422,35.006149],[-80.83727,35.005105],[-80.838018,35.005027],[-80.839895,35.002801],[-80.840278,35.001692],[-80.854825,35.018937],[-80.88529,35.053957],[-80.893219,35.062737],[-80.907836,35.077826],[-80.92717,35.100257],[-80.934739,35.107318],[-80.961935,35.090443],[-81.018976,35.057632],[-81.029272,35.051275],[-81.041496,35.044713],[-81.050923,35.056709],[-81.057672,35.061867],[-81.058207,35.064],[-81.057669,35.070811],[-81.057732,35.07411],[-81.056349,35.081549],[-81.057055,35.084864],[-81.056984,35.086446],[-81.056032,35.088154],[-81.053462,35.091369],[-81.051917,35.096279],[-81.05038,35.098372],[-81.047044,35.100337],[-81.044355,35.101162],[-81.038645,35.101984],[-81.036716,35.102735],[-81.035196,35.103776],[-81.033605,35.105702],[-81.032854,35.107377],[-81.032367,35.109619],[-81.032415,35.112149],[-81.033149,35.114595],[-81.035614,35.118584],[-81.037066,35.122963],[-81.038765,35.125449],[-81.040542,35.127196],[-81.043206,35.12882],[-81.050456,35.131109],[-81.052029,35.132833],[-81.051884,35.134497],[-81.048803,35.141052],[-81.047581,35.145196],[-81.046332,35.146729],[-81.044688,35.147734],[-81.042636,35.148126],[-81.037278,35.1481],[-81.033909,35.14869],[-81.032238,35.148412],[-81.025658,35.148667],[-81.023037,35.149521],[-81.021558,35.150378],[-81.018284,35.153554],[-81.017112,35.154318],[-81.015372,35.154146],[-81.011839,35.152749],[-81.009804,35.153028],[-81.008184,35.153858],[-81.006228,35.156089],[-81.005758,35.157545],[-81.005836,35.160877],[-81.006765,35.162751],[-81.007306,35.165175],[-81.003915,35.170407],[-81.003015,35.174106],[-81.00244,35.182065],[-81.003014,35.185069],[-81.0039,35.187033],[-81.00614,35.195082],[-81.006273,35.198349],[-81.005347,35.208286],[-81.007321,35.211799],[-81.010387,35.214983],[-81.014186,35.222366],[-81.014104,35.225219],[-81.012459,35.231474],[-81.010815,35.235964],[-81.010631,35.240647],[-81.010207,35.243198],[-81.008234,35.248473],[-81.008868,35.250706],[-81.011206,35.2523],[-81.014111,35.258513],[-81.01505,35.268655],[-81.013914,35.272519],[-81.011156,35.278053],[-81.008996,35.281043],[-81.007941,35.284164],[-81.006643,35.291326],[-81.004648,35.295327],[-81.003862,35.297916],[-81.001828,35.301235],[-81.001161,35.304928],[-80.999994,35.306209],[-80.997249,35.307757],[-80.995387,35.309472],[-80.994067,35.31152],[-80.992004,35.316643],[-80.990164,35.319551],[-80.988929,35.321006],[-80.984315,35.324085],[-80.981813,35.326969],[-80.980944,35.328822],[-80.980845,35.330549],[-80.981304,35.332273],[-80.982702,35.334722],[-80.984995,35.336605],[-80.985302,35.337217],[-80.985315,35.338938],[-80.984252,35.34091],[-80.981919,35.342485],[-80.976876,35.343896],[-80.975112,35.344709],[-80.973953,35.346152],[-80.973002,35.349879],[-80.971864,35.350843],[-80.970621,35.351323],[-80.968864,35.351372],[-80.967088,35.350794],[-80.963551,35.347399],[-80.962141,35.347046],[-80.958355,35.349526],[-80.954555,35.350676],[-80.952042,35.350971],[-80.944592,35.350508],[-80.942924,35.350748],[-80.937215,35.355081],[-80.934199,35.356934],[-80.931644,35.357757],[-80.92867,35.357504],[-80.926473,35.357879],[-80.924141,35.3588],[-80.923042,35.359917],[-80.923062,35.360648],[-80.923732,35.361287],[-80.926883,35.362521],[-80.931532,35.363108],[-80.935877,35.36211],[-80.9384,35.362948],[-80.942325,35.365169],[-80.947015,35.365846],[-80.951058,35.367004],[-80.954929,35.369808],[-80.956188,35.372769],[-80.957704,35.374587],[-80.960161,35.375413],[-80.962555,35.375284],[-80.964773,35.373523],[-80.96733,35.368553],[-80.968859,35.367065],[-80.9736,35.36402],[-80.976447,35.36416],[-80.9811,35.365909],[-80.98298,35.367469],[-80.985366,35.371387],[-80.986784,35.37569],[-80.986729,35.379481],[-80.986136,35.380582],[-80.98498,35.381469],[-80.983753,35.381846],[-80.979053,35.381686],[-80.976629,35.382452],[-80.967972,35.387566],[-80.957546,35.391024],[-80.956295,35.391895],[-80.954811,35.39381],[-80.954316,35.396608],[-80.954439,35.398805],[-80.954966,35.40031],[-80.956928,35.403721],[-80.958752,35.411945],[-80.958532,35.413611],[-80.95559,35.418923],[-80.955128,35.421023],[-80.955852,35.425751],[-80.957035,35.428785],[-80.95849,35.431264],[-80.958639,35.432901],[-80.956214,35.437824],[-80.953358,35.440714],[-80.952264,35.444408],[-80.95038,35.447302],[-80.94878,35.448613],[-80.946118,35.449718],[-80.943086,35.452916],[-80.94238,35.455147],[-80.942489,35.457728],[-80.943251,35.459373],[-80.950618,35.465289],[-80.951745,35.468224],[-80.951517,35.470453],[-80.948952,35.476149],[-80.948143,35.480044],[-80.945325,35.483617],[-80.945456,35.484502],[-80.947344,35.488473],[-80.906723,35.514785],[-80.784167,35.506017],[-80.785692,35.503085],[-80.787069,35.496875],[-80.786835,35.49307],[-80.781895,35.483819],[-80.781332,35.479658],[-80.779488,35.474922],[-80.779629,35.473218],[-80.779331,35.472012],[-80.775449,35.466699],[-80.774485,35.464399],[-80.773384,35.463148],[-80.772974,35.457679],[-80.752167,35.41405],[-80.763549,35.412099],[-80.766414,35.401478],[-80.755309,35.394823],[-80.751421,35.388997],[-80.744436,35.380696]]]}}