{"type":"FeatureCollection","features":[{"type":"Feature","properties":{"district":"88","centroid_lon":-80.91876,"centroid_lat":35.19817,"sf1_2000_vap_flow":50369.24,"charlotte_2000_share_pct":96.19,"north_towns_2000_share_pct":0.0,"south_suburbs_2000_share_pct":0.0,"remainder_2000_share_pct":3.81,"top_2000_places":"Charlotte:96.2%; Remainder/unincorporated:3.8%","president_2000_margin_pct":-18.42,"president_2000_winner":"DEM","governor_2000_margin_pct":-15.67,"governor_2000_winner":"DEM","senate_2002_margin_pct":-23.48,"senate_2002_winner":"DEM","president_2004_margin_pct":-25.37,"president_2004_winner":"DEM","governor_2004_margin_pct":-37.33,"governor_2004_winner":"DEM"},"geometry":{"type":"Polygon","coordinates":[[[-81.014266,35.22434],[-81.012459,35.231474],[-81.011245,35.23429],[-81.010815,35.235964],[-81.010383,35.242327],[-81.009142,35.245772],[-81.004877,35.244713],[-81.003104,35.243824],[-81.00086,35.242251],[-80.998603,35.241545],[-80.98508,35.241845],[-80.960642,35.238054],[-80.959305,35.237603],[-80.959007,35.233499],[-80.959322,35.232909],[-80.958691,35.233244],[-80.956243,35.233692],[-80.952755,35.233181],[-80.945799,35.228354],[-80.926044,35.225034],[-80.923499,35.225057],[-80.915894,35.225841],[-80.908794,35.222741],[-80.899661,35.222341],[-80.897883,35.224496],[-80.891097,35.224287],[-80.890394,35.22588],[-80.890583,35.226719],[-80.891928,35.227812],[-80.897411,35.236199],[-80.89714,35.2383],[-80.897073,35.243131],[-80.896577,35.2438],[-80.895795,35.244071],[-80.896269,35.244965],[-80.897191,35.245678],[-80.896181,35.247801],[-80.878854,35.234657],[-80.873979,35.231856],[-80.869596,35.230876],[-80.867253,35.229401],[-80.866883,35.228791],[-80.867088,35.227079],[-80.867364,35.226299],[-80.868275,35.225024],[-80.868296,35.223996],[-80.867291,35.224387],[-80.864559,35.224391],[-80.862569,35.224678],[-80.857356,35.224277],[-80.856126,35.223663],[-80.854252,35.221945],[-80.853379,35.220379],[-80.850552,35.217675],[-80.848798,35.218697],[-80.844629,35.219973],[-80.837451,35.213949],[-80.833939,35.213349],[-80.834338,35.2122],[-80.835663,35.211082],[-80.836052,35.210302],[-80.835795,35.208184],[-80.836138,35.206133],[-80.835902,35.20489],[-80.833068,35.20254],[-80.830018,35.198797],[-80.828675,35.197895],[-80.828116,35.196489],[-80.827216,35.195922],[-80.830312,35.189244],[-80.835486,35.184799],[-80.837806,35.176326],[-80.840134,35.174042],[-80.842274,35.167076],[-80.847961,35.15958],[-80.8487,35.159327],[-80.848782,35.16004],[-80.850618,35.159627],[-80.851428,35.157043],[-80.85508,35.153249],[-80.855137,35.15231],[-80.857372,35.15109],[-80.857912,35.149365],[-80.857795,35.148011],[-80.861467,35.147362],[-80.863992,35.147917],[-80.865435,35.147849],[-80.86598,35.148122],[-80.866546,35.147834],[-80.869936,35.147846],[-80.870387,35.148055],[-80.870726,35.147547],[-80.870777,35.146439],[-80.870454,35.142907],[-80.870911,35.142917],[-80.871766,35.142481],[-80.874107,35.143203],[-80.875563,35.142775],[-80.876504,35.142861],[-80.876579,35.138963],[-80.876335,35.137719],[-80.876681,35.137713],[-80.877676,35.142785],[-80.878023,35.142742],[-80.877563,35.140408],[-80.878194,35.140361],[-80.880556,35.141188],[-80.881324,35.141141],[-80.88337,35.13944],[-80.884379,35.137924],[-80.884322,35.137279],[-80.891848,35.13554],[-80.892176,35.13746],[-80.89364,35.139187],[-80.894381,35.140821],[-80.894462,35.142597],[-80.896592,35.147846],[-80.894805,35.149693],[-80.894038,35.151031],[-80.889849,35.163046],[-80.893903,35.163855],[-80.900167,35.162709],[-80.90207,35.163006],[-80.90308,35.163709],[-80.90359,35.164503],[-80.90388,35.167493],[-80.904718,35.169636],[-80.909878,35.166175],[-80.915771,35.16263],[-80.916807,35.163513],[-80.917921,35.163898],[-80.921222,35.163741],[-80.924226,35.167178],[-80.932558,35.186355],[-80.932583,35.187041],[-80.932235,35.187641],[-80.929171,35.189837],[-80.933317,35.193883],[-80.934524,35.193481],[-80.941819,35.193268],[-80.944904,35.192695],[-80.947192,35.19258],[-80.949613,35.191665],[-80.957967,35.189614],[-80.95921,35.18603],[-80.958253,35.184308],[-80.95644,35.182645],[-80.956859,35.179635],[-80.959144,35.173234],[-80.961532,35.171361],[-80.962888,35.172398],[-80.963908,35.172786],[-80.966841,35.171991],[-80.970741,35.171989],[-80.973189,35.171729],[-80.974511,35.171341],[-80.975469,35.172104],[-80.978957,35.173129],[-80.981087,35.173234],[-80.984998,35.172535],[-80.986347,35.172779],[-80.987635,35.173603],[-80.989813,35.174013],[-80.99068,35.174477],[-80.990913,35.174264],[-80.991877,35.174664],[-80.99323,35.174009],[-80.994726,35.17406],[-80.99603,35.173148],[-80.9983,35.173371],[-80.999798,35.173039],[-81.003185,35.173182],[-81.002387,35.180817],[-81.00244,35.182065],[-81.003014,35.185069],[-81.0039,35.187033],[-81.00614,35.195082],[-81.006273,35.198349],[-81.005288,35.207236],[-81.005347,35.208286],[-81.005916,35.209655],[-81.007321,35.211799],[-81.010099,35.214554],[-81.010587,35.215335],[-81.013959,35.221498],[-81.014266,35.22434]]]}},{"type":"Feature","properties":{"district":"92","centroid_lon":-80.969131,"centroid_lat":35.120749,"sf1_2000_vap_flow":24039.76,"charlotte_2000_share_pct":64.62,"north_towns_2000_share_pct":0.0,"south_suburbs_2000_share_pct":6.39,"remainder_2000_share_pct":28.99,"top_2000_places":"Charlotte:64.6%; Remainder/unincorporated:29.0%; Pineville:6.4%","president_2000_margin_pct":7.86,"president_2000_winner":"REP","governor_2000_margin_pct":5.51,"governor_2000_winner":"REP","senate_2002_margin_pct":-3.39,"senate_2002_winner":"DEM","president_2004_margin_pct":-6.83,"president_2004_winner":"DEM","governor_2004_margin_pct":-22.83,"governor_2004_winner":"DEM"},"geometry":{"type":"Polygon","coordinates":[[[-81.058199,35.065098],[-81.057669,35.070811],[-81.057581,35.075815],[-81.056349,35.081549],[-81.057055,35.084864],[-81.056984,35.086446],[-81.056032,35.088154],[-81.053462,35.091369],[-81.052245,35.095478],[-81.05155,35.096981],[-81.049539,35.099013],[-81.047044,35.100337],[-81.044355,35.101162],[-81.038645,35.101984],[-81.036069,35.103151],[-81.035196,35.103776],[-81.033605,35.105702],[-81.032854,35.107377],[-81.032367,35.109619],[-81.032415,35.112149],[-81.032792,35.113788],[-81.035329,35.117937],[-81.037066,35.122963],[-81.038765,35.125449],[-81.040542,35.127196],[-81.042125,35.128253],[-81.045715,35.12979],[-81.050456,35.131109],[-81.051399,35.131848],[-81.052029,35.132833],[-81.051884,35.134497],[-81.048803,35.141052],[-81.047792,35.144782],[-81.046332,35.146729],[-81.044688,35.147734],[-81.043586,35.148006],[-81.037278,35.1481],[-81.033909,35.14869],[-81.032238,35.148412],[-81.027146,35.148535],[-81.024721,35.148877],[-81.023037,35.149521],[-81.02115,35.150664],[-81.018284,35.153554],[-81.017112,35.154318],[-81.015372,35.154146],[-81.012698,35.152911],[-81.011839,35.152749],[-81.009804,35.153028],[-81.008733,35.153501],[-81.006898,35.155116],[-81.005806,35.157023],[-81.005836,35.160877],[-81.006765,35.162751],[-81.007306,35.165175],[-81.003915,35.170407],[-81.003185,35.173182],[-80.999798,35.173039],[-80.9983,35.173371],[-80.99603,35.173148],[-80.994726,35.17406],[-80.99323,35.174009],[-80.991877,35.174664],[-80.990913,35.174264],[-80.99068,35.174477],[-80.989813,35.174013],[-80.987635,35.173603],[-80.986347,35.172779],[-80.984998,35.172535],[-80.981087,35.173234],[-80.978957,35.173129],[-80.975469,35.172104],[-80.974511,35.171341],[-80.973189,35.171729],[-80.970741,35.171989],[-80.966841,35.171991],[-80.963908,35.172786],[-80.962888,35.172398],[-80.961532,35.171361],[-80.959144,35.173234],[-80.956859,35.179635],[-80.95644,35.182645],[-80.958253,35.184308],[-80.95921,35.18603],[-80.957967,35.189614],[-80.949613,35.191665],[-80.947192,35.19258],[-80.944904,35.192695],[-80.941819,35.193268],[-80.934524,35.193481],[-80.933317,35.193883],[-80.929171,35.189837],[-80.932235,35.187641],[-80.932583,35.187041],[-80.932558,35.186355],[-80.924226,35.167178],[-80.921222,35.163741],[-80.917921,35.163898],[-80.916807,35.163513],[-80.915771,35.16263],[-80.909878,35.166175],[-80.904718,35.169636],[-80.90388,35.167493],[-80.90359,35.164503],[-80.90308,35.163709],[-80.90207,35.163006],[-80.900167,35.162709],[-80.893903,35.163855],[-80.889849,35.163046],[-80.894038,35.151031],[-80.894805,35.149693],[-80.896592,35.147846],[-80.894462,35.142597],[-80.894381,35.140821],[-80.89364,35.139187],[-80.892176,35.13746],[-80.891848,35.13554],[-80.884322,35.137279],[-80.884379,35.137924],[-80.88337,35.13944],[-80.881324,35.141141],[-80.880556,35.141188],[-80.878194,35.140361],[-80.877563,35.140408],[-80.878023,35.142742],[-80.877676,35.142785],[-80.876681,35.137713],[-80.876335,35.137719],[-80.875296,35.13269],[-80.875356,35.13128],[-80.876101,35.129221],[-80.877611,35.126804],[-80.88045,35.120804],[-80.882999,35.116609],[-80.883355,35.114965],[-80.882057,35.109515],[-80.883331,35.110177],[-80.882627,35.104865],[-80.88292,35.102414],[-80.88094,35.101468],[-80.878917,35.09995],[-80.877444,35.098263],[-80.877465,35.097228],[-80.878652,35.093912],[-80.879531,35.092704],[-80.884001,35.094259],[-80.88656,35.08854],[-80.886782,35.085333],[-80.885245,35.079466],[-80.887079,35.078877],[-80.887424,35.078011],[-80.887136,35.077655],[-80.88574,35.077409],[-80.884881,35.076828],[-80.884785,35.076371],[-80.885317,35.075492],[-80.886759,35.074779],[-80.887696,35.076251],[-80.890764,35.076628],[-80.892227,35.075873],[-80.892163,35.074025],[-80.893262,35.073712],[-80.893555,35.073372],[-80.893642,35.073097],[-80.892896,35.072434],[-80.892329,35.072996],[-80.891813,35.073144],[-80.890044,35.072989],[-80.889954,35.071442],[-80.888501,35.069926],[-80.888002,35.068823],[-80.888138,35.068025],[-80.88877,35.067275],[-80.889794,35.067627],[-80.88992,35.068674],[-80.890209,35.068972],[-80.89192,35.069164],[-80.893046,35.068841],[-80.894003,35.070592],[-80.895263,35.070819],[-80.897214,35.070676],[-80.897414,35.069638],[-80.897257,35.068753],[-80.896364,35.067513],[-80.895624,35.067054],[-80.895648,35.066822],[-80.896521,35.06655],[-80.896853,35.067289],[-80.897634,35.067651],[-80.898167,35.067633],[-80.907836,35.077826],[-80.92717,35.100257],[-80.934739,35.107318],[-80.961935,35.090443],[-81.018976,35.057632],[-81.02486,35.054185],[-81.029272,35.051275],[-81.041496,35.044713],[-81.050923,35.056709],[-81.057672,35.061867],[-81.058137,35.06339],[-81.058199,35.065098]]]}},{"type":"Feature","properties":{"district":"98","centroid_lon":-80.868943,"centroid_lat":35.455366,"sf1_2000_vap_flow":28640.72,"charlotte_2000_share_pct":0.0,"north_towns_2000_share_pct":90.7,"south_suburbs_2000_share_pct":0.0,"remainder_2000_share_pct":9.3,"top_2000_places":"Huntersville:38.6%; Cornelius:32.4%; Davidson:19.7%; Remainder/unincorporated:9.3%","president_2000_margin_pct":23.46,"president_2000_winner":"REP","governor_2000_margin_pct":20.33,"governor_2000_winner":"REP","senate_2002_margin_pct":31.2,"senate_2002_winner":"REP","president_2004_margin_pct":27.97,"president_2004_winner":"REP","governor_2004_margin_pct":9.18,"governor_2004_winner":"REP"},"geometry":{"type":"Polygon","coordinates":[[[-80.958728,35.412505],[-80.957987,35.414834],[-80.95559,35.418923],[-80.955128,35.421023],[-80.955906,35.425932],[-80.957035,35.428785],[-80.958636,35.431697],[-80.958691,35.432634],[-80.958447,35.433496],[-80.956214,35.437824],[-80.953358,35.440714],[-80.952264,35.444408],[-80.95038,35.447302],[-80.94878,35.448613],[-80.946118,35.449718],[-80.943086,35.452916],[-80.94238,35.455147],[-80.942489,35.457728],[-80.943251,35.459373],[-80.944009,35.460138],[-80.948581,35.463412],[-80.950618,35.465289],[-80.951368,35.46671],[-80.951745,35.468224],[-80.951517,35.470453],[-80.948952,35.476149],[-80.948247,35.478714],[-80.948143,35.480044],[-80.947861,35.480698],[-80.945819,35.482798],[-80.945325,35.483617],[-80.945456,35.484502],[-80.947344,35.488473],[-80.906723,35.514785],[-80.839274,35.51013],[-80.784167,35.506017],[-80.785692,35.503085],[-80.787069,35.496875],[-80.786864,35.493156],[-80.785459,35.490837],[-80.783762,35.487574],[-80.783661,35.48695],[-80.781895,35.483819],[-80.781332,35.479658],[-80.779488,35.474922],[-80.779629,35.473218],[-80.779331,35.472012],[-80.775449,35.466699],[-80.775207,35.466285],[-80.775289,35.465929],[-80.774485,35.464399],[-80.773384,35.463148],[-80.773314,35.460958],[-80.77301,35.46044],[-80.773224,35.460036],[-80.772974,35.457679],[-80.756739,35.423657],[-80.758,35.423536],[-80.760155,35.424211],[-80.764274,35.424776],[-80.767708,35.422478],[-80.772018,35.420851],[-80.77336,35.420615],[-80.775519,35.420847],[-80.777137,35.421567],[-80.778391,35.42276],[-80.781537,35.423524],[-80.787798,35.423221],[-80.792335,35.425442],[-80.802927,35.436532],[-80.803041,35.435168],[-80.803582,35.433952],[-80.805516,35.433869],[-80.806873,35.434408],[-80.808473,35.435564],[-80.812763,35.435699],[-80.817327,35.438884],[-80.820958,35.439442],[-80.821785,35.439196],[-80.823515,35.43811],[-80.826109,35.437997],[-80.831096,35.438224],[-80.833364,35.437949],[-80.84016,35.435165],[-80.843763,35.434592],[-80.844521,35.440773],[-80.853448,35.441398],[-80.85356,35.439917],[-80.852698,35.438453],[-80.852618,35.43762],[-80.853428,35.437495],[-80.853303,35.437042],[-80.853738,35.434802],[-80.853532,35.433905],[-80.854939,35.433155],[-80.854411,35.432341],[-80.856993,35.430916],[-80.858588,35.431122],[-80.858422,35.432358],[-80.859105,35.432374],[-80.859026,35.431252],[-80.859446,35.429922],[-80.859908,35.429447],[-80.859116,35.429488],[-80.856903,35.428389],[-80.858899,35.428867],[-80.860703,35.42844],[-80.858485,35.426029],[-80.857782,35.426467],[-80.855915,35.424327],[-80.85557,35.424377],[-80.855048,35.423723],[-80.862696,35.421702],[-80.860454,35.417866],[-80.859224,35.414975],[-80.85639,35.399934],[-80.855249,35.397099],[-80.851952,35.391687],[-80.850955,35.389561],[-80.850232,35.386665],[-80.849673,35.380972],[-80.84881,35.378556],[-80.847505,35.376201],[-80.854162,35.375578],[-80.858694,35.376857],[-80.866316,35.379815],[-80.876341,35.381633],[-80.877521,35.382018],[-80.883421,35.38512],[-80.881577,35.386972],[-80.885827,35.390849],[-80.889401,35.392389],[-80.89716,35.393273],[-80.911655,35.389012],[-80.917579,35.389014],[-80.921006,35.388561],[-80.921004,35.390479],[-80.922658,35.392365],[-80.923876,35.394782],[-80.923102,35.397761],[-80.926488,35.407844],[-80.926493,35.408628],[-80.925819,35.4103],[-80.928428,35.41142],[-80.929858,35.412368],[-80.930573,35.413556],[-80.932506,35.41528],[-80.934108,35.415413],[-80.936367,35.410487],[-80.937613,35.409735],[-80.938309,35.408367],[-80.939735,35.407514],[-80.940307,35.407418],[-80.940976,35.406771],[-80.941631,35.406692],[-80.941612,35.406405],[-80.942453,35.406118],[-80.943899,35.404972],[-80.944632,35.405061],[-80.945081,35.405374],[-80.945786,35.405294],[-80.945848,35.404366],[-80.946136,35.404127],[-80.945971,35.403733],[-80.947029,35.403177],[-80.9479,35.40184],[-80.948557,35.401613],[-80.949267,35.400683],[-80.949935,35.400535],[-80.95115,35.400831],[-80.951601,35.401384],[-80.953158,35.401932],[-80.95353,35.401722],[-80.9533,35.401166],[-80.953932,35.400722],[-80.954807,35.401681],[-80.955708,35.401623],[-80.956812,35.403386],[-80.957186,35.404604],[-80.958648,35.41111],[-80.958728,35.412505]]]}},{"type":"Feature","properties":{"district":"99","centroid_lon":-80.724599,"centroid_lat":35.285153,"sf1_2000_vap_flow":40097.0,"charlotte_2000_share_pct":88.71,"north_towns_2000_share_pct":0.0,"south_suburbs_2000_share_pct":0.0,"remainder_2000_share_pct":11.29,"top_2000_places":"Charlotte:88.7%; Remainder/unincorporated:11.3%","president_2000_margin_pct":-12.64,"president_2000_winner":"DEM","governor_2000_margin_pct":-13.34,"governor_2000_winner":"DEM","senate_2002_margin_pct":-46.25,"senate_2002_winner":"DEM","president_2004_margin_pct":-47.43,"president_2004_winner":"DEM","governor_2004_margin_pct":-56.18,"governor_2004_winner":"DEM"},"geometry":{"type":"Polygon","coordinates":[[[-80.79516,35.261398],[-80.794831,35.267465],[-80.793522,35.273669],[-80.793526,35.278725],[-80.77367,35.28403],[-80.764112,35.284493],[-80.762454,35.285123],[-80.75765,35.289514],[-80.756583,35.2908],[-80.753863,35.299429],[-80.748811,35.307167],[-80.722493,35.332438],[-80.721039,35.333508],[-80.719163,35.334354],[-80.715341,35.335467],[-80.709539,35.33659],[-80.70804,35.33709],[-80.693654,35.346734],[-80.693061,35.346379],[-80.683071,35.315796],[-80.681165,35.310837],[-80.678117,35.301195],[-80.670317,35.278231],[-80.670104,35.275746],[-80.668494,35.273854],[-80.667851,35.272117],[-80.66724,35.269119],[-80.66648,35.267934],[-80.666095,35.267747],[-80.666391,35.265266],[-80.667027,35.264328],[-80.672627,35.260576],[-80.677661,35.258412],[-80.678848,35.258103],[-80.680542,35.258075],[-80.684736,35.25883],[-80.68965,35.258462],[-80.694112,35.260315],[-80.695204,35.260336],[-80.699702,35.257813],[-80.700251,35.257094],[-80.702047,35.253303],[-80.703213,35.252683],[-80.710673,35.254959],[-80.720616,35.255674],[-80.724015,35.256921],[-80.727185,35.2586],[-80.736216,35.258278],[-80.736377,35.254836],[-80.737138,35.249869],[-80.737751,35.242831],[-80.737955,35.239797],[-80.737675,35.237509],[-80.739103,35.232637],[-80.739917,35.231733],[-80.759239,35.237858],[-80.758657,35.238452],[-80.756106,35.239418],[-80.758072,35.241487],[-80.75779,35.241752],[-80.757921,35.241841],[-80.76079,35.242174],[-80.760989,35.244607],[-80.761688,35.246198],[-80.761087,35.249002],[-80.761998,35.250226],[-80.764967,35.249322],[-80.77078,35.249171],[-80.776319,35.250776],[-80.781027,35.249517],[-80.779822,35.254562],[-80.779324,35.255549],[-80.777496,35.257765],[-80.777246,35.258627],[-80.777328,35.259638],[-80.779426,35.258627],[-80.782186,35.258055],[-80.793253,35.258493],[-80.794765,35.258342],[-80.79516,35.261398]]]}},{"type":"Feature","properties":{"district":"100","centroid_lon":-80.754331,"centroid_lat":35.187807,"sf1_2000_vap_flow":53674.5,"charlotte_2000_share_pct":100.0,"north_towns_2000_share_pct":0.0,"south_suburbs_2000_share_pct":0.0,"remainder_2000_share_pct":0.0,"top_2000_places":"Charlotte:100.0%; Matthews:0.0%","president_2000_margin_pct":-11.04,"president_2000_winner":"DEM","governor_2000_margin_pct":-10.19,"governor_2000_winner":"DEM","senate_2002_margin_pct":-20.08,"senate_2002_winner":"DEM","president_2004_margin_pct":-28.85,"president_2004_winner":"DEM","governor_2004_margin_pct":-41.72,"governor_2004_winner":"DEM"},"geometry":{"type":"Polygon","coordinates":[[[-80.812522,35.19951],[-80.811589,35.202148],[-80.809262,35.204525],[-80.804209,35.207133],[-80.800334,35.206541],[-80.798034,35.207779],[-80.79527,35.20623],[-80.791064,35.203118],[-80.788948,35.202311],[-80.786247,35.201927],[-80.782593,35.209684],[-80.780967,35.213884],[-80.780725,35.215613],[-80.77572,35.215132],[-80.771281,35.213992],[-80.77062,35.215191],[-80.77033,35.218335],[-80.770575,35.219418],[-80.76933,35.219915],[-80.767299,35.223893],[-80.763837,35.226765],[-80.762302,35.226561],[-80.760644,35.225128],[-80.757213,35.223321],[-80.752878,35.21954],[-80.748497,35.224568],[-80.746402,35.227971],[-80.745519,35.228588],[-80.743012,35.229597],[-80.739917,35.231733],[-80.729391,35.228343],[-80.726571,35.227706],[-80.727738,35.229545],[-80.730539,35.232081],[-80.723287,35.230775],[-80.719986,35.230026],[-80.719914,35.228152],[-80.720568,35.225654],[-80.715465,35.225613],[-80.712491,35.224789],[-80.708237,35.224614],[-80.708242,35.224164],[-80.708811,35.223053],[-80.710693,35.220245],[-80.710022,35.218378],[-80.710738,35.217899],[-80.711058,35.217139],[-80.713784,35.218271],[-80.715927,35.217544],[-80.721484,35.219546],[-80.723085,35.219443],[-80.722393,35.217801],[-80.722503,35.216611],[-80.723086,35.215667],[-80.725409,35.213451],[-80.726013,35.212135],[-80.725949,35.202503],[-80.723972,35.203104],[-80.722936,35.201001],[-80.720844,35.199593],[-80.725833,35.193371],[-80.72943,35.187313],[-80.729972,35.185905],[-80.724079,35.17924],[-80.722628,35.177958],[-80.720604,35.17692],[-80.718565,35.175091],[-80.716977,35.174897],[-80.714981,35.175769],[-80.713906,35.175977],[-80.710189,35.175644],[-80.70871,35.175066],[-80.706841,35.173344],[-80.710427,35.168329],[-80.715936,35.162911],[-80.717593,35.162017],[-80.716035,35.159704],[-80.716532,35.159457],[-80.715869,35.158186],[-80.720286,35.154757],[-80.71911,35.153849],[-80.719409,35.151083],[-80.716117,35.148035],[-80.719887,35.146808],[-80.719545,35.146381],[-80.722372,35.146024],[-80.721974,35.145378],[-80.72252,35.145089],[-80.720322,35.142582],[-80.722061,35.142639],[-80.723319,35.141671],[-80.727866,35.142004],[-80.727292,35.141094],[-80.731051,35.139034],[-80.72934,35.136657],[-80.736499,35.13399],[-80.740616,35.142553],[-80.741647,35.144066],[-80.745416,35.148017],[-80.745826,35.14906],[-80.74581,35.150475],[-80.748191,35.153845],[-80.749591,35.157345],[-80.750907,35.158898],[-80.754964,35.162002],[-80.755554,35.16146],[-80.755807,35.160842],[-80.755465,35.157532],[-80.755881,35.156501],[-80.756873,35.155807],[-80.759403,35.155385],[-80.760443,35.154759],[-80.761892,35.155604],[-80.763184,35.157656],[-80.764218,35.158489],[-80.76581,35.159094],[-80.767032,35.158188],[-80.769418,35.161123],[-80.770384,35.160355],[-80.774565,35.162971],[-80.775677,35.162726],[-80.776254,35.163649],[-80.77486,35.164625],[-80.773575,35.166307],[-80.775504,35.167823],[-80.777603,35.16904],[-80.780543,35.1676],[-80.780894,35.168057],[-80.78341,35.169131],[-80.786281,35.171421],[-80.786658,35.172324],[-80.791292,35.175944],[-80.792756,35.177775],[-80.794247,35.177052],[-80.798232,35.175937],[-80.799422,35.177087],[-80.804833,35.180883],[-80.809149,35.186132],[-80.81075,35.189482],[-80.81106,35.192654],[-80.810562,35.196268],[-80.810651,35.197337],[-80.811227,35.19849],[-80.812522,35.19951]]]}},{"type":"Feature","properties":{"district":"101","centroid_lon":-80.93827,"centroid_lat":35.281619,"sf1_2000_vap_flow":37619.91,"charlotte_2000_share_pct":86.41,"north_towns_2000_share_pct":0.0,"south_suburbs_2000_share_pct":0.0,"remainder_2000_share_pct":13.59,"top_2000_places":"Charlotte:86.4%; Remainder/unincorporated:13.6%","president_2000_margin_pct":-7.87,"president_2000_winner":"DEM","governor_2000_margin_pct":-11.9,"governor_2000_winner":"DEM","senate_2002_margin_pct":-18.13,"senate_2002_winner":"DEM","president_2004_margin_pct":-22.82,"president_2004_winner":"DEM","governor_2004_margin_pct":-37.94,"governor_2004_winner":"DEM"},"geometry":{"type":"Polygon","coordinates":[[[-81.015011,35.268939],[-81.014896,35.26979],[-81.013002,35.274657],[-81.011156,35.278053],[-81.008996,35.281043],[-81.007941,35.284164],[-81.006643,35.291326],[-81.005771,35.293454],[-81.004648,35.295327],[-81.003862,35.297916],[-81.001828,35.301235],[-81.001544,35.303928],[-81.001161,35.304928],[-80.999994,35.306209],[-80.997249,35.307757],[-80.995387,35.309472],[-80.994067,35.31152],[-80.992004,35.316643],[-80.990164,35.319551],[-80.988929,35.321006],[-80.985748,35.322923],[-80.984315,35.324085],[-80.981813,35.326969],[-80.980944,35.328822],[-80.980845,35.330549],[-80.981304,35.332273],[-80.982702,35.334722],[-80.984995,35.336605],[-80.985302,35.337217],[-80.985315,35.338938],[-80.984894,35.340059],[-80.984252,35.34091],[-80.981919,35.342485],[-80.976876,35.343896],[-80.975112,35.344709],[-80.973953,35.346152],[-80.973002,35.349879],[-80.971864,35.350843],[-80.970621,35.351323],[-80.968864,35.351372],[-80.967088,35.350794],[-80.966047,35.350031],[-80.963551,35.347399],[-80.962539,35.347025],[-80.961433,35.347298],[-80.958355,35.349526],[-80.954555,35.350676],[-80.950949,35.350972],[-80.943632,35.350582],[-80.943516,35.349531],[-80.941044,35.345375],[-80.939473,35.343283],[-80.939381,35.341556],[-80.938419,35.339168],[-80.938262,35.335643],[-80.937268,35.333458],[-80.936033,35.334303],[-80.933187,35.3352],[-80.928809,35.334779],[-80.922503,35.335938],[-80.917943,35.335351],[-80.913988,35.335995],[-80.912632,35.33418],[-80.910954,35.33005],[-80.910089,35.328848],[-80.9089,35.327834],[-80.905245,35.326245],[-80.901982,35.322707],[-80.89431,35.320922],[-80.88713,35.317736],[-80.875948,35.309443],[-80.871028,35.307163],[-80.876418,35.302369],[-80.878158,35.301294],[-80.876314,35.298879],[-80.874655,35.295759],[-80.873062,35.293511],[-80.871952,35.292615],[-80.875803,35.293189],[-80.876796,35.292738],[-80.877077,35.287738],[-80.879246,35.288376],[-80.882142,35.288012],[-80.882104,35.287853],[-80.875519,35.278578],[-80.874645,35.275887],[-80.87358,35.274348],[-80.872615,35.275766],[-80.871382,35.276362],[-80.866993,35.276054],[-80.866736,35.275767],[-80.866426,35.274573],[-80.865798,35.273423],[-80.865363,35.273259],[-80.865194,35.272496],[-80.86567,35.270524],[-80.865719,35.268937],[-80.870032,35.268084],[-80.869315,35.26533],[-80.868718,35.264718],[-80.868814,35.263329],[-80.868043,35.26118],[-80.86849,35.258838],[-80.868032,35.258412],[-80.865137,35.257408],[-80.864916,35.256778],[-80.865084,35.253566],[-80.85886,35.25109],[-80.856875,35.249847],[-80.855554,35.248657],[-80.85434,35.247253],[-80.854285,35.246961],[-80.854534,35.246728],[-80.852215,35.243275],[-80.853101,35.242796],[-80.853883,35.241339],[-80.85815,35.241392],[-80.858713,35.241733],[-80.85845,35.240265],[-80.858897,35.237741],[-80.858708,35.23709],[-80.861482,35.236923],[-80.861467,35.236523],[-80.866406,35.230509],[-80.866931,35.228978],[-80.869251,35.230728],[-80.873979,35.231856],[-80.878854,35.234657],[-80.896181,35.247801],[-80.897191,35.245678],[-80.896269,35.244965],[-80.895795,35.244071],[-80.896577,35.2438],[-80.897073,35.243131],[-80.89714,35.2383],[-80.897431,35.236284],[-80.891928,35.227812],[-80.890505,35.226593],[-80.890394,35.22588],[-80.891097,35.224287],[-80.897883,35.224496],[-80.899661,35.222341],[-80.900394,35.222341],[-80.908794,35.222741],[-80.915894,35.225841],[-80.923499,35.225057],[-80.926044,35.225034],[-80.929376,35.225472],[-80.945799,35.228354],[-80.952755,35.233181],[-80.956243,35.233692],[-80.958691,35.233244],[-80.959322,35.232909],[-80.959007,35.233499],[-80.959305,35.237603],[-80.960985,35.238142],[-80.98508,35.241845],[-80.998603,35.241545],[-81.00086,35.242251],[-81.003104,35.243824],[-81.004877,35.244713],[-81.009142,35.245772],[-81.008234,35.248473],[-81.008868,35.250706],[-81.011206,35.2523],[-81.011788,35.253928],[-81.013361,35.256605],[-81.014111,35.258513],[-81.015011,35.268939]]]}},{"type":"Feature","properties":{"district":"102","centroid_lon":-80.811359,"centroid_lat":35.238086,"sf1_2000_vap_flow":52653.0,"charlotte_2000_share_pct":100.0,"north_towns_2000_share_pct":0.0,"south_suburbs_2000_share_pct":0.0,"remainder_2000_share_pct":0.0,"top_2000_places":"Charlotte:100.0%","president_2000_margin_pct":-53.05,"president_2000_winner":"DEM","governor_2000_margin_pct":-50.76,"governor_2000_winner":"DEM","senate_2002_margin_pct":-46.19,"senate_2002_winner":"DEM","president_2004_margin_pct":-48.87,"president_2004_winner":"DEM","governor_2004_margin_pct":-57.09,"governor_2004_winner":"DEM"},"geometry":{"type":"Polygon","coordinates":[[[-80.868363,35.224691],[-80.867143,35.226845],[-80.866931,35.228978],[-80.866548,35.230291],[-80.861467,35.236523],[-80.861482,35.236923],[-80.858708,35.23709],[-80.858897,35.237741],[-80.85845,35.240265],[-80.858713,35.241733],[-80.85815,35.241392],[-80.853883,35.241339],[-80.853101,35.242796],[-80.852215,35.243275],[-80.854534,35.246728],[-80.854285,35.246961],[-80.85434,35.247253],[-80.856483,35.249544],[-80.855092,35.261003],[-80.853938,35.266766],[-80.854187,35.271141],[-80.843815,35.273047],[-80.835326,35.272652],[-80.833485,35.272766],[-80.813407,35.276926],[-80.811577,35.276952],[-80.804722,35.276215],[-80.802775,35.276317],[-80.793526,35.278725],[-80.793522,35.273669],[-80.794871,35.267162],[-80.795176,35.260891],[-80.794765,35.258342],[-80.793253,35.258493],[-80.782186,35.258055],[-80.779426,35.258627],[-80.777328,35.259638],[-80.777246,35.258627],[-80.777496,35.257765],[-80.779324,35.255549],[-80.779822,35.254562],[-80.781027,35.249517],[-80.776319,35.250776],[-80.77078,35.249171],[-80.764967,35.249322],[-80.761998,35.250226],[-80.761087,35.249002],[-80.761688,35.246198],[-80.760989,35.244607],[-80.76079,35.242174],[-80.757921,35.241841],[-80.75779,35.241752],[-80.758072,35.241487],[-80.756106,35.239418],[-80.758657,35.238452],[-80.759239,35.237858],[-80.739917,35.231733],[-80.743012,35.229597],[-80.745519,35.228588],[-80.746402,35.227971],[-80.748497,35.224568],[-80.752878,35.21954],[-80.757094,35.223238],[-80.760644,35.225128],[-80.762153,35.22648],[-80.763281,35.226817],[-80.764161,35.226616],[-80.76741,35.223769],[-80.769381,35.219851],[-80.770575,35.219418],[-80.77033,35.218335],[-80.77062,35.215191],[-80.771281,35.213992],[-80.77572,35.215132],[-80.780725,35.215613],[-80.780967,35.213884],[-80.782593,35.209684],[-80.786247,35.201927],[-80.788948,35.202311],[-80.791064,35.203118],[-80.79527,35.20623],[-80.798034,35.207779],[-80.800334,35.206541],[-80.804209,35.207133],[-80.808515,35.204928],[-80.809331,35.204476],[-80.811589,35.202148],[-80.812514,35.199656],[-80.812026,35.197028],[-80.813672,35.192436],[-80.814437,35.192681],[-80.814062,35.194102],[-80.814985,35.194694],[-80.814337,35.196722],[-80.814344,35.197846],[-80.817171,35.197513],[-80.819689,35.198463],[-80.820509,35.19889],[-80.820666,35.200019],[-80.821352,35.201029],[-80.822309,35.201957],[-80.823101,35.202359],[-80.824856,35.202472],[-80.825322,35.200484],[-80.827216,35.195922],[-80.828002,35.196362],[-80.828775,35.198007],[-80.830018,35.198797],[-80.833068,35.20254],[-80.835902,35.20489],[-80.836138,35.206133],[-80.835795,35.208184],[-80.836052,35.210302],[-80.835663,35.211082],[-80.834338,35.2122],[-80.833939,35.213349],[-80.837451,35.213949],[-80.844629,35.219973],[-80.848798,35.218697],[-80.850552,35.217675],[-80.853379,35.220379],[-80.854252,35.221945],[-80.856126,35.223663],[-80.857053,35.224176],[-80.862241,35.224686],[-80.864559,35.224391],[-80.867291,35.224387],[-80.868296,35.223996],[-80.868363,35.224691]]]}},{"type":"Feature","properties":{"district":"103","centroid_lon":-80.743489,"centroid_lat":35.099318,"sf1_2000_vap_flow":43911.5,"charlotte_2000_share_pct":60.1,"north_towns_2000_share_pct":0.0,"south_suburbs_2000_share_pct":35.62,"remainder_2000_share_pct":4.27,"top_2000_places":"Charlotte:60.1%; Matthews:35.6%; Remainder/unincorporated:4.3%; Other place:0.0%","president_2000_margin_pct":32.67,"president_2000_winner":"REP","governor_2000_margin_pct":32.31,"governor_2000_winner":"REP","senate_2002_margin_pct":37.73,"senate_2002_winner":"REP","president_2004_margin_pct":31.42,"president_2004_winner":"REP","governor_2004_margin_pct":11.98,"governor_2004_winner":"REP"},"geometry":{"type":"Polygon","coordinates":[[[-80.824556,35.072132],[-80.823314,35.075887],[-80.82231,35.076926],[-80.821934,35.076795],[-80.819757,35.077397],[-80.818443,35.077439],[-80.817896,35.076796],[-80.816965,35.076329],[-80.81651,35.079696],[-80.816052,35.08056],[-80.815082,35.08135],[-80.812996,35.082225],[-80.811856,35.083327],[-80.81158,35.084618],[-80.811999,35.08627],[-80.81188,35.087489],[-80.807572,35.088291],[-80.806191,35.089243],[-80.804674,35.090868],[-80.803498,35.091528],[-80.793992,35.093418],[-80.791203,35.094533],[-80.782185,35.099058],[-80.778741,35.100013],[-80.779118,35.104183],[-80.778316,35.11165],[-80.78082,35.12429],[-80.78123,35.128417],[-80.77949,35.129233],[-80.778113,35.130571],[-80.774564,35.131464],[-80.76805,35.137351],[-80.769819,35.1391],[-80.771233,35.142019],[-80.772535,35.148346],[-80.768933,35.147462],[-80.766267,35.148397],[-80.76147,35.148981],[-80.76156,35.149898],[-80.760377,35.150821],[-80.761152,35.152069],[-80.760667,35.154449],[-80.759761,35.155256],[-80.757094,35.155734],[-80.755881,35.156501],[-80.755465,35.157532],[-80.755807,35.160842],[-80.755554,35.16146],[-80.754964,35.162002],[-80.750907,35.158898],[-80.749591,35.157345],[-80.748191,35.153845],[-80.74581,35.150475],[-80.745851,35.149253],[-80.745542,35.148232],[-80.741005,35.143217],[-80.736499,35.13399],[-80.72934,35.136657],[-80.731051,35.139034],[-80.727292,35.141094],[-80.727866,35.142004],[-80.723319,35.141671],[-80.722061,35.142639],[-80.720322,35.142582],[-80.72252,35.145089],[-80.721974,35.145378],[-80.722372,35.146024],[-80.719545,35.146381],[-80.719887,35.146808],[-80.716117,35.148035],[-80.719409,35.151083],[-80.71911,35.153849],[-80.720286,35.154757],[-80.715869,35.158186],[-80.716532,35.159457],[-80.716035,35.159704],[-80.717593,35.162017],[-80.715936,35.162911],[-80.710427,35.168329],[-80.706841,35.173344],[-80.70213,35.168561],[-80.699863,35.164089],[-80.698992,35.162818],[-80.699055,35.16193],[-80.701459,35.157822],[-80.701789,35.154929],[-80.699441,35.151137],[-80.697548,35.144607],[-80.697059,35.1439],[-80.686013,35.137512],[-80.682727,35.137487],[-80.677388,35.138246],[-80.676135,35.13816],[-80.674812,35.137744],[-80.668687,35.133618],[-80.66091,35.129899],[-80.654172,35.125048],[-80.700995,35.087602],[-80.714856,35.076816],[-80.763147,35.039596],[-80.768489,35.0358],[-80.769933,35.034531],[-80.772754,35.033047],[-80.776664,35.03307],[-80.778663,35.032362],[-80.780741,35.033258],[-80.782224,35.033072],[-80.78993,35.031177],[-80.790224,35.030726],[-80.791755,35.030056],[-80.796894,35.029831],[-80.800803,35.027842],[-80.8022,35.028001],[-80.804506,35.027749],[-80.803896,35.02987],[-80.803318,35.030907],[-80.803486,35.031831],[-80.800132,35.036891],[-80.79996,35.037908],[-80.800283,35.039804],[-80.799088,35.042646],[-80.799399,35.044706],[-80.799165,35.045689],[-80.799295,35.046105],[-80.798725,35.046807],[-80.798874,35.047555],[-80.798336,35.048664],[-80.796775,35.050492],[-80.796794,35.053033],[-80.796168,35.053432],[-80.79505,35.053639],[-80.794852,35.054011],[-80.792412,35.055025],[-80.792787,35.056445],[-80.790484,35.058736],[-80.789395,35.060298],[-80.787763,35.062914],[-80.787898,35.063759],[-80.793213,35.063997],[-80.794846,35.06363],[-80.7967,35.062803],[-80.808272,35.063877],[-80.812643,35.06395],[-80.820998,35.063611],[-80.822625,35.065874],[-80.824556,35.072132]]]}},{"type":"Feature","properties":{"district":"104","centroid_lon":-80.816465,"centroid_lat":35.14068,"sf1_2000_vap_flow":54211.0,"charlotte_2000_share_pct":100.0,"north_towns_2000_share_pct":0.0,"south_suburbs_2000_share_pct":0.0,"remainder_2000_share_pct":0.0,"top_2000_places":"Charlotte:100.0%","president_2000_margin_pct":25.83,"president_2000_winner":"REP","governor_2000_margin_pct":29.19,"governor_2000_winner":"REP","senate_2002_margin_pct":26.67,"senate_2002_winner":"REP","president_2004_margin_pct":23.37,"president_2004_winner":"REP","governor_2004_margin_pct":5.07,"governor_2004_winner":"REP"},"geometry":{"type":"Polygon","coordinates":[[[-80.881165,35.119627],[-80.877611,35.126804],[-80.876101,35.129221],[-80.875324,35.131456],[-80.875296,35.13269],[-80.876579,35.138963],[-80.876504,35.142861],[-80.875563,35.142775],[-80.874107,35.143203],[-80.871766,35.142481],[-80.870911,35.142917],[-80.870454,35.142907],[-80.870777,35.146439],[-80.870726,35.147547],[-80.870387,35.148055],[-80.869936,35.147846],[-80.866546,35.147834],[-80.86598,35.148122],[-80.865435,35.147849],[-80.863992,35.147917],[-80.861467,35.147362],[-80.857795,35.148011],[-80.857912,35.149365],[-80.857372,35.15109],[-80.855137,35.15231],[-80.85508,35.153249],[-80.851428,35.157043],[-80.850618,35.159627],[-80.848782,35.16004],[-80.8487,35.159327],[-80.847961,35.15958],[-80.842274,35.167076],[-80.840134,35.174042],[-80.837806,35.176326],[-80.835486,35.184799],[-80.830312,35.189244],[-80.828628,35.19264],[-80.825629,35.199724],[-80.824856,35.202472],[-80.823311,35.20241],[-80.822309,35.201957],[-80.820809,35.200309],[-80.820509,35.19889],[-80.819431,35.198345],[-80.817171,35.197513],[-80.814344,35.197846],[-80.814337,35.196722],[-80.814985,35.194694],[-80.814062,35.194102],[-80.814437,35.192681],[-80.813672,35.192436],[-80.812026,35.197028],[-80.812522,35.19951],[-80.811494,35.198787],[-80.810825,35.197822],[-80.810551,35.19671],[-80.811054,35.192924],[-80.81075,35.189482],[-80.809149,35.186132],[-80.804833,35.180883],[-80.799422,35.177087],[-80.798232,35.175937],[-80.794247,35.177052],[-80.792756,35.177775],[-80.791292,35.175944],[-80.786658,35.172324],[-80.786281,35.171421],[-80.78341,35.169131],[-80.780894,35.168057],[-80.780543,35.1676],[-80.777603,35.16904],[-80.775504,35.167823],[-80.773575,35.166307],[-80.77486,35.164625],[-80.776254,35.163649],[-80.775677,35.162726],[-80.774565,35.162971],[-80.770384,35.160355],[-80.769418,35.161123],[-80.767032,35.158188],[-80.76581,35.159094],[-80.764218,35.158489],[-80.763184,35.157656],[-80.761892,35.155604],[-80.760443,35.154759],[-80.760809,35.15412],[-80.761154,35.152144],[-80.761001,35.15157],[-80.760377,35.150821],[-80.76156,35.149898],[-80.76147,35.148981],[-80.766267,35.148397],[-80.768933,35.147462],[-80.772535,35.148346],[-80.771233,35.142019],[-80.769819,35.1391],[-80.76805,35.137351],[-80.774564,35.131464],[-80.778113,35.130571],[-80.77949,35.129233],[-80.78123,35.128417],[-80.78082,35.12429],[-80.778316,35.11165],[-80.779118,35.104183],[-80.778741,35.100013],[-80.782185,35.099058],[-80.791203,35.094533],[-80.793992,35.093418],[-80.803498,35.091528],[-80.804674,35.090868],[-80.806929,35.08864],[-80.808491,35.087975],[-80.814581,35.086874],[-80.825839,35.083114],[-80.827246,35.082829],[-80.828704,35.082795],[-80.83045,35.083128],[-80.832627,35.084192],[-80.834085,35.085355],[-80.831066,35.09029],[-80.83017,35.091056],[-80.825836,35.091785],[-80.821356,35.093341],[-80.820849,35.094224],[-80.820673,35.097242],[-80.819954,35.09835],[-80.818672,35.099571],[-80.818362,35.100301],[-80.818243,35.102023],[-80.818474,35.102769],[-80.818246,35.103479],[-80.81722,35.104676],[-80.814876,35.105438],[-80.814474,35.106396],[-80.815674,35.108325],[-80.816798,35.109576],[-80.81748,35.109576],[-80.822312,35.111025],[-80.825544,35.112265],[-80.824073,35.115463],[-80.82737,35.11651],[-80.8288,35.117251],[-80.829928,35.118257],[-80.830955,35.120018],[-80.834487,35.118746],[-80.838444,35.118383],[-80.842836,35.119066],[-80.845519,35.119935],[-80.846694,35.120039],[-80.848074,35.119678],[-80.849911,35.118271],[-80.851423,35.117666],[-80.852875,35.117639],[-80.855659,35.118157],[-80.861517,35.117066],[-80.864639,35.118012],[-80.869949,35.118456],[-80.875787,35.117544],[-80.881165,35.119627]]]}},{"type":"Feature","properties":{"district":"105","centroid_lon":-80.845473,"centroid_lat":35.065302,"sf1_2000_vap_flow":38433.0,"charlotte_2000_share_pct":84.8,"north_towns_2000_share_pct":0.0,"south_suburbs_2000_share_pct":3.41,"remainder_2000_share_pct":11.79,"top_2000_places":"Charlotte:84.8%; Remainder/unincorporated:11.8%; Pineville:3.4%","president_2000_margin_pct":28.91,"president_2000_winner":"REP","governor_2000_margin_pct":30.08,"governor_2000_winner":"REP","senate_2002_margin_pct":30.5,"senate_2002_winner":"REP","president_2004_margin_pct":22.51,"president_2004_winner":"REP","governor_2004_margin_pct":5.98,"governor_2004_winner":"REP"},"geometry":{"type":"Polygon","coordinates":[[[-80.898047,35.067657],[-80.896853,35.067289],[-80.896521,35.06655],[-80.895648,35.066822],[-80.895624,35.067054],[-80.896364,35.067513],[-80.897257,35.068753],[-80.897414,35.069638],[-80.897214,35.070676],[-80.895263,35.070819],[-80.894003,35.070592],[-80.893138,35.068877],[-80.890951,35.069189],[-80.890011,35.068825],[-80.88973,35.067557],[-80.88877,35.067275],[-80.888263,35.06782],[-80.888002,35.068823],[-80.888501,35.069926],[-80.889954,35.071442],[-80.890044,35.072989],[-80.891813,35.073144],[-80.892329,35.072996],[-80.892896,35.072434],[-80.893642,35.073097],[-80.893555,35.073372],[-80.893262,35.073712],[-80.892163,35.074025],[-80.892227,35.075873],[-80.890764,35.076628],[-80.887696,35.076251],[-80.886759,35.074779],[-80.885317,35.075492],[-80.884785,35.076371],[-80.884881,35.076828],[-80.88574,35.077409],[-80.887136,35.077655],[-80.887424,35.078011],[-80.887079,35.078877],[-80.885245,35.079466],[-80.886782,35.085333],[-80.88656,35.08854],[-80.884001,35.094259],[-80.879531,35.092704],[-80.878652,35.093912],[-80.878242,35.095307],[-80.877662,35.096312],[-80.877444,35.098263],[-80.878068,35.099064],[-80.88001,35.100836],[-80.88292,35.102414],[-80.882627,35.104865],[-80.883331,35.110177],[-80.882057,35.109515],[-80.883012,35.112971],[-80.883348,35.115338],[-80.882999,35.116609],[-80.881165,35.119627],[-80.875639,35.11752],[-80.869949,35.118456],[-80.864639,35.118012],[-80.861517,35.117066],[-80.855659,35.118157],[-80.852875,35.117639],[-80.851423,35.117666],[-80.849911,35.118271],[-80.848074,35.119678],[-80.846694,35.120039],[-80.845519,35.119935],[-80.842836,35.119066],[-80.838444,35.118383],[-80.834487,35.118746],[-80.830955,35.120018],[-80.829928,35.118257],[-80.8288,35.117251],[-80.82737,35.11651],[-80.824073,35.115463],[-80.825544,35.112265],[-80.822312,35.111025],[-80.81748,35.109576],[-80.816798,35.109576],[-80.814485,35.106507],[-80.814876,35.105438],[-80.81722,35.104676],[-80.818246,35.103479],[-80.818474,35.102769],[-80.818243,35.102023],[-80.818362,35.100301],[-80.818672,35.099571],[-80.819954,35.09835],[-80.820673,35.097242],[-80.820849,35.094224],[-80.821356,35.093341],[-80.825836,35.091785],[-80.83017,35.091056],[-80.831066,35.09029],[-80.834085,35.085355],[-80.832627,35.084192],[-80.83045,35.083128],[-80.828704,35.082795],[-80.827246,35.082829],[-80.825839,35.083114],[-80.815767,35.086531],[-80.81188,35.087489],[-80.811999,35.08627],[-80.81158,35.084618],[-80.811856,35.083327],[-80.812996,35.082225],[-80.815082,35.08135],[-80.816052,35.08056],[-80.81651,35.079696],[-80.816965,35.076329],[-80.817896,35.076796],[-80.818274,35.077403],[-80.819757,35.077397],[-80.821934,35.076795],[-80.82231,35.076926],[-80.823314,35.075887],[-80.824556,35.071746],[-80.822625,35.065874],[-80.822024,35.06481],[-80.820998,35.063611],[-80.812643,35.06395],[-80.808272,35.063877],[-80.7967,35.062803],[-80.794479,35.063748],[-80.79219,35.064043],[-80.787898,35.063759],[-80.787763,35.062914],[-80.790383,35.058857],[-80.792787,35.056445],[-80.792412,35.055025],[-80.794852,35.054011],[-80.79505,35.053639],[-80.796168,35.053432],[-80.796794,35.053033],[-80.796775,35.050492],[-80.798336,35.048664],[-80.798874,35.047555],[-80.798725,35.046807],[-80.799295,35.046105],[-80.799165,35.045689],[-80.799399,35.044706],[-80.799088,35.042646],[-80.800283,35.039804],[-80.79996,35.037908],[-80.800132,35.036891],[-80.803486,35.031831],[-80.803318,35.030907],[-80.803896,35.02987],[-80.804506,35.027749],[-80.805094,35.027364],[-80.805909,35.025506],[-80.808194,35.023791],[-80.80911,35.022796],[-80.810867,35.021999],[-80.811897,35.020746],[-80.812832,35.020537],[-80.814349,35.020614],[-80.815686,35.019465],[-80.817991,35.018712],[-80.818886,35.018135],[-80.82101,35.017326],[-80.821705,35.016419],[-80.82232,35.016139],[-80.822206,35.01465],[-80.822814,35.014539],[-80.822961,35.014017],[-80.825059,35.011972],[-80.830102,35.00946],[-80.830771,35.008795],[-80.830717,35.008311],[-80.831078,35.007827],[-80.833984,35.007486],[-80.835426,35.006524],[-80.836422,35.006149],[-80.836989,35.005325],[-80.838018,35.005027],[-80.839173,35.003862],[-80.839895,35.002801],[-80.840278,35.001692],[-80.854825,35.018937],[-80.864343,35.029634],[-80.88529,35.053957],[-80.893219,35.062737],[-80.898047,35.067657]]]}},{"type":"Feature","properties":{"district":"106","centroid_lon":-80.785135,"centroid_lat":35.370685,"sf1_2000_vap_flow":25904.28,"charlotte_2000_share_pct":52.07,"north_towns_2000_share_pct":22.21,"south_suburbs_2000_share_pct":0.0,"remainder_2000_share_pct":25.72,"top_2000_places":"Charlotte:52.1%; Remainder/unincorporated:25.7%; Huntersville:22.2%","president_2000_margin_pct":-3.66,"president_2000_winner":"DEM","governor_2000_margin_pct":-5.61,"governor_2000_winner":"DEM","senate_2002_margin_pct":12.21,"senate_2002_winner":"REP","president_2004_margin_pct":4.49,"president_2004_winner":"REP","governor_2004_margin_pct":-11.93,"governor_2004_winner":"DEM"},"geometry":{"type":"Polygon","coordinates":[[[-80.862696,35.421702],[-80.855048,35.423723],[-80.85557,35.424377],[-80.855915,35.424327],[-80.857782,35.426467],[-80.858485,35.426029],[-80.860703,35.42844],[-80.858899,35.428867],[-80.856903,35.428389],[-80.859116,35.429488],[-80.859908,35.429447],[-80.859446,35.429922],[-80.859026,35.431252],[-80.859105,35.432374],[-80.858422,35.432358],[-80.858588,35.431122],[-80.856993,35.430916],[-80.854411,35.432341],[-80.854939,35.433155],[-80.853532,35.433905],[-80.853738,35.434802],[-80.853303,35.437042],[-80.853428,35.437495],[-80.852618,35.43762],[-80.852698,35.438453],[-80.85356,35.439917],[-80.853448,35.441398],[-80.844521,35.440773],[-80.843763,35.434592],[-80.84016,35.435165],[-80.833364,35.437949],[-80.831096,35.438224],[-80.826109,35.437997],[-80.823515,35.43811],[-80.821785,35.439196],[-80.820958,35.439442],[-80.817327,35.438884],[-80.812763,35.435699],[-80.808473,35.435564],[-80.806873,35.434408],[-80.805516,35.433869],[-80.803582,35.433952],[-80.803041,35.435168],[-80.802927,35.436532],[-80.792335,35.425442],[-80.787798,35.423221],[-80.781537,35.423524],[-80.778391,35.42276],[-80.777137,35.421567],[-80.775519,35.420847],[-80.77336,35.420615],[-80.772018,35.420851],[-80.767708,35.422478],[-80.764274,35.424776],[-80.760155,35.424211],[-80.758,35.423536],[-80.756739,35.423657],[-80.752167,35.41405],[-80.763549,35.412099],[-80.766414,35.401478],[-80.755309,35.394823],[-80.751421,35.388997],[-80.74441,35.380667],[-80.732757,35.371931],[-80.708878,35.35535],[-80.693654,35.346734],[-80.70804,35.33709],[-80.709539,35.33659],[-80.715341,35.335467],[-80.719163,35.334354],[-80.721039,35.333508],[-80.722493,35.332438],[-80.748811,35.307167],[-80.753863,35.299429],[-80.756583,35.2908],[-80.75765,35.289514],[-80.762454,35.285123],[-80.764112,35.284493],[-80.77367,35.28403],[-80.793526,35.278725],[-80.793728,35.285324],[-80.797986,35.295638],[-80.793748,35.295532],[-80.792902,35.296045],[-80.789704,35.296014],[-80.78948,35.299126],[-80.78884,35.299888],[-80.789623,35.300247],[-80.789672,35.30091],[-80.790757,35.301352],[-80.7902,35.301715],[-80.789438,35.303093],[-80.78919,35.304085],[-80.788298,35.305214],[-80.787159,35.305839],[-80.786485,35.305427],[-80.785918,35.306973],[-80.78552,35.306753],[-80.785255,35.307203],[-80.785113,35.306996],[-80.784334,35.307109],[-80.783376,35.30757],[-80.782287,35.306899],[-80.781762,35.307537],[-80.780398,35.307083],[-80.778987,35.307331],[-80.778061,35.308103],[-80.776876,35.307822],[-80.776256,35.308101],[-80.775883,35.30905],[-80.77491,35.309536],[-80.774281,35.310524],[-80.773477,35.310023],[-80.770731,35.309592],[-80.770363,35.30985],[-80.770048,35.310878],[-80.769567,35.310677],[-80.768768,35.311054],[-80.767275,35.311195],[-80.766973,35.311522],[-80.766571,35.312932],[-80.766063,35.31327],[-80.76441,35.313707],[-80.763179,35.31308],[-80.761781,35.313198],[-80.776315,35.317441],[-80.775352,35.320287],[-80.775694,35.32099],[-80.774647,35.322302],[-80.773345,35.326245],[-80.773943,35.326223],[-80.775653,35.326757],[-80.776102,35.326252],[-80.777151,35.325945],[-80.777424,35.325231],[-80.777997,35.325121],[-80.778691,35.325325],[-80.779438,35.324903],[-80.779925,35.325183],[-80.779849,35.32577],[-80.779485,35.326085],[-80.779947,35.326495],[-80.780846,35.325767],[-80.782098,35.3252],[-80.783438,35.325619],[-80.783464,35.328411],[-80.784135,35.33018],[-80.785315,35.331483],[-80.786921,35.332423],[-80.789581,35.332948],[-80.799077,35.332611],[-80.799069,35.332797],[-80.797569,35.332919],[-80.796014,35.334298],[-80.794689,35.337447],[-80.796431,35.339489],[-80.795393,35.343099],[-80.795921,35.350756],[-80.799094,35.349557],[-80.800016,35.348683],[-80.800428,35.347278],[-80.802531,35.346325],[-80.803268,35.346603],[-80.807127,35.34934],[-80.809253,35.350327],[-80.812551,35.35274],[-80.816463,35.352795],[-80.82268,35.353662],[-80.822386,35.356173],[-80.822701,35.358388],[-80.820996,35.360495],[-80.819722,35.363869],[-80.819911,35.364664],[-80.820966,35.366951],[-80.823083,35.36715],[-80.827683,35.369495],[-80.832259,35.370254],[-80.837811,35.37034],[-80.841257,35.368983],[-80.843089,35.367949],[-80.844097,35.37047],[-80.848083,35.37718],[-80.849196,35.379463],[-80.84991,35.38208],[-80.850172,35.386203],[-80.850801,35.389126],[-80.851952,35.391687],[-80.85487,35.396376],[-80.856205,35.399378],[-80.856875,35.401935],[-80.85899,35.414183],[-80.86026,35.41748],[-80.862696,35.421702]]]}},{"type":"Feature","properties":{"district":"107","centroid_lon":-80.868039,"centroid_lat":35.337193,"sf1_2000_vap_flow":33078.09,"charlotte_2000_share_pct":79.68,"north_towns_2000_share_pct":3.25,"south_suburbs_2000_share_pct":0.0,"remainder_2000_share_pct":17.07,"top_2000_places":"Charlotte:79.7%; Remainder/unincorporated:17.1%; Huntersville:3.2%","president_2000_margin_pct":-22.87,"president_2000_winner":"DEM","governor_2000_margin_pct":-24.82,"governor_2000_winner":"DEM","senate_2002_margin_pct":-37.41,"senate_2002_winner":"DEM","president_2004_margin_pct":-35.01,"president_2004_winner":"DEM","governor_2004_margin_pct":-46.16,"governor_2004_winner":"DEM"},"geometry":{"type":"Polygon","coordinates":[[[-80.986872,35.378436],[-80.986484,35.38007],[-80.98498,35.381469],[-80.983753,35.381846],[-80.979739,35.381614],[-80.977533,35.382098],[-80.975002,35.383313],[-80.967972,35.387566],[-80.965013,35.388699],[-80.959037,35.3904],[-80.95684,35.391458],[-80.954811,35.39381],[-80.954362,35.396185],[-80.954439,35.398805],[-80.955708,35.401623],[-80.954807,35.401681],[-80.953932,35.400722],[-80.9533,35.401166],[-80.95353,35.401722],[-80.953158,35.401932],[-80.951601,35.401384],[-80.95108,35.400802],[-80.949363,35.400624],[-80.948557,35.401613],[-80.9479,35.40184],[-80.947029,35.403177],[-80.945971,35.403733],[-80.946136,35.404127],[-80.945848,35.404366],[-80.945786,35.405294],[-80.945081,35.405374],[-80.944632,35.405061],[-80.943899,35.404972],[-80.942453,35.406118],[-80.941612,35.406405],[-80.941631,35.406692],[-80.940976,35.406771],[-80.940307,35.407418],[-80.939735,35.407514],[-80.938309,35.408367],[-80.937613,35.409735],[-80.936367,35.410487],[-80.934108,35.415413],[-80.93262,35.41532],[-80.930573,35.413556],[-80.929672,35.41223],[-80.928345,35.411378],[-80.925819,35.4103],[-80.926493,35.408628],[-80.926488,35.407844],[-80.923102,35.397761],[-80.923876,35.394782],[-80.922658,35.392365],[-80.921004,35.390479],[-80.921006,35.388561],[-80.917579,35.389014],[-80.911655,35.389012],[-80.89716,35.393273],[-80.889401,35.392389],[-80.885827,35.390849],[-80.881577,35.386972],[-80.883421,35.38512],[-80.87708,35.381827],[-80.866316,35.379815],[-80.858694,35.376857],[-80.854162,35.375578],[-80.847505,35.376201],[-80.844097,35.37047],[-80.843089,35.367949],[-80.838346,35.370247],[-80.833212,35.370313],[-80.828299,35.369686],[-80.823083,35.36715],[-80.820966,35.366951],[-80.819722,35.363869],[-80.821086,35.360301],[-80.822701,35.358388],[-80.822386,35.356173],[-80.82268,35.353662],[-80.816463,35.352795],[-80.812551,35.35274],[-80.809253,35.350327],[-80.807127,35.34934],[-80.803268,35.346603],[-80.802531,35.346325],[-80.800428,35.347278],[-80.800016,35.348683],[-80.799094,35.349557],[-80.795921,35.350756],[-80.795393,35.343099],[-80.796431,35.339489],[-80.794689,35.337447],[-80.796014,35.334298],[-80.797569,35.332919],[-80.799069,35.332797],[-80.799077,35.332611],[-80.789581,35.332948],[-80.786921,35.332423],[-80.785315,35.331483],[-80.784135,35.33018],[-80.783464,35.328411],[-80.783438,35.325619],[-80.782098,35.3252],[-80.780846,35.325767],[-80.779947,35.326495],[-80.779485,35.326085],[-80.779849,35.32577],[-80.779925,35.325183],[-80.779438,35.324903],[-80.778691,35.325325],[-80.777997,35.325121],[-80.777424,35.325231],[-80.777151,35.325945],[-80.776102,35.326252],[-80.775653,35.326757],[-80.773943,35.326223],[-80.773345,35.326245],[-80.774647,35.322302],[-80.775694,35.32099],[-80.775352,35.320287],[-80.776315,35.317441],[-80.761781,35.313198],[-80.763179,35.31308],[-80.76441,35.313707],[-80.766063,35.31327],[-80.766571,35.312932],[-80.766973,35.311522],[-80.767275,35.311195],[-80.768768,35.311054],[-80.769567,35.310677],[-80.770048,35.310878],[-80.770363,35.30985],[-80.770731,35.309592],[-80.773477,35.310023],[-80.774281,35.310524],[-80.77491,35.309536],[-80.775883,35.30905],[-80.776256,35.308101],[-80.776876,35.307822],[-80.778061,35.308103],[-80.778987,35.307331],[-80.780398,35.307083],[-80.781762,35.307537],[-80.782287,35.306899],[-80.783376,35.30757],[-80.784334,35.307109],[-80.785113,35.306996],[-80.785255,35.307203],[-80.78552,35.306753],[-80.785918,35.306973],[-80.786485,35.305427],[-80.787159,35.305839],[-80.788298,35.305214],[-80.78919,35.304085],[-80.789438,35.303093],[-80.7902,35.301715],[-80.790757,35.301352],[-80.789672,35.30091],[-80.789623,35.300247],[-80.78884,35.299888],[-80.78948,35.299126],[-80.789704,35.296014],[-80.792902,35.296045],[-80.793748,35.295532],[-80.797986,35.295638],[-80.793728,35.285324],[-80.793526,35.278725],[-80.802775,35.276317],[-80.804722,35.276215],[-80.811577,35.276952],[-80.813407,35.276926],[-80.833485,35.272766],[-80.835326,35.272652],[-80.843815,35.273047],[-80.854187,35.271141],[-80.853938,35.266766],[-80.855092,35.261003],[-80.856483,35.249544],[-80.859407,35.251356],[-80.865084,35.253566],[-80.864916,35.256778],[-80.865137,35.257408],[-80.868032,35.258412],[-80.86849,35.258838],[-80.868043,35.26118],[-80.868814,35.263329],[-80.868718,35.264718],[-80.869315,35.26533],[-80.870032,35.268084],[-80.865719,35.268937],[-80.86567,35.270524],[-80.865194,35.272496],[-80.865363,35.273259],[-80.865798,35.273423],[-80.866426,35.274573],[-80.866736,35.275767],[-80.866993,35.276054],[-80.871382,35.276362],[-80.872615,35.275766],[-80.87358,35.274348],[-80.874645,35.275887],[-80.875519,35.278578],[-80.882104,35.287853],[-80.882142,35.288012],[-80.879246,35.288376],[-80.877077,35.287738],[-80.876796,35.292738],[-80.875803,35.293189],[-80.871952,35.292615],[-80.873062,35.293511],[-80.874655,35.295759],[-80.876314,35.298879],[-80.878158,35.301294],[-80.876418,35.302369],[-80.871028,35.307163],[-80.875948,35.309443],[-80.88713,35.317736],[-80.89431,35.320922],[-80.901982,35.322707],[-80.905245,35.326245],[-80.9089,35.327834],[-80.910089,35.328848],[-80.910954,35.33005],[-80.912632,35.33418],[-80.913988,35.335995],[-80.917943,35.335351],[-80.922503,35.335938],[-80.928809,35.334779],[-80.933187,35.3352],[-80.935713,35.334432],[-80.937364,35.333572],[-80.938262,35.335643],[-80.938419,35.339168],[-80.939381,35.341556],[-80.939473,35.343283],[-80.941044,35.345375],[-80.943516,35.349531],[-80.943632,35.350582],[-80.942114,35.351123],[-80.938207,35.354377],[-80.934954,35.356562],[-80.933504,35.357246],[-80.930907,35.357811],[-80.92824,35.357518],[-80.924747,35.358461],[-80.923214,35.359536],[-80.922998,35.360241],[-80.923253,35.360883],[-80.925309,35.362043],[-80.929423,35.362993],[-80.932409,35.363032],[-80.935072,35.362153],[-80.935877,35.36211],[-80.9384,35.362948],[-80.942325,35.365169],[-80.947015,35.365846],[-80.95058,35.366815],[-80.952265,35.367712],[-80.954929,35.369808],[-80.955391,35.370438],[-80.956188,35.372769],[-80.957704,35.374587],[-80.958278,35.374984],[-80.960502,35.37544],[-80.962749,35.375199],[-80.964773,35.373523],[-80.965724,35.372042],[-80.96733,35.368553],[-80.968859,35.367065],[-80.9736,35.36402],[-80.975035,35.363922],[-80.976447,35.36416],[-80.9811,35.365909],[-80.98218,35.366639],[-80.9837,35.368351],[-80.985366,35.371387],[-80.986608,35.374832],[-80.986872,35.378436]]]}},{"type":"Feature","properties":{"district":"112","centroid_lon":-80.655295,"centroid_lat":35.201469,"sf1_2000_vap_flow":38573.0,"charlotte_2000_share_pct":40.87,"north_towns_2000_share_pct":0.0,"south_suburbs_2000_share_pct":29.27,"remainder_2000_share_pct":29.86,"top_2000_places":"Charlotte:40.9%; Remainder/unincorporated:29.9%; Mint Hill:29.3%","president_2000_margin_pct":21.04,"president_2000_winner":"REP","governor_2000_margin_pct":20.27,"governor_2000_winner":"REP","senate_2002_margin_pct":11.7,"senate_2002_winner":"REP","president_2004_margin_pct":7.62,"president_2004_winner":"REP","governor_2004_margin_pct":-9.99,"governor_2004_winner":"DEM"},"geometry":{"type":"Polygon","coordinates":[[[-80.739917,35.231733],[-80.739103,35.232637],[-80.737675,35.237509],[-80.737955,35.239797],[-80.737751,35.242831],[-80.737138,35.249869],[-80.736377,35.254836],[-80.736216,35.258278],[-80.727185,35.2586],[-80.724015,35.256921],[-80.720616,35.255674],[-80.710673,35.254959],[-80.703962,35.252773],[-80.703119,35.252694],[-80.702047,35.253303],[-80.700251,35.257094],[-80.699548,35.25796],[-80.695068,35.260371],[-80.694112,35.260315],[-80.689435,35.258434],[-80.684736,35.25883],[-80.679704,35.258032],[-80.677412,35.258513],[-80.672411,35.260696],[-80.667027,35.264328],[-80.666391,35.265266],[-80.666095,35.267747],[-80.627595,35.248508],[-80.550349,35.208412],[-80.654172,35.125048],[-80.66091,35.129899],[-80.668687,35.133618],[-80.674812,35.137744],[-80.676135,35.13816],[-80.677388,35.138246],[-80.682727,35.137487],[-80.686013,35.137512],[-80.697305,35.144148],[-80.699441,35.151137],[-80.70177,35.154812],[-80.701459,35.157822],[-80.699126,35.161789],[-80.698926,35.162503],[-80.701213,35.167075],[-80.70237,35.168878],[-80.708327,35.174756],[-80.709523,35.175477],[-80.713705,35.175986],[-80.714981,35.175769],[-80.716977,35.174897],[-80.717947,35.174903],[-80.718813,35.175236],[-80.720604,35.17692],[-80.722628,35.177958],[-80.724079,35.17924],[-80.729972,35.185905],[-80.72943,35.187313],[-80.725833,35.193371],[-80.720844,35.199593],[-80.722936,35.201001],[-80.723972,35.203104],[-80.725949,35.202503],[-80.726013,35.212135],[-80.725409,35.213451],[-80.723086,35.215667],[-80.722503,35.216611],[-80.722393,35.217801],[-80.723085,35.219443],[-80.721484,35.219546],[-80.715927,35.217544],[-80.713784,35.218271],[-80.711058,35.217139],[-80.710738,35.217899],[-80.710022,35.218378],[-80.710693,35.220245],[-80.708811,35.223053],[-80.708242,35.224164],[-80.708237,35.224614],[-80.712491,35.224789],[-80.715465,35.225613],[-80.720568,35.225654],[-80.719914,35.228152],[-80.719986,35.230026],[-80.730539,35.232081],[-80.727738,35.229545],[-80.726571,35.227706],[-80.729391,35.228343],[-80.739917,35.231733]]]}}],"county_boundary":{"type":"Polygon","coordinates":[[[-80.744436,35.380696],[-80.732757,35.371931],[-80.708878,35.35535],[-80.693061,35.346379],[-80.683071,35.315796],[-80.681165,35.310837],[-80.670317,35.278231],[-80.670104,35.275746],[-80.668494,35.273854],[-80.66724,35.269119],[-80.66648,35.267934],[-80.627595,35.248508],[-80.550349,35.208412],[-80.700995,35.087602],[-80.747375,35.05159],[-80.769933,35.034531],[-80.773162,35.032949],[-80.776664,35.03307],[-80.778663,35.032362],[-80.780741,35.033258],[-80.782224,35.033072],[-80.78993,35.031177],[-80.790224,35.030726],[-80.791755,35.030056],[-80.796894,35.029831],[-80.800803,35.027842],[-80.804506,35.027749],[-80.805094,35.027364],[-80.805562,35.025985],[-80.806371,35.025061],[-80.80911,35.022796],[-80.810867,35.021999],[-80.81161,35.020928],[-80.812558,35.020559],[-80.814349,35.020614],[-80.815686,35.019465],[-80.82101,35.017326],[-80.821705,35.016419],[-80.82232,35.016139],[-80.822206,35.01465],[-80.822814,35.014539],[-80.822961,35.014017],[-80.825059,35.011972],[-80.830102,35.00946],[-80.830771,35.008795],[-80.831078,35.007827],[-80.833984,35.007486],[-80.836422,35.006149],[-80.83727,35.005105],[-80.838018,35.005027],[-80.839895,35.002801],[-80.840278,35.001692],[-80.854825,35.018937],[-80.88529,35.053957],[-80.893219,35.062737],[-80.907836,35.077826],[-80.92717,35.100257],[-80.934739,35.107318],[-80.961935,35.090443],[-81.018976,35.057632],[-81.029272,35.051275],[-81.041496,35.044713],[-81.050923,35.056709],[-81.057672,35.061867],[-81.058207,35.064],[-81.057669,35.070811],[-81.057732,35.07411],[-81.056349,35.081549],[-81.057055,35.084864],[-81.056984,35.086446],[-81.056032,35.088154],[-81.053462,35.091369],[-81.051917,35.096279],[-81.05038,35.098372],[-81.047044,35.100337],[-81.044355,35.101162],[-81.038645,35.101984],[-81.036716,35.102735],[-81.035196,35.103776],[-81.033605,35.105702],[-81.032854,35.107377],[-81.032367,35.109619],[-81.032415,35.112149],[-81.033149,35.114595],[-81.035614,35.118584],[-81.037066,35.122963],[-81.038765,35.125449],[-81.040542,35.127196],[-81.043206,35.12882],[-81.050456,35.131109],[-81.052029,35.132833],[-81.051884,35.134497],[-81.048803,35.141052],[-81.047581,35.145196],[-81.046332,35.146729],[-81.044688,35.147734],[-81.042636,35.148126],[-81.037278,35.1481],[-81.033909,35.14869],[-81.032238,35.148412],[-81.025658,35.148667],[-81.023037,35.149521],[-81.021558,35.150378],[-81.018284,35.153554],[-81.017112,35.154318],[-81.015372,35.154146],[-81.011839,35.152749],[-81.009804,35.153028],[-81.008184,35.153858],[-81.006228,35.156089],[-81.005758,35.157545],[-81.005836,35.160877],[-81.006765,35.162751],[-81.007306,35.165175],[-81.003915,35.170407],[-81.003015,35.174106],[-81.00244,35.182065],[-81.003014,35.185069],[-81.0039,35.187033],[-81.00614,35.195082],[-81.006273,35.198349],[-81.005347,35.208286],[-81.007321,35.211799],[-81.010387,35.214983],[-81.014186,35.222366],[-81.014104,35.225219],[-81.012459,35.231474],[-81.010815,35.235964],[-81.010631,35.240647],[-81.010207,35.243198],[-81.008234,35.248473],[-81.008868,35.250706],[-81.011206,35.2523],[-81.014111,35.258513],[-81.01505,35.268655],[-81.013914,35.272519],[-81.011156,35.278053],[-81.008996,35.281043],[-81.007941,35.284164],[-81.006643,35.291326],[-81.004648,35.295327],[-81.003862,35.297916],[-81.001828,35.301235],[-81.001161,35.304928],[-80.999994,35.306209],[-80.997249,35.307757],[-80.995387,35.309472],[-80.994067,35.31152],[-80.992004,35.316643],[-80.990164,35.319551],[-80.988929,35.321006],[-80.984315,35.324085],[-80.981813,35.326969],[-80.980944,35.328822],[-80.980845,35.330549],[-80.981304,35.332273],[-80.982702,35.334722],[-80.984995,35.336605],[-80.985302,35.337217],[-80.985315,35.338938],[-80.984252,35.34091],[-80.981919,35.342485],[-80.976876,35.343896],[-80.975112,35.344709],[-80.973953,35.346152],[-80.973002,35.349879],[-80.971864,35.350843],[-80.970621,35.351323],[-80.968864,35.351372],[-80.967088,35.350794],[-80.963551,35.347399],[-80.962141,35.347046],[-80.958355,35.349526],[-80.954555,35.350676],[-80.952042,35.350971],[-80.944592,35.350508],[-80.942924,35.350748],[-80.937215,35.355081],[-80.934199,35.356934],[-80.931644,35.357757],[-80.92867,35.357504],[-80.926473,35.357879],[-80.924141,35.3588],[-80.923042,35.359917],[-80.923062,35.360648],[-80.923732,35.361287],[-80.926883,35.362521],[-80.931532,35.363108],[-80.935877,35.36211],[-80.9384,35.362948],[-80.942325,35.365169],[-80.947015,35.365846],[-80.951058,35.367004],[-80.954929,35.369808],[-80.956188,35.372769],[-80.957704,35.374587],[-80.960161,35.375413],[-80.962555,35.375284],[-80.964773,35.373523],[-80.96733,35.368553],[-80.968859,35.367065],[-80.9736,35.36402],[-80.976447,35.36416],[-80.9811,35.365909],[-80.98298,35.367469],[-80.985366,35.371387],[-80.986784,35.37569],[-80.986729,35.379481],[-80.986136,35.380582],[-80.98498,35.381469],[-80.983753,35.381846],[-80.979053,35.381686],[-80.976629,35.382452],[-80.967972,35.387566],[-80.957546,35.391024],[-80.956295,35.391895],[-80.954811,35.39381],[-80.954316,35.396608],[-80.954439,35.398805],[-80.954966,35.40031],[-80.956928,35.403721],[-80.958752,35.411945],[-80.958532,35.413611],[-80.95559,35.418923],[-80.955128,35.421023],[-80.955852,35.425751],[-80.957035,35.428785],[-80.95849,35.431264],[-80.958639,35.432901],[-80.956214,35.437824],[-80.953358,35.440714],[-80.952264,35.444408],[-80.95038,35.447302],[-80.94878,35.448613],[-80.946118,35.449718],[-80.943086,35.452916],[-80.94238,35.455147],[-80.942489,35.457728],[-80.943251,35.459373],[-80.950618,35.465289],[-80.951745,35.468224],[-80.951517,35.470453],[-80.948952,35.476149],[-80.948143,35.480044],[-80.945325,35.483617],[-80.945456,35.484502],[-80.947344,35.488473],[-80.906723,35.514785],[-80.784167,35.506017],[-80.785692,35.503085],[-80.787069,35.496875],[-80.786835,35.49307],[-80.781895,35.483819],[-80.781332,35.479658],[-80.779488,35.474922],[-80.779629,35.473218],[-80.779331,35.472012],[-80.775449,35.466699],[-80.774485,35.464399],[-80.773384,35.463148],[-80.772974,35.457679],[-80.752167,35.41405],[-80.763549,35.412099],[-80.766414,35.401478],[-80.755309,35.394823],[-80.751421,35.388997],[-80.744436,35.380696]]]}}